Instagram Page URL,Business Name,Phone,Business Email,Website,Address,City,State,Zip
https://www.instagram.com/sapanahuja,Sapan Ahuja Photography,(708) 568-1072,info@sapanahuja.com,http://www.sapanahuja.com/,1224 W Van Buren St APT 710, Chicago, IL,60607
https://www.instagram.com/mishamedia,Misha Media Photography,(630) 349-4039,emailme@mishamedia.com,https://www.mishamedia.com/,900 N Kingsbury St, Chicago, IL,60610
https://www.instagram.com/erinhoytphotography,Erin Hoyt Photography,(917) 306-9551,erin@erinhoytphotography.com,http://erinhoytphotography.com/,N Green St, Chicago, IL,60642
https://www.instagram.com/husarphotography,Husar Photography,(312) 343-0688,chad@studiothisis.com,http://www.husarphotography.com/,329 W 18th St, Chicago, IL,60616
https://www.instagram.com/studiofinch,Studio Finch,(815) 243-0288,hello@studiofinch.com,http://www.studiofinch.com/,2224 W Cortez St #3, Chicago, IL,60622
https://www.instagram.com/foundlightchi,Found Light Studios,(312) 535-9537,info@foundlightstudios.com,http://www.foundlightstudios.com/,220 W Green Street, Chicago, IL,60607
https://www.instagram.com/laurenashleystudios,Lauren Ashley Studios,(312) 650-9596,lauren@influint.co,https://lauren-ashley.com/,1900 S Clark St, Chicago, IL,60616
https://www.instagram.com/jk_photoworks,JK Photoworks,(312) 620-0234,james@jkphotoworks.com,http://www.jkphotoworks.com/,111 W Polk St, Chicago, IL,60605
https://www.instagram.com/deepwellphoto,Deepwell Photo,(312) 480-6956,joe@deepwellphoto.com,https://deepwellphoto.com/,333 N Oakley Blvd #308, Chicago, IL,60612
https://www.instagram.com/nakaiphotography,Nakai Photography,(312) 298-9721,info@nakaiphotography.com,http://www.nakaiphotography.com/,3334 N Avers Ave, Chicago, IL,60618
https://www.instagram.com/hitchandsparrow,Hitch &amp; Sparrow Photography,(312) 725-3951,booking@hitchandsparrow.com,http://www.hitchandsparrow.com/,333 N Oakley Blvd Suite 205, Chicago, IL,60612
https://www.instagram.com/ciprian.kaiser.photography,Stunning-Image,(773) 936-6987,stunningimage@yahoo.com,http://www.stunning-image.com/,5787 N Elston Ave, Chicago, IL,60646
https://www.instagram.com/megansaulphotography,Megan Saul Photography,(312) 620-0072,hello@megansaul.com,http://megansaul.com/,2908 W Fullerton Ave, Chicago, IL,60647
https://www.instagram.com/marktrelaphotography,Mark Trela Photography,(773) 405-0475,info@marktrela.com,http://www.marktrela.com/,4252 N Marmora Ave, Chicago, IL,60634
https://www.instagram.com/jppstudios,JPP Studios,(312) 972-0723,info@jppstudios.com,http://www.jppstudios.com/,2437 W Cortez St, Chicago, IL,60622
https://www.instagram.com/chicagoweddingphotography,Michelle Lytle Photography,(630) 272-3546,michelle@michellelytle.com,http://www.michellelytle.com/,5517 N Broadway, Chicago, IL,60640
https://www.instagram.com/nephotography,Naomi Epstein Photography,(773) 710-3222,naomiepstein@gmail.com,http://www.naomiepsteinphotography.com/,2800 N Lake Shore Dr, Chicago, IL,60657
https://www.instagram.com/angelareneephotography,Angela Renee Photography,(773) 307-8494,a@angelareneephoto.com,http://angelareneephoto.com/,4636 N Ravenswood Ave #206, Chicago, IL,60640
https://www.instagram.com/gloss_by_jaci_ruben,Gloss Photography Studios,(312) 226-9890,414gloss@gmail.com,http://www.glossphotographystudios.com/,2458 W Walton St, Chicago, IL,60622
https://www.instagram.com/emiliajane_,Emilia Jane Photography,(312) 772-3650,hi@emiliajanephoto.com,http://emilia-jane.com/,623 W Lake St #236, Chicago, IL,60661
https://www.instagram.com/susanryanphotography,Susan Ryan Photography Inc.,(773) 271-5877,studio@susanryanphotography.com,http://www.susanryanphotography.com/,N Damen Ave, Chicago, IL,60625
https://www.instagram.com/averyhouse,Averyhouse,(312) 543-7671,stevi@averyhouse.net,http://www.averyhouse.net/,1623 W Belmont Ave, Chicago, IL,60657
https://www.instagram.com/winterlyn_photography,Winterlyn Photography,(773) 891-9191,info@winterlynphotography.com,http://winterlynphotography.com/,7353 W Higgins Ave, Chicago, IL,60656
https://www.instagram.com/carismafilms,Carisma Films,(312) 883-2007,carisma@carismafilms.com,https://carismafilms.com/,208 N Green St, Chicago, IL,60607
https://www.instagram.com/kentdrakephoto,Kent Drake Photography,(312) 543-2407,terifode@gmail.com,http://www.kentdrake.com/,3950 N Lake Shore Dr, Chicago, IL,60613
https://www.instagram.com/anamariavieriuphotography,Anamaria Vieriu Photography,(312) 883-5514,hello@anamariavieriu.com,https://anamariavieriu.com/,5358 N Cumberland Ave, Chicago, IL,60656
https://www.instagram.com/wasabiphotography,Wasabi Photography,(773) 570-0491,travis@wasabiphotography.com,https://wasabiphotography.com/,4936 N Damen Ave, Chicago, IL,60625
https://www.instagram.com/artisanevents,Artisan Events®,(877) 227-9333,amanda@artisanevents.com,http://www.artisanevents.com/,350 N Ogden Ave #220, Chicago, IL,60607
https://www.instagram.com/riverbend_studio,Riverbend Studio,(312) 860-3686,riverbendphotostudio@gmail.com,http://riverbendphotostudio.com/,350 N Ogden Ave, Chicago, IL,60607
https://www.instagram.com/emullinsphotogram,Emma Mullins Photography,(773) 337-8462,emma@emullinsphoto.com,https://emullinsphoto.com/,2818 W Chicago Ave STE 1, Chicago, IL,60622
https://www.instagram.com/jennograph,Jennography | Jennifer Jackson Photography,(748) 371-0330,jenniferjacksonphoto@gmail.com,http://jennography.net/,N Damen Ave, Chicago, IL,60622
https://www.instagram.com/iluvphoto,I Luv Photo,(312) 883-1577,mail@iluvphoto.com,http://www.iluvphoto.com/,919 W Oakdale Ave l2, Chicago, IL,60657
https://www.instagram.com/secondprint,Secondprint Productions,(773) 844-9340,albert@secondprintproductions.com,http://www.secondprintproductions.com/,3155 S Paulina St, Chicago, IL,60608
https://www.instagram.com/rebeccamarieart,Rebecca Marie Photography,(174) 837-1010,studio@rebeccamarie.com,http://www.rebeccamarie.com/,1917 N Milwaukee Ave, Chicago, IL,60625
https://www.instagram.com/foxandivory,Fox + Ivory Photo & Film,(630) 442-2205,peter@foxandivory.com,https://foxandivory.com/,505 N La Salle Dr Suite 250, Chicago, IL,60654
https://www.instagram.com/thegernands,The Gernands Photography,(765) 722-0251,thegernandsphotography@gmail.com,https://www.thegernands.com/,1829 W Leland Ave #2, Chicago, IL,60640
https://www.instagram.com/graceriosphotography,Grace Rios Photography,(630) 341-0285,grace@graceriosphotography.com,https://graceriosphotography.com/,2825 N Francisco Ave, Chicago, IL,60515
https://www.instagram.com/vsprungphoto,Victoria Sprung of Sprung Photo,(312) 560-0401,victoria@sprungphoto.com,http://victoriasprungphotography.com/,2841 W Armitage Ave Storefront, Chicago, IL,60647
https://www.instagram.com/thara_photo,Thara Photo,(872) 216-5342,tim@tharaphoto.com,http://www.tharaphoto.com/,3537 W Lyndale St #1, Chicago, IL,60647
https://www.instagram.com/jessica.eileen.drogosz,Kathleen Noelle Photography,(630) 639-6542,jessica@forjustamoment.com,http://www.forjustamoment.com/,520 W Aldine Ave, Chicago, IL,60657
https://www.instagram.com/garberophotography,garbero photography,(503) 975-9070,help@smugmug.com,http://www.garberophotography.com/,3200 W Carroll Ave, Chicago, IL,60624
https://www.instagram.com/tiffanybrandtphotography,Tiffany Brandt Photography,(224) 201-1045,tbrandtphoto@gmail.com,http://www.tiffanybrandtphotography.com/,2244 W Winona St, Chicago, IL,60625
https://www.instagram.com/cffotog,Christopher F Photography,(269) 615-1391,chris@christopherfphotography.com,http://www.christopherfphotography.com/,530 N Lake Shore Dr, Chicago, IL,60611
https://www.instagram.com/wearewholehearted,Wholehearted Films,(312) 888-1268,weddinginfo@studiothisis.com,https://www.wholeheartedweddingfilms.com/,329 W 18th St, Chicago, IL,60616
https://www.instagram.com/amandafordphotography,Amanda Ford Photography,(360) 908-3673,amandafordphoto@gmail.com,https://www.amandafordphotography.com/,500 S Clinton St, Chicago, IL,98119
https://www.instagram.com/visi_studio,Visi Studio | Photo   Films,(773) 209-3776,hello@visistudio.com,https://visistudio.com/,1016 W Jackson Blvd #516, Chicago, IL,60607
https://www.instagram.com/jasonkaczorowskiphotography,Jason Kaczorowski Photography,(312) 671-7678,weddings@jasonkaczorowski.com,http://www.jasonkaczorowski.com/,211 S Clark St Suite 271, Chicago, IL,60604
https://www.instagram.com/bozenavoytkophotography,Bozena Voytko Photography,(773) 289-8820,hello@bozenavoytko.com,https://bozenavoytko.com/,111 N Wabash Ave #100, Chicago, IL,60602
https://www.instagram.com/bigdayphotovideo,Big Day,(585) 802-0812,bigdayphotovideo@gmail.com,http://www.bigdayphotovideo.com/,2650 W Belden Ave # 317, Chicago, IL,60647
https://www.instagram.com/j_brown_photo,J. Brown Photography,(773) 255-5404,jason@jbrownphotography.com,http://jbrownphotography.com/,2343 N Greenview Ave, Chicago, IL,60614
https://www.instagram.com/brishortphotography,Bri Short Photography,(630) 457-0553,bri@brishort.com,http://www.brishort.com/,596 W Hawthorne Pl, Chicago, IL,60657
https://www.instagram.com/candidstudiosphoto,Candid Studios Photography &amp; Videography,(844) 522-6343,ryanmayiras@gmail.com,https://www.candidstudios.net/,230 W Monroe St, Chicago, IL,60606
https://www.instagram.com/walking_visions,Walking Visions Photography inc.,(224) 425-2295,walkingvisionsphotography@gmail.com,http://www.walkingvisions.com/,2423 S State St, Chicago, IL,60616
https://www.instagram.com/whitequillcreative,White Quill Creative,(872) 588-7410,hello@whitequillcreative.com,https://whitequillcreative.com/,4000 W Diversey Ave, Chicago, IL,60647
https://www.instagram.com/chocolate_photography,Chocolate Photography,(213) 500-2911,janice.chocolate@gmail.com,http://www.chocolate-photography.com/,3275 Wilshire Blvd, Los Angeles, CA,90010
https://www.instagram.com/amyhaberland,Amy Haberland Photography,(213) 761-7605,amy@amyhaberlandphotography.com,https://www.amyhaberlandphotography.com/,1965 S Sherbourne Dr Apt 6, Los Angeles, CA,90034
https://www.instagram.com/jlazophotography,J.Lazo Photography,(323) 402-7225,juanlazo92@gmail.com,https://jlazophotography.com/,4417 Avalon Blvd, Los Angeles, CA,90011
https://www.instagram.com/shannacphotography,Shanna Castro Photography,(310) 748-5848,aloha@shannacastrophotography.com,http://www.shannacastrophotography.com/,5230 Pacific Concourse Dr, Los Angeles, CA,90045
https://www.instagram.com/paradastudio,Parada Studio,(509) 264-4140,tanya@paradastudio.com,https://paradastudio.com/,11347 Nebraska Ave, Los Angeles, CA,90025
https://www.instagram.com/hugoandkat,Hugo & Kat Photo & Film,(626) 940-4597,hugoandkat@gmail.com,http://www.hugoandkat.com/,4516 St Elmo Dr, Los Angeles, CA,90032
https://www.instagram.com/photobyjeromevelarde,Jerome Velarde Photography,(220) 544-6108,jvphotola@gmail.com,http://www.jeromevelarde.com/,2404 S Holt Ave, Los Angeles, CA,90034
https://www.instagram.com/jonathanmoorephoto,Jonathan Moore Photo,(310) 874-7321,jonathan@jonathanmoorephoto.com,https://www.jonathanmoorephoto.com/,818 Gretna Green Way, Los Angeles, CA,90049
https://www.instagram.com/behzadphotography,Photography & Design by Behzad,(310) 652-4010,behzad@behzadphotography.com,http://www.behzadphotography.com/,6404 Wilshire Blvd #105, Los Angeles, CA,90048
https://www.instagram.com/aladdinmediagroup,Aladdin Media Group,(213) 348-4430,aladdinmediagroup@gmail.com,https://aladdinmediagroup.com/,606 N Figueroa St, Los Angeles, CA,90012
https://www.instagram.com/cortesephotoandfilm,Cortese Photography & Film,(514) 758-1616,info@cortesephotoandfilm.com,http://cortesephotoandfilm.com/,6200 Hollywood Blvd #1325, Los Angeles, CA,90028
https://www.instagram.com/hannawalkowaik,Hanna Walkowaik Photography,(651) 285-9736,info@hannawalkowaik.com,http://www.hannawalkowaik.com/,3221 W Temple St, Los Angeles, CA,90026
https://www.instagram.com/maleen_johannsen,Maleen Johannsen photography,(619) 415-7373,maleen.photography@gmail.com,https://maleen-johannsen.com/,11970 Montana Ave #310, Los Angeles, CA,90049
https://www.instagram.com/bigdaymemories,Big Day Memories,(323) 447-2333,bigdaymemories8@gmail.com,http://www.bigdaymemories.com/,656 S Los Angeles St, Los Angeles, CA,90014
https://www.instagram.com/keepsakememories,Keepsake Memories Photography,(205) 446-1012,admin@keepsakemp.com,http://www.keepsakemp.com/,1040 S Olive St, Los Angeles, CA,90015
https://www.instagram.com/weddingsbychorale,Chorale Miles Photography,(774) 634-6325,choralem@gmail.com,http://www.choralemiles.com/,400 Main St, Los Angeles, CA,90013
https://www.instagram.com/ambrosiophotography,Ambrosio Photography,(305) 534-5099,stacey@ambrosiophotography.com,https://www.ambrosiophotography.com/,1000 5th St Suite 221, Miami Beach, FL,33139
https://www.instagram.com/danalynnphotos,Dana Lynn Photos,(305) 763-8045,info@danalynnphotos.com,http://www.danalynnphotos.com/,220 71st St #201, Miami Beach, FL,33141
https://www.instagram.com/andrea_mate_photography,Andrea Máté Photography,(954) 494-9292,studio@andreamate.com,http://www.andreamate.com/,2829 Indian Creek Dr, Miami Beach, FL,33140
https://www.instagram.com/ikon_films,IKON FILMS,(646) 420-8424,contactikonfilms@gmail.com,https://www.ikon-films.com/,401 69th St, Miami Beach, FL,33141
https://www.instagram.com/untilforeverphotography,Until Forever Photography,(954) 806-8557,untilforeverphotos@gmail.com,https://www.untilforeverphotography.com/,17160 NW 2nd Ct Suite A, Miami Gardens, FL,33169
https://www.instagram.com/victoria_machin_photography,Victoria Machin Photography,(786) 615-5918,victoria@victoriamachinphotography.com,https://victoriamachin.com/,5745 NW 151st St, Miami Lakes, FL,33014
https://www.instagram.com/finelivingstudios,Fine Living Studios,(909) 714-2755,info@finelivingstudios.com,http://www.finelivingstudios.com/,2015 Walnut St #203, Philadelphia, PA,19103
https://www.instagram.com/emilywrenphoto,Emily Wren Photography,(610) 574-0373,emily@emilywren.com,http://www.emilywren.com/,2930 Jasper St #306, Philadelphia, PA,19134
https://www.instagram.com/ashsmithphotostudio,Ash Smith Photo Studio,(443) 745-1093,ashsmithstudio@gmail.com,https://www.ash-smith.com/,155 Cecil B. Moore Ave 3rd Fl, Philadelphia, PA,19122
https://www.instagram.com/asel.kashani,Asel Kashani Photography,(732) 773-6453,a.kashani.photography@gmail.com,https://www.aselkashani.com/,2727 Rhawn St #47A, Philadelphia, PA,8527
https://www.instagram.com/adeandgina,Ade & Gina Studios,(860) 502-4129,ade@adeandgina.com,http://www.adeandgina.com/,8133 Germantown Ave, Philadelphia, PA,19118
https://www.instagram.com/nvysotskaya_photography,Nadya Vysotskaya Photography,(310) 409-9195,nadyavysotskaya@gmail.com,https://nvysotskaya.com/,325 Octavia St, San Francisco, CA,94102
https://www.instagram.com/christinamcneill,Christina McNeill Photography,(415) 370-8502,hello@christinamcneill.com,http://www.christinamcneill.com/,2300 Bryant St, San Francisco, CA,94110
https://www.instagram.com/photomischa,Mischa Photography,(415) 997-9377,info@photomischa.com,http://www.photomischa.com/,777 Florida St, San Francisco, CA,94110
https://www.instagram.com/elisabettalillyred,Lilly Red,(571) 277-7918,lilly@lillyred.it,http://www.lillyred.it/,2145 Scott St #4, San Francisco, CA,94115
https://www.instagram.com/snapfiesta,Weitz Photography,(415) 425-1006,gene@snapfiesta.com,http://www.snapfiesta.com/,Upper, San Francisco, CA,94117
https://www.instagram.com/buenalane_photography,Buena Lane Photography,(415) 418-9866,hello@buenalane.com,http://buenalane.com/,3150 18th St, San Francisco, CA,94110
https://www.instagram.com/laeiou,Elena Graham Photography,(808) 345-3293,elenargraham@gmail.com,http://elenagraham.com/,2338 Geary Blvd, San Francisco, CA,94115
https://www.instagram.com/redeyecollection,Red Eye Collection,(510) 821-5730,rachael@redeyecollection.com,https://www.redeyecollection.com/,601 Van Ness Ave #312, San Francisco, CA,94102
https://www.instagram.com/bjmartinphotography,BJ Martin Photography,(415) 489-8077,bjmartinphotography@mac.com,http://bjmartinphotography.com/,236 W Portal Ave, San Francisco, CA,94127
https://www.instagram.com/itsannamaephoto,Annamae Photo,(941) 374-1772,annamaephoto@gmail.com,http://www.annamaephoto.com/,40 Levant St, San Francisco, CA,94114
https://www.instagram.com/reb6studios,REB6Studios,(415) 370-9527,sig@reb6studios.com,https://www.reb6studios.com/wedding-videography,7 Arnold Ave, San Francisco, CA,94110
https://www.instagram.com/sarahpeetphotography,Sarah Peet Photography,(415) 994-7044,sarah@sarahpeetphotography.com,http://www.sarahpeetphotography.com/,1251 Connecticut St, San Francisco, CA,94107
https://www.instagram.com/kincadeproductions,Grape Video Productions Inc.,(888) 898-9907,robin@kincadeproductions.com,https://www.kincadeproductions.com/,201 Mission St, San Francisco, CA,94105
https://www.instagram.com/north_point_photo,North Point Photography,(415) 931-9998,eric@npointphoto.com,http://npointphoto.com/,1695 North Point St, San Francisco, CA,94123
https://www.instagram.com/brianaautran,Briana Autran Wedding Photography,(828) 707-7445,brianaautran@gmail.com,https://brianaautran.com/,28 Broad St,Asheville,NC,28801
https://www.instagram.com/belamourpix,Bel Amour Wedding Photography,(828) 216-1740,info@belamourweddingphotography.com,https://www.belamourweddingphotography.com/,134 La Mancha Dr Ste G,Asheville,NC,28805
https://www.instagram.com/nicklevinephoto,Nick Levine Photography - Asheville Wedding Photographer,(484) 525-3031,nicklevinephoto@gmail.com,https://www.nicklevinephoto.com/,25 Avon Rd,Asheville,NC,28803
https://www.instagram.com/anordaphotography,Anorda Photography,(704) 916-9468,hello@anordaphotography.com,https://www.anordaphotography.com/,33 Coxe Ave # 2623,Asheville,NC,28802
https://www.instagram.com/mozingo_photography,Mozingo Photography,(828) 734-3063,meriah@mozingophotography.com,http://www.mozingophotography.com/,15 Arlington St,Asheville,NC,28801
https://www.instagram.com/ryanbumgarnerphoto,Ryan Bumgarner Photography,(828) 254-7919,ryanobumgarner@gmail.com,http://ryanbumgarner.com/,14 Baird Alley,Asheville,NC,28801
https://www.instagram.com/simplyeloped,Form Photography,(828) 279-7060,jw@simplyeloped.com,https://simplyeloped.com/elopement-packages/asheville/,13 1/2 Eagle St,Asheville,NC,28801
https://www.instagram.com/hartmanoutdoorphotography,Hartman Outdoor Photography,(630) 373-3001,photosbyhartman@gmail.com,http://www.hartmanoutdoorphotography.com/,42 Dayton Rd,Asheville,NC,28804
https://www.instagram.com/gabriellevonheyking,Gabrielle von Heyking Photographie,(629) 248-3037,gabriellevhphotographie@gmail.com,http://www.gvhphotographie.com/,90 Charlotte St,Asheville,NC,28801
https://www.instagram.com/kathybeaverphotography,Kathy Beaver Photography,(828) 712-2457,hello@kathybeaverphotography.com,http://www.kathybeaverphotography.com/,41 N Merrimon Ave #107,Asheville,NC,28804
https://www.instagram.com/remixweddings,Sunday Grant Photography,(828) 231-3849,mitch@remixweddings.com,https://asheville-wedding-dj.com/,15 Arlington St #112,Asheville,NC,28801
https://www.instagram.com/lightshifterstudios,Light Shifter Studios,(828) 702-7850,info@lightshifterstudios.com,http://www.lightshifterstudios.com/,101 Cumberland Cir,Asheville,NC,28801
https://www.instagram.com/jenyusonphotography,Jen Yuson Photography,(646) 284-4997,jen@jenyuson.com,http://www.jenyuson.com/,48 Evergreen Ave,Asheville,NC,28806
https://www.instagram.com/elope_outdoors,Elope Outdoors,(828) 649-5233,hello@elopeoutdoors.com,http://www.elopeoutdoors.com/,24 Skyview Terrace,Asheville,NC,28806
https://www.instagram.com/angelastott,Angela Stott Photography,(828) 335-8557,angelastott@mac.com,http://www.angelastott.com/,18 Longview Rd,Asheville,NC,28806
https://www.instagram.com/elizabellphotography,Eliza Bell Photography,(828) 258-5398,elizabellphoto@gmail.com,http://elizabellphotography.com/,48 Nevada Ave #3317,Asheville,NC,28806
https://www.instagram.com/anastasiiaphotography,Anastasiia Photography,(917) 856-0046,info@anastasiiaphotography.com,http://anastasiiaphotography.com/,41 N Merrimon Ave #107,Asheville,NC,28804
https://www.instagram.com/eugene_svirhun,Eugene Svirhun Photo,(919) 841-2080,eugenesvirhun@gmail.com,https://www.eugenesvirhun.com/,103 Sabian Ct,Asheville,NC,28806
https://www.instagram.com/simple_i_do.s,Simple I Dos,(828) 230-1700,mark@markrobertsonphoto.com,http://simple-i-dos.com/,47 Carlton Pl,Asheville,NC,28806
https://www.instagram.com/mountain.wed,MountainWed Photography,(828) 318-3555,andy@mountainwed.com,https://www.mountainwed.com/,23 Oak Crescent Dr,Asheville,NC,28806
https://www.instagram.com/atlantaartisticweddings,Atlanta Artistic Weddings,(404) 578-6982,david@atlantaartisticweddings.com,http://atlantaartisticweddings.com/,261 Southerland Terrace NE #2343,Atlanta,GA,30307
https://www.instagram.com/joeywallacephotography,Atlanta Wedding Photography by Joey Wallace Photography,(404) 552-2576,info@joeywallacephotography.com,https://joeywallacephotography.com/,48 Peachtree Ave NE APT 217,Atlanta,GA,30305
https://www.instagram.com/benandcolleen,Ben And Colleen Wedding Photographers,(704) 608-3006,info@benandcolleen.us,http://www.benandcolleen.us/,170 Boulevard SE H314,Atlanta,GA,30312
https://www.instagram.com/reverweddings,Rêver Weddings,(229) 392-1576,hello@reverweddings.com,http://www.reverweddings.com/,659 Auburn Ave NE STE 152,Atlanta,GA,30312
https://www.instagram.com/nickfrancisweddings,Nick Francis Weddings,(770) 800-7765,nick@nickfrancisweddings.com,http://nickfrancisweddings.com/,115 W Peachtree Pl NW UNIT 202,Atlanta,GA,30313
https://www.instagram.com/sixhearts,Six Hearts Photography,(770) 876-9248,hello@sixheartsphotography.com,http://www.sixheartsphotography.com/,480 John Wesley Dobbs Ave NE #150,Atlanta,GA,30312
https://www.instagram.com/andrebrownphoto,Andre Brown Photography,(818) 307-3369,andrebrownphotography@gmail.com,http://www.andrebrown.com/,887 West Marietta St NW,Atlanta,GA,30318
https://www.instagram.com/jaxonphoto,Jaxon Photography,(404) 344-4866,info@jaxonphoto.com,https://www.jaxonphoto.com/,659 Auburn Ave NE G12,Atlanta,GA,30312
https://www.instagram.com/manuelllaneras,Manuel Llaneras Photography,(404) 577-2474,manuel.llaneras@gmail.com,http://www.mlphotography.com/,1014 Edgewood Ave NE,Atlanta,GA,30307
https://www.instagram.com/photo_marco_studios,Photo Marco Studios,(404) 320-1494,antonio@photomarco.net,http://www.photomarco.net/,Monroe Dr NE,Atlanta,GA,30308
https://www.instagram.com/denisreggie,Denis Reggie Photographers,(404) 252-8282,denis@denisreggie.com,https://www.denisreggie.com/,3630 Peachtree Rd NE,Atlanta,GA,30326
https://www.instagram.com/krisandra_evans,Krisandra Evans Photography,(352) 342-0349,krisandra@krisandraevans.com,http://www.krisandraevans.com/,Boulderview Dr SE,Atlanta,GA,30316
https://www.instagram.com/poetryandpaper,Poetry and Paper,(404) 374-4461,info@poetryandpaper.com,http://www.poetryandpaper.com/,3400 Stratford Rd NE,Atlanta,GA,30326
https://www.instagram.com/cbrownphotoweddings,C Brown Photo,(404) 298-6263,cindy@cbrownphoto.com,https://www.cbrownphoto.com/,3115 Piedmont Rd NE d102,Atlanta,GA,30305
https://www.instagram.com/chris_brock_photo,Christopher Brock Photography,(404) 226-9539,premierphotography@me.com,https://chrisbrock.org/,4000 Summit Blvd NE,Atlanta,GA,30319
https://www.instagram.com/peacockphotovideo,Peacock Photo Video,(404) 694-1900,lauren@peacockphotovideo.com,https://www.peacockphotovideo.com/,5525 Interstate North Pkwy,Atlanta,GA,30328
https://www.instagram.com/kvoth1,Kevin Voth Photography,(404) 388-0729,info@kevinvoth.com,http://www.kevinvoth.com/,1200 Foster St NW,Atlanta,GA,30318
https://www.instagram.com/madeyoulookatl,Made You Look Photography & Film,(404) 482-1120,info@madeyoulookphoto.com,http://www.madeyoulookphoto.com/,2275 Marietta Blvd NW Suite 270-350,Atlanta,GA,30318
https://www.instagram.com/shotbyattajunior,Atta Junior Photography,(404) 400-9445,attajunior2002@gmail.com,http://www.attajunior.com/,240 Grant St SE,Atlanta,GA,30312
https://www.instagram.com/brianwagonerphotography,Brian Wagoner Photography,(770) 241-4377,brian@brianwagonerphotography.com,http://www.brianwagonerphotography.com/,3040 Peachtree Rd,Atlanta,GA,30305
https://www.instagram.com/johndavidweddings,John David Weddings,(512) 450-8051,johndavidweddings@gmail.com,https://www.johndavidweddings.com/,1111 Blue Fox Dr,Austin,TX,78753
https://www.instagram.com/technicolorweddings,Technicolor Weddings,(512) 785-0652,meredith@technicolorweddings.com,http://www.technicolorweddings.com/,5312 Avenue F,Austin,TX,78751
https://www.instagram.com/austin_wedding_videographers,Austin Wedding Videographers,(512) 767-8180,lachelle@austinweddingvideographers.com,http://www.austinweddingvideographers.com/,13785 Research Blvd Suite 125,Austin,TX,78750
https://www.instagram.com/songbirdweddings,Songbird Weddings Photography,(832) 236-7595,foto@songbirdweddings.com,https://www.songbirdweddings.com/,Poquito St,Austin,TX,78702
https://www.instagram.com/southernlovecreative,Southern Love Creative by Nikk Nguyen,(469) 237-7137,nikknguyenphoto@gmail.com,https://www.southernlovecreative.com/,111 Congress Ave. Suite 400,Austin,TX,78701
https://www.instagram.com/coryryanphotography,Cory Ryan Photography,(512) 293-7212,cory@coryryan.com,https://www.coryryan.com/blog/top-7-luxury-austin-wedding-venues-austin-venue-guide/,908 E 5th St.,Austin,TX,78702
https://www.instagram.com/jbellaustin,J. Bell Photography,(512) 632-9688,jbellaustin@gmail.com,http://jbellatx.com/,2209 Pompton Dr,Austin,TX,78757
https://www.instagram.com/jennydemarcoweddings,Jenny DeMarco Photography,(512) 547-3721,info@jennydemarco.com,http://www.jennydemarco.com/,4414 Burnet Rd,Austin,TX,78756
https://www.instagram.com/caitlinrosephoto,Caitlin Rose Photography,(832) 746-2092,caitlinrosephotodesign@gmail.com,http://www.caitlinrosephoto.com/,115 Sandra Muraida Way Apt 617,Austin,TX,78703
https://www.instagram.com/elisalopezphotos,Elisa Lopez Photography,(737) 900-3873,elisalopezphotos@gmail.com,http://www.elisalopezphotography.com/,Applewood Dr,Austin,TX,78758
https://www.instagram.com/johnwintersphotography,John Winters Photography,(832) 833-9766,john@johnwintersphoto.com,https://www.johnwintersphoto.com/,1809 Arborside Dr,Austin,TX,78754
https://www.instagram.com/hydeparkphoto,Hyde Park Photography,(512) 797-8326,info@hydeparkphoto.com,https://www.hydeparkphoto.com/,4714 Caswell Ave,Austin,TX,78751
https://www.instagram.com/maxphotoaustin,Max Photography,(512) 964-8709,justin@maxphotography.com,https://www.maxphotography.com/,3113 Jubilee Trail,Austin,TX,78748
https://www.instagram.com/photohousefilms,Photohouse Films,(512) 726-0376,will@photohousefilms.com,http://www.photohousefilms.com/,1206 W 38th St #1201,Austin,TX,78705
https://www.instagram.com/inspiredimagesaustin,Inspired Images Photography Studio,(512) 721-9845,bromwyn@inspiredimagesaustin.com,http://inspiredimagesaustin.com/,707 Sheraton Ave,Austin,TX,78745
https://www.instagram.com/samhughphoto,Sam Hugh Photography,(512) 952-0810,hello@samhugh.com,http://samhugh.com/,5717 Nelson Oaks Dr,Austin,TX,78724
https://www.instagram.com/tankgoodnessphoto,Tank Goodness Photo,(512) 947-4252,tankgoodnessphoto@gmail.com,http://tankgoodnessphoto.com/,12307 Roxie Dr STE 103,Austin,TX,78729
https://www.instagram.com/newroadproductions,New Road Productions - Photography + Films - ATX,(512) 568-5933,wes@austinphotovideo.com,http://newroadproductions.com/,8000 Evaline Ln,Austin,TX,78731
https://www.instagram.com/juanjosephoto,Juan Jose Photo & Films,(404) 547-9880,juan@juanjosephotography.com,https://juanjosephotography.com/,11005 Floral Park Dr #1922,Austin,TX,78759
https://www.instagram.com/javed_k_photography,Javed Photography,(512) 919-6782,karedia@javedphotography.com,http://www.javedphotography.com/,9415 McNeil Dr,Austin,TX,78750
,,,,,,,,
https://www.instagram.com/tpoz,tPoz Photography,(410) 949-4934,teri@tpozphoto.com,https://tpozphoto.com/,1525 S Hanover St,Baltimore,MD,21230
https://www.instagram.com/brookemichellej,Luke Eshleman Photography,(202) 642-4991,brooke@brookemichellephoto.com,http://www.brookemichellephoto.com/,809 Scott St,Baltimore,MD,21230
https://www.instagram.com/bradleyimages,Bradley Images Photo and Video,(410) 902-6664,brad@bradleyimages.com,http://www.bradleyimages.com/,1498 Reisterstown Rd #101,Baltimore,MD,21208
https://www.instagram.com/hannahmink,Hannah Mink Photography,(410) 830-9595,hannahminksmith@gmail.com,http://www.hannahmink.com/,2528 Fait Ave,Baltimore,MD,21224
https://www.instagram.com/lisarobinphotography,Lisa Robin LLC,(410) 262-0785,lisarobinphotography@gmail.com,http://www.lisarobin.com/,4401 Fait Ave suite 46a-4c,Baltimore,MD,21224
https://www.instagram.com/devonrowlandphotography,Devon Rowland Photography,(443) 267-4686,email@devonrowland.com,https://devonrowland.com/,1214 Eutaw Pl,Baltimore,MD,21217
https://www.instagram.com/atreasuredwedding,A Treasured Wedding,(410) 302-5752,info@atreasuredwedding.com,https://atreasuredwedding.com/,1020 Hull St,Baltimore,MD,21230
https://www.instagram.com/p/cklcxijr1uk/,Alicia Wiley Photography,(443) 347-4386,hello@aliciawiley.com,https://www.aliciawileyphotography.com/,3500 Parkdale Ave,Baltimore,MD,21211
https://www.instagram.com/fast_snapper/?hl=en,Thomas Hedges Photography&Videography,(609) 751-7068,thedges90@gmail.com,http://thomashedges.org/,202 W Monument St,Baltimore,MD,21201-4615
https://www.instagram.com/jennadavisphotographymd/,Jenna Davis Photography,(301) 401-1681,hello@jennadavisphoto.com,https://jennadavisphoto.com/,338 S East Ave,Baltimore,Md,21224
https://www.instagram.com/borrowedbluephoto/,Borrowed Blue Photography,(410) 532-0679,photo@borrowedbluephoto.com,http://www.borrowedbluephoto.com/,4030 Roland Ave,Baltimore,MD,21211
https://www.instagram.com/wifeloveshusby/?hl=en,John Heredia Photography,(404) 895-6276,john@johnheredia.com,http://www.johnheredia.com/,111 N Belnord Ave,Baltimore,MD,21224
https://instagram.com/deanalexander01/,Dean Alexander,(410) 385-3120,dean@deanalexander.com,http://www.deanalexander.com/,39 E Ostend St,Baltimore,MD,21230-4234
https://www.instagram.com/martinstudiophotography/,"Martin Studio Photography, LLC",(443) 718-0090,info@martinstudiophotography.com,https://www.martinstudiophotography.com/contact,1 N Haven St,Baltimore,MD,21224-1614
https://www.instagram.com/clappstudios/,Clapp Studios,(443) 540-2794,info@clappstudios.com,http://www.clappstudios.com/,3000 Chestnut Ave Ste 343,Baltimore,MD,21211
https://www.instagram.com/bmoreawaire/,The WaireHouse,(410) 830-9508,john@thewairehouse.com,https://thewairehouse.com/,6901 Avondale Rd,Baltimore,MD,21212
https://www.instagram.com/hushweddingphotography,Hush Wedding Photography,(208) 861-6513,ghush@mac.com,https://hushwedding.smugmug.com/,4207 S Redhawk Pl,Boise,ID,83716
https://www.instagram.com/blytheweddings,Blythe Weddings,(208) 705-6897,info@blytheweddings.com,http://www.blytheweddings.com/,,Boise,ID,83709
https://www.instagram.com/lynnphillipsphoto,Lynn Phillips Photography,(208) 830-4071,hello@lynnphillips.co,https://www.lynnphillips.co/,3310 Rose Hill St,Boise,ID,83705
https://www.instagram.com/maggiegracephoto,Maggie Grace Photography,(208) 596-6741,maggiegracephotography@gmail.com,http://www.maggiegracephotography.com/,1220 W Bannock St,Boise,ID,83702
https://www.instagram.com/dpopbes,Ray of Jane Photography,(208) 991-4397,brett@redhavenphotography.com,http://redhavenphotography.com/,4309 Holmes St,Boise,ID,83706
https://www.instagram.com/indieefox,Honey Hill Studios,(360) 969-2077,info@indieefox.com,http://indieefox.com/,5797 S Sedum Way,Boise,ID,83716
https://www.instagram.com/brambleandvinephotography,Bramble and Vine,(208) 918-4231,mail@brambleandvine.com,http://www.brambleandvine.com/,7853 W Ustick Rd #304,Boise,ID,83704
https://www.instagram.com/foreignperceptionsphotography,Foreign Perceptions Photography & Design,(208) 620-9130,foreignperceptions@gmail.com,https://www.foreignperceptionsphotography.com/,W Quail Stone St,Boise,ID,83709
https://www.instagram.com/katykahlaphotography,Katy Kahla Photography,(208) 308-3838,kkahlaphotography@gmail.com,http://www.katykahlaphotography.com/,1202 E Washington St,Boise,ID,83712
https://www.instagram.com/jonescocreative,Jones Co Creative,(208) 709-4580,jonescocreative@gmail.com,http://jonescocreative.com/,,Boise,ID,83709
https://www.instagram.com/letitshinephoto,Let It Shine Photography,(208) 703-3732,letitshinephotography@gmail.com,http://www.letitshinephotography.com/,,Boise,ID,83709
https://www.instagram.com/leap_photography_llc/,Leap Photography,(208) 703-7360,sales@leapphotography.com,https://leapphotography.com/,1020 W Main St,Boise,ID,83702-5722
https://instagram.com/cherishedchildren/,Cherished Images,(208) 331-2288,info@cherishedimages.net,https://cherishedimages.net/,521 S 8th St,Boise,ID,83702
https://www.instagram.com/brambleandvinephotography,Bramble and Vine,(208) 918-4231,brambleandvinephoto@gmail.com,http://brambleandvine.com/,7853 W Ustick Rd Ste 304,Boise,Id,83704
https://www.instagram.com/ampersand_studios/,Ampersand Studios,(208) 244-0660,hello@ampersand-studios.com,https://ampersand-studios.com/,1519 W Grove St,Boise,ID,83702
https://www.instagram.com/maggiegracephoto/#,Maggie Grace Photography,(208) 596-6741,maggiegracephotography@gmail.com,https://maggiegracephotography.com/,1220 W Bannock St,Boise,ID,83702-5619
https://www.instagram.com/madisonmaltby_photo/,Madison Maltby Photography,(208) 409-4351,madisonmphotos@yahoo.com,https://madisonmphoto.com/,405 S 8th St,Boise,ID,83702
https://www.instagram.com/csiphotodesign/,Csi Photo Design at the 8Th Street Studio,(208) 331-2287,info@csiphotodesign.com,https://csiphotodesign.com/studio/,521 S 8th St,Boise,ID,83702
https://www.instagram.com/spagnolo.photography,Spagnolo Photography,(781) 572-8968,hello@spagnolo-photography.com,http://www.spagnolo-photography.com/,200 High St #2,Boston,MA,2110
https://www.instagram.com/nicolebaasphoto,Nicole Baas Photography,(617) 383-9335,info@nicolebaasphotography.com,http://nicolebaasphotography.com/,867 Boylston St 5th Floor #1695,Boston,MA,2116
https://www.instagram.com/personkillianphoto,Jill Person Photography,(617) 236-1662,jill@personkillian.com,https://jillperson.com/,162 Newbury St,Boston,MA,2116
https://www.instagram.com/ginabrocker,Gina Brocker Photography,(617) 952-3220,gina@ginabrocker.com,http://ginabrocker.com/,867 Boylston St 5th floor,Boston,MA,2116
https://www.instagram.com/jazzandtara,Jazz and Tara,(617) 797-8881,contact@jazzandtara.com,http://www.jazzandtara.com/contact/,256 Hanover St,Boston,MA,2113
https://www.instagram.com/bkb.and.co,BKB &amp; Co.,(617) 721-9208,studio@bkbandco.com,https://www.bkbandco.com/,213 Newbury St,Boston,MA,2116
https://www.instagram.com/katemcelweephoto,Kate McElwee Photography,(617) 858-5283,info@katemcelweephotography.com,http://katemcelweephotography.com/,46 Burroughs St,Boston,MA,2130
https://www.instagram.com/stephanievegliante,Stephanie Vegliante Photography,(860) 304-2028,stephanievegliante@gmail.com,https://photographysv.com/,213n Newbury St,Boston,MA,2116
https://www.instagram.com/jessicakfeiden,Jessica K. Feiden Photography,(174) 837-1010,hello@jessicakfeiden.com,http://www.jessicakfeiden.com/,270 Newbury St #2,Boston,MA,2116
https://www.instagram.com/alexgordiasphotography,Alex Gordias Photography,(774) 232-7141,gordeev.photo@gmail.com,http://alexgordias.com/,46 Myrtle St,Boston,MA,2114
https://www.instagram.com/summerst_weddings,Summer St. Photo and Video,(925) 968-5650,summerstfilms@gmail.com,https://www.summerstfilms.com/,30R Forbes St,Boston,MA,2130
https://www.instagram.com/focus.photography.weddings,Focus Photography,(617) 610-4391,babies@focusphotography.com,https://focusphotography.com/,6 Liberty Sq #2678,Boston,MA,2109
https://www.instagram.com/williamtangorraphoto,William Tangorra Photography,(617) 251-9507,will@williamtangorra.com,http://www.williamtangorra.com/,288 Newbury St,Boston,MA,2115
https://www.instagram.com/thedrawhorns,The Drawhorns Elopement & Wedding Photography,(720) 340 2452,austindrawhorn@gmail.com,https://www.thedrawhorns.com/,3120 Pearl Pkwy Apt 419,Boulder,CO,80302
https://www.instagram.com/gtroopphoto,Gretchen Troop Photography,(720) 765 5551,gretchen@gretchentroop.com,https://boulderweddingphoto.com/,4238 Corriente Pl,Boulder,CO,80301
https://www.instagram.com/beboulderphotography,Be Boulder Photography,(303) 596 5716,eleanor@beboulderphotography.com,http://www.beboulderphotography.com/,4450 Arapahoe Ave #100,Boulder,CO,80303
https://www.instagram.com/anastasiaraephotography,Anastasia Rae Photography,(734) 262 1619,ello@anastasiarae.com,http://www.anastasiarae.com/,6655 Lookout Rd,Boulder,CO,80301
https://www.instagram.com/kayphotoecotravel,Beaton Photography,(970) 389-9289,kay@beatonphotography.com,https://www.beatonphotography.com/,4450 Arapahoe Ave Ste 100,Boulder,Co,80303
https://www.instagram.com/true_north_photography_kira/,True North Photography,(303) 596-0142,kira@truenorthphotography.org,https://www.truenorthphotography.org,2800 Kalmia Ave,Boulder,CO,80301-1500
https://www.instagram.com/alivestudios,Alive Studios Photography,(303) 440-6008,benjamin@alivestudios.com,https://alivestudios.com/contact/,4160 Riverside Ave,Boulder,CO,80304-1128
https://www.instagram.com/marlarutherfordstudio/,Marla Rutherford Photography,(626) 429-3388,marla@marlarutherford.com,https://www.marlarutherford.com/,1300 Yellow Pine Ave,Boulder,CO,80304-2300
https://www.instagram.com/dogdaze.photo/?hl=en,Dog Daze Photo,(303) 447-3556,dogdazephoto@comcast.net,https://www.dogdazephoto.com/,1187 Bear Mountain Dr Ste D,Boulder,CO,80305
https://www.instagram.com/jennifernevesphotography/,Jennifer Neves Photography,(401) 253-0010,jen@jennifernevesphoto.com,https://jennifernevesphoto.com/,10 Casey Dr,Bristol,RI,02809-4576
https://www.instagram.com/zgriswold,Zack Griswold Wedding Photography,(802) 355-0222,zack@zackgriswold.com,https://www.zackgriswold.com/,74 Scarff Ave,Burlington,VT,5401
https://www.instagram.com/carmengeorgeweddings,Carmen George Wedding Justice of the Peace,(802) 540-0078,carmengeorgevt@gmail.com,http://www.officiantvermont.com/,7 Brandywine St,Burlington,VT,5408
https://www.instagram.com/eveeventweddings,Eve Event Photography,(802) 391-0729,mail@eveevent.com,http://www.eveevent.com/,250 Battery St,Burlington,VT,5401
https://www.instagram.com/whiskyspice,Arielle Thomas Photography,(805) 268-2212,hello@ariellethomasphotography.com,http://www.ariellethomasphotography.com/,264 North St,Burlington,VT,5401
https://www.instagram.com/samsimonimaging,Sam Simon Imaging,(209) 261-9675,info@samsimonimaging.com,http://samsimonimaging.com/,39 Manhattan Dr,Burlington,VT,5401
https://www.instagram.com/amandaketterhagenphotography,Amanda Ketterhagen Photography,(262) 492-6334,amandaketterhagen@gmail.com,http://www.amandaketterhagenphotography.com/,579 Tower St,Burlington,WI,53105
https://www.instagram.com/heidibeephotography,Heidi Bee Photography,(336) 269-6486,heidi@heidibeephotography.com,http://www.heidibeephotography.com/,NC-119,Burlington,NC,27217
https://www.instagram.com/studio2n.photography/,Studio 2N Photography,(802) 391-0716,jenn@studio2nphotography.com,https://www.studio2nphotography.com/,1 Mill St Ste 318,Burlington,Vt,5401
https://instagram.com/carolynbates1205/,Carolyn L Bates Photography,(802) 238-4213,cbatesbt@gmail.com,https://www.carolynbates.com/,20 Caroline St,Burlington,VT,5401
https://www.instagram.com/homerhorowitz/,Homer Horowitz Photography,(845) 988-6548,info@clovehitchphotography.com,https://www.homerhorowitz.com/,250 Battery St,Burlington,VT,5401
https://www.instagram.com/gm.camera/,Green Mountain Photography,(802) 862-8222,sales@gmcamera.com,https://www.gmcamera.com/,1 Main St,Burlington,Vt,5401
https://www.instagram.com/michael_heeney/,Michael Heeney Photography,(802) 310-2184,michael@michaelheeney.com,https://michaelheeney.com/,180 Flynn Ave Ste 3,Burlington,VT,5401
https://www.instagram.com/kpikephoto/,Karen Pike Photography,(802) 233-7982,karen@kpikephoto.com,https://www.kpikephoto.com/,208 Flynn Ave,Burlington,VT,05401-5420
https://instagram.com/jeff_clarke_photography/,Jeff Clarke Photography,(802) 999-6490,jclarke@jclarke.com,https://www.jclarke.com/,208 Flynn Ave,Burlington,VT,5401
https://www.instagram.com/carmengeorgeweddings/,Carmen George,(802) 540-0078,carmengeorgevt@gmail.com,https://www.officiantvermont.com/,7 Brandywine St,Burlington,VT,5408
https://www.instagram.com/amysternphoto/,Amy Stern Photography,(919) 951-8604,amy@amystern.com,https://www.amystern.com/,605 W Main St Ste 204,Carrboro,NC,27510
https://www.instagram.com/photosbyclaync,Photos by Clay,(607) 592-1446,info@photosbyclay.com,http://www.photosbyclay.com/,245 Plaza Dr UNIT C,Chapel Hill,NC,27517
https://www.instagram.com/kristincoblephotography,Kristin Coble Photography,(919) 747-1861,kc@kristincoble.com,https://www.kristincoble.com/,2104 Pathway Dr,Chapel Hill,NC,27516
https://www.instagram.com/jamie.vinson,Amelya Jayne Photography,(919) 381-8219,jamie@jamievinsonphotography.com,http://www.jamievinsonphotography.com/,130 S Camellia St,Chapel Hill,NC,27516
https://www.instagram.com/hebasalama,Heba Salama Photography,(919) 265-9446,studio@hebasalama.com,http://www.hebasalama.com/,206 Lake Manor Rd,Chapel Hill,Nc,27516
https://www.instagram.com/tamaralackey/,Tamara Lackey Photography,(919) 484-8000,studio@tamaralackey.com,https://www.tamaralackey.com/,1114 Environ Way,Chapel Hill,NC,27517
https://www.instagram.com/lowcountryweddingfilms,Lowcountry Wedding Films,(843) 513-7986,lclensstudios@hotmail.com,http://www.lowcountryweddingfilms.com/,1149 Bellwood Rd,Charleston,SC,29412
https://www.instagram.com/theweddingclick,The Wedding Click,(803) 238-5961,booking@theweddingclick.com,http://www.theweddingclick.com/,925 Wappoo Rd suite f,Charleston,SC,29407
https://www.instagram.com/cushlabeasley,Cushla Beasley Wedding Photography,(910) 234-6836,cushlabeasleyweddings@gmail.com,https://www.cushlabeasley.com/,241 Rutledge Ave,Charleston,SC,29403
https://www.instagram.com/danacubbageweddings,Dana Cubbage Weddings,(843) 410-3236,kat@ceremoniesbykat.com,https://danacubbageweddings.com/,354 Huger St,Charleston,SC,29403
https://www.instagram.com/tlcweddingphotography,TLC Wedding Photography,(843) 540-3805,tlczphoto@gmail.com,https://tlcweddingphotography.com/,,Charleston,SC,
https://www.instagram.com/peterfingerweddings,Peter Finger Wedding Photographer,(843) 801-2552,images@peterfinger.com,http://www.peterfingerweddings.com/,1120 Oak Overhang St,Charleston,SC,29492
https://www.instagram.com/francis_west_studios,Francis West Studios,(843) 410-2774,frank@francisweststudios.com,http://www.francisweststudios.com/,102 Toura Ln,Charleston,SC,29414
https://www.instagram.com/briandsmithphotography,Brian D Smith Photography,(937) 689-8742,hello@briandsmithphotography.com,https://briandsmithphotography.com/,164 Market St #155,Charleston,SC,29401
https://www.instagram.com/valerieanded,Valerie & Ed Photo,(843) 882-7009,info@valerieandco.com,http://www.valerieanded.com/,334 E Bay St #243,Charleston,SC,29401
https://www.instagram.com/laurenjonasweddings,Lauren Jonas Photography,(843) 779-2172,lauren@laurenjonas.com,http://www.laurenjonas.com/,1506 Ocean Neighbors Blvd,Charleston,SC,29412
https://www.instagram.com/julielivingstonphotography,Julie Livingston Photography,(843) 817-3974,julielivingstonphotography@gmail.com,http://www.julielivingstonphotography.com/,51 Gadsden St Unit B,Charleston,SC,29401
https://www.instagram.com/timwilloughby,Timwill Photography,(803) 341-8857,tdwilloughby@gmail.com,http://www.timwill.com/,745 Tallwood Rd,Charleston,SC,29412
https://www.instagram.com/brandonlataphoto,Brandon Lata Photography,(716) 560-9049,brandon@brandonlata.com,http://www.brandonlata.com/,87 Wentworth St,Charleston,SC,29401
https://www.instagram.com/sloanphoto,Sloan Photography,(843) 301-4700,info@sloan-photography.com,http://www.sloan-photography.com/,Old Summer House Rd,Charleston,SC,29412
https://www.instagram.com/aaronandjillian,Aaron and Jillian Photography,(843) 300-2109,info@aaronandjillian.com,http://www.aaronandjillian.com/,1425 Eutaw Battalion Dr,Charleston,SC,29412
https://www.instagram.com/marleyphotographysc,Amy Marie Kay Photography,(843) 270-2147,rhett@marleyphotography.net,http://www.marleyphotography.net/,1954 Westminster Rd,Charleston,SC,29407
https://www.instagram.com/luxebylindsay,Luxe By Lindsay Photography LLC,(843) 696-7991,info@luxebylindsay.com,http://luxebylindsay.com/,45 Sycamore Ave APT 1126,Charleston,SC,29414
https://www.instagram.com/faithroperphotography,Faith Roper Photography,(318) 512-1463,faith@faithroper.com,https://faithroper.com/,Maple St,Charleston,SC,29403
https://www.instagram.com/_rachelbench,Laura and Rachel Photography,(831) 578-1197,hello@lauraandrachel.com,http://www.lauraandrachel.com/,,Charleston,SC,29401
https://www.instagram.com/briescialesphotography,Brie Sciales Photography,(843) 819-1076,photography@briesciales.com,http://briesciales.com/,Folly Beach Rd,Charleston,SC,29412
https://www.instagram.com/sweet_bliss_media,Charlotte Wedding Photography-Sweet Bliss Media,(704) 989-4429,sweetblissmedia@gmail.com,http://www.sweetblissmedia.com/,1010 W Trade St #535,Charlotte,NC,28202
https://www.instagram.com/partyoftwophoto,Party of Two Photography,(919) 791-7064,thearborsevents@gmail.com,http://www.partyoftwophoto.com/,3146 Bending Birch Pl,Charlotte,NC,28208
https://www.instagram.com/jhuntphotos,Jessica Hunt Photography LLC,(803) 603-0428,hello@jessicahuntphotography.com,https://jessicahuntphotography.com/,1233 The Plaza Suite 189112,Charlotte,NC,28205
https://www.instagram.com/dpersonettphoto,Dianne Personett Photography,(336) 391-9328,dpersonettphotography@gmail.com,https://www.dpersonettphotography.com/index.html,4511 Hedley Way,Charlotte,NC,28210
https://www.instagram.com/connectionphotography,Connection Photography,(704) 796-1203,josephandandrea@connectionphoto.com,http://www.connectionphotoblog.com/,10630 Jardin Way,Charlotte,NC,28215
https://www.instagram.com/melendezphoto,Melendez Photo,(704) 951-7130,carlos@melendezphoto.com,http://www.melendezphoto.com/,10410 Cochran Ridge Ave,Charlotte,NC,28213
https://www.instagram.com/whitneyphoto,Whitney Photo & Video,(704) 548-9215,info@whitneyphoto.com,https://whitneyphoto.com/,9935-D Rea Rd #109,Charlotte,NC,28277
https://www.instagram.com/robertburnsiiphotography,Robert Burns II Photography &amp; Videography LLC,(704) 802-9181,robertburnsii@gmail.com,http://www.robertburnsiiwedding.com/,1305 Central Ave,Charlotte,NC,28205
https://www.instagram.com/fadedfernphotography,Faded Fern Photography,(919) 618-1806,ndaratony@gmail.com,http://www.fadedfernphotography.com/,1629 Lombardy Cir,Charlotte,NC,28203
https://www.instagram.com/parkspictures,ParksPictures Photography,(980) 322-8995,michael@parkspictures.com,http://www.parkspictures.com/,1219 Rembrandt Cir,Charlotte,NC,28211
https://www.instagram.com/jamie_marie_photography,Jamie Marie Photography,(828) 217-9491,jamiemarie@jamie-marie-photography.com,http://www.jamie-marie-photography.com/,7033 Starvalley Dr,Charlotte,NC,28673
https://www.instagram.com/rainsworldphoto,Rains World Photography,(704) 621-0209,rainsworldbooking@gmail.com,http://www.rainsworldphotography.com/,2901 N Davidson St,Charlotte,NC,28205
https://www.instagram.com/jimtricephoto,Jim Trice Photography,(704) 502-4567,jim@jimtrice.com,https://www.jimtrice.com/,Private Address in Charlotte NC,Charlotte,NC,
https://www.instagram.com/critseyrowephotography,Critsey Rowe Photography,(704) 777-7707,critsey@critseyrowe.com,http://www.critseyrowe.com/,Private Address in Charlotte NC,Charlotte,NC,28211
https://www.instagram.com/wyethaugustine,Wyeth Augustine Photography,(601) 946-6260,wyeth@wyethaugustine.com,http://www.wyethaugustine.com/,2709 North Tryon St,Charlotte,NC,28206
https://www.instagram.com/cecevermillionphotog,Cecelia Vermillion Photography,(704) 778-5677,cwvermillion@gmail.com,https://ceceliavermillionphotography.com/,,Charlotte,NC,28209
https://www.instagram.com/twa_weddingphotographers,TWA Wedding Photography,(630) 271-1737,weddinginfo@twaphoto.com,https://twaphoto.com/,801 S Wells St #710,Chicago,IL,60607
https://www.instagram.com/stephaniebassos,Bassos Weddings,(517) 290-3172,bassosphotography@gmail.com,https://www.stephaniebassos.com/,W Jackson Blvd,Chicago,IL,60604
https://www.instagram.com/wsphotography.us,WS Photography - Chicago Wedding Photographer,(312) 330-4227,info@wsphotography.us,https://wsphotography.us/,336 W Wellington Ave,Chicago,IL,60657
https://www.instagram.com/giadragoiphotography,Chicago Wedding Engagement Photographer - Gia Photos,(312) 927-7238,contact@weddingphotographerinchicago.com,https://www.weddingphotographerinchicago.com/,869 W Buena Ave,Chicago,IL,60613
https://www.instagram.com/maha_studios,Maha Studios - Chicago Wedding Photographers,(630) 915-9781,hello@mahastudiosinc.com,http://www.mahastudiosinc.com/,906 S Loomis St,Chicago,IL,60607
https://www.instagram.com/adamnovakweddings,Adam Novak Wedding Photography,(708) 790-5484,adamjnovak@gmail.com,http://www.adamnovak.com/,7649 N Eastlake Terrace,Chicago,IL,60626
https://www.instagram.com/loftyweddings,loftyweddings,(312) 498-9990,steve@loftyweddings.com,https://www.loftyweddings.com/,1366 W Lake St,Chicago,IL,60607
https://www.instagram.com/theadamkovi,The Adamkovi Chicago Wedding Photography,(773) 453-7787,hello@theadamkovi.com,https://theadamkovi.com/,4117 W Wellington Ave,Chicago,IL,60641
https://www.instagram.com/creativecaptures.us,Creative Captures - chicago indian wedding photographers,(312) 330-4227,info@creativecaptures.us,https://creativecaptures.us/,525 W Hawthorne Pl,Chicago,IL,60657
https://www.instagram.com/calebschaftlein,Caleb Schaftlein | Chicago Wedding Photographer,(812) 613-3133,calebschaftlein@gmail.com,http://calebschaftlein.com/,1932 N Karlov Ave,Chicago,IL,60639
https://www.instagram.com/colinlyonsphoto,Colin Lyons Photography,(312) 285-4533,colinlyons@colinlyonsphotography.com,http://www.colinlyonsphotography.com/,182 W Lake St,Chicago,IL,60601
https://www.instagram.com/lillyphoto,Lilly Photography,(630) 386-3451,info@lillyphotography.com,https://lillyphotography.com/,235 W Van Buren St #3112,Chicago,IL,60607
https://www.instagram.com/essenceweddings,Essence Photo & Video,(847) 923-9800,kathy@essenceweddings.com,http://www.essenceweddings.com/,935 W Chestnut St #14,Chicago,IL,60642
https://www.instagram.com/cristinagphoto,Cristina G Photography,(312) 316-3631,cristina@cristinagphoto.com,http://www.cristinagphoto.com/,1819 W Wilson Ave,Chicago,IL,60640
https://www.instagram.com/petergubernat,Peter Gubernat Photography,(630) 442-2205,peter@petergubernat.com,http://petergubernat.com/,505 N La Salle Dr,Chicago,IL,60654
https://www.instagram.com/stevekoophoto,Steve Koo Photography,(773) 609-5559,steve@stevekoophotography.com,https://stevekoophotography.com/,4636 N Ravenswood Ave,Chicago,IL,60640
https://www.instagram.com/elenabaziniphotography,Elena Bazini Photography,(248) 719-1626,elena@elenabaziniphotography.com,http://www.elenabaziniphotography.com/,700 N Green St #405,Chicago,IL,60642
https://www.instagram.com/pabst_photo,Pabst Photo,(812) 841-9055,josh.pabst@pabstphoto.com,http://www.pabstphoto.com/,1720 S Michigan Ave #701,Chicago,IL,60616
https://www.instagram.com/reenakadakia_photo,Reena Kadakia Photography,(732) 690-0545,reenakadakiaphoto@gmail.com,http://www.reenakadakia.com/,225 W Huron St #406,Chicago,IL,60654
https://www.instagram.com/studiothisisphotography,Studio This Is,(312) 888-1268,weddinginfo@studiothisis.com,https://www.studiothisis.com/,329 W 18th St #902,Chicago,IL,60616
https://www.instagram.com/rahulranaphoto,Rahul Rana Photography,(202) 681-7655,rahul@rahulranaphoto.com,http://www.rahulranaphoto.com/,727 W Madison St,Chicago,IL,60661
https://www.instagram.com/conniemarinaphotography,Connie Marina Photography,(404) 345-8363,conniemarina@gmail.com,http://www.conniemarina.com/,,Chicago, IL,60007
https://www.instagram.com/dawnephoto,Dawn E Roscoe Photography,(630) 248-5809,dawn@dawnephoto.com,http://www.dawnephoto.com/,,Chicago, IL,60608
https://www.instagram.com/jennamarie_photo,Jenna Marie Photography,(312) 504-0690,jenna@jennamariephotography.co,http://jennamariephotography.co/,,Chicago, IL,60611
https://www.instagram.com/philheiden,Wilkes Wedding Productions,(513) 257-4829,letscreate@kenyattadavis.com,http://www.kenyattadavis.com/,206 William Howard Taft Rd,Cincinnati,OH,45219
https://www.instagram.com/jesszwo,Life In Balance Photography,(513) 290-6253,info@ourlifeinbalance.com,http://www.ourlifeinbalance.com/,Main St,Cincinnati,OH,45202
https://www.instagram.com/danielmichael_photo,Images by Daniel Michael Photography,(513) 262-4830,photo@danielmichael.com,https://www.danielmichael.com/,110 W Benson St,Cincinnati,OH,45215
https://www.instagram.com/sherribarber,Sherri Barber Photography,(513) 377-6661,sherri@sherribarberphotography.com,http://www.sherribarberphotography.com/,2008 Freeman Ave,Cincinnati,OH,45214
https://www.instagram.com/mollyannphoto,David Matthew Photography,(513) 549-3080,molly@mollyannphotos.com,http://www.mollyannphotos.com/,401 E Court St #200,Cincinnati,OH,45202
https://www.instagram.com/kortneekatephoto,Kortnee Kate Photography,(513) 807-3000,kristen@kortneekate.com,http://www.kortneekate.com/,3902 Oak St,Cincinnati,OH,45227
https://www.instagram.com/goodstory.co,Good Story Co. Photography,(513) 828-8727,hello@goodstory.co,http://goodstory.co/,1334 Wittekind Terrace,Cincinnati,OH,45224
https://www.instagram.com/harmon_films,Harmon Films,(513) 260-7737,harmonfilms@outlook.com,https://www.harmonfilms.com/,959 Nassau St,Cincinnati,OH,45206
https://www.instagram.com/stoney_florals,Molly Grosse Photography,(513) 821-5051,stoneyflorals@gmail.com,http://www.mollygrosse.photography/,341 W Benson St,Cincinnati,OH,45215
https://www.instagram.com/brittanybrownphoto,Brittany Brown Photography,(513) 807-3535,brittany@brittanybrownphoto.com,http://www.brittanybrownphoto.com/,5365 Cleves Warsaw Pike,Cincinnati,OH,45238
https://www.instagram.com/thespaniersphotography,Spaniers & Co Photography,(859) 496-2074,studio@thespaniers.com,https://www.thespaniers.com/,311 Elm St,Cincinnati,KY,41091
https://www.instagram.com/emilyantonelliphotography,Emily Antonelli Photography,(630) 677-4134,emily@emilyantonelli.com,http://www.emilyantonelli.com/,3433 Bevis Ave,Cincinnati,OH,45207
https://www.instagram.com/traciejeanphoto,Tracie Jean Photo Studios,(513) 503-5457,tracie@traciejeanphoto.com,https://www.traciejeanphoto.com/,424 Findlay St Ste 4a,Cincinnati,OH,45214
https://www.instagram.com/bambino_international/,Bambino International,(937) 477-1576,info@bambinointernational.com,https://bambinointernational.com/,1115 Pendleton St,Cincinnati,OH,45202
http://www.instagram.com/tonywinsteadphotography,Tony Winstead Photography,(513) 371-1732,tonywinsteadphotography@gmail.com,https://tolawi.wixsite.com/tonywinstead,2541 Cook St,Cincinnati,OH,45214
https://www.instagram.com/the.photosmith/,Photosmith,(513) 225-5768,photosmithnyc@gmail.com,https://www.photosmith.photography/,39 E Court St,Cincinnati,OH,45202
https://www.instagram.com/bobscheadler/,Daylight Photo,(513) 237-9630,info@daylight-photo.com,https://www.daylight-photo.com/,2511 Essex Pl,Cincinnati,OH,45206
https://www.instagram.com/toomuchawesomeness,too much awesomeness,(216) 367-9187,ken@toomuchawesomeness.com,http://www.toomuchawesomeness.com/,1305 W 80th St,Cleveland,OH,44102
https://www.instagram.com/spencerphotographyinc,Spencer Photography Inc.,(216) 633-9718,images@spencerphotography.net,https://www.spencerphotography.net/,18119 Sherrington Rd,Cleveland,OH,44122
https://www.instagram.com/arastasia,Arastasia Photography,(440) 530-0814,contact@arastasiaphotography.com,http://www.arastasiaphotography.com/,3143 W 33rd St,Cleveland,OH,44109
https://www.instagram.com/suzuranphotography,Suzuran Photography,(216) 851-8882,suzanne@suzuranphotography.com,http://www.suzuranphotography.com/,2530 Superior Ave # 504,Cleveland,OH,44114
https://www.instagram.com/triggfxweddings,TriggFx,(216) 857-9986,richard@triggfx.com,https://www.triggfx.com/contact,1300 W 78th St,Cleveland,OH,44102
https://www.instagram.com/reneelemairephotography,Renee Lemaire Photography,(440) 941-7222,hello@reneelemairephoto.com,http://reneelemairephoto.com/,1324 West Blvd,Cleveland,OH,44102
https://www.instagram.com/thedragonflyphoto,Dragonfly Photography,(440) 207-0712,hello@thedragonflyphoto.com,https://thedragonflyphoto.com/,425 Literary Rd #100,Cleveland,OH,44113
https://www.instagram.com/viewofspace,View of Space Photography,(440) 429-8045,jim@viewofspace.com,http://viewofspace.com/contact_us,1615 E 25th St 2nd floor,Cleveland,OH,44114
https://www.instagram.com/mariyabeephoto,Mariya Bee Photo LLC,(216) 282-6472,contact@mariyabeephoto.com,https://mariyabeephoto.com/,4140 W 56th St,Cleveland,OH,44144
https://www.instagram.com/humanartist,Human Artist Photography + Video,(440) 719-9299,contact@humanartist.com,http://www.humanartist.com/,1163 E 40th St,Cleveland,OH,44114
https://www.instagram.com/janetcentury,Century Photography,(216) 225-4469,janet@janetcentury.com,https://janetcentury.com/,2026 Murray Hl,Cleveland,OH,44106
https://www.instagram.com/brittanygidley/,Brittany Gidley Photography,(216) 307-8002,hello@brittanygidleyphotography.com,https://www.brittanygidleyphotography.com/,2310 Superior Ave E,Cleveland,OH,44114
https://www.instagram.com/terrythephotographer/,Platinum Photography Ohio,(216) 816-8600,weddings@platinumphotographyohio.com,https://www.platinumphotographyohio.com/,1400 E 30th St,Cleveland,OH,44114
https://www.instagram.com/imagineitphotography/,Imagine It Photography,(440) 240-3347,stephanie@imagineitphotography.com,https://imagineitphotography.com/,1163 E 40th St,Cleveland,OH,44114
https://www.instagram.com/rogermastroianni/,Roger Mastroianni Photographer,(216) 391-3917,roger@rogermastroianni.com,https://www.rogermastroianni.com/,1588 E 40th St,Cleveland,OH,44103-2300
https://www.instagram.com/keith.berr/?hl=en,Keith Berr Productions Inc,(216) 566-7950,linda@keithberr.com,https://www.keithberr.com/,1420 E 31st St,Cleveland,OH,44114
https://www.instagram.com/robbmccormickphotography,Robb McCormick Photography,(614) 834-4956,info@robbmccormick.com,https://robbmccormick.com/,420 E Cooke Rd,Columbus,OH,43214
https://www.instagram.com/briangluys,222 Photography,(614) 940-9592,info@twotwentytwophotography.com,http://www.twotwentytwophotography.com/,3423 Brendan Dr,Columbus,OH,43221
https://www.instagram.com/jmillerphotos,Jessica Miller Photography,(614) 448-6285,thejessicamillerphotos@gmail.com,http://thejessicamillerphotos.com/,6741 Amur Dr,Columbus,OH,43235
https://www.instagram.com/rouxby_photo,Rouxby Photo,(303) 548-4121,info@rouxby.com,http://www.rouxby.com/,588 S 3rd St,Columbus,OH,43206
https://www.instagram.com/johnr.photo,John R Photo,(732) 789-3163,contact@johnrphoto.com,http://www.johnrphoto.com/,230 E Long St,Columbus,OH,43215
https://www.instagram.com/ericakayphotography,Erica Kay Photography,(513) 502-9495,hello@ericakayphotography.com,http://ericakayphotography.com/,817 Wilson Ave,Columbus,OH,43206
https://www.instagram.com/laurenleephotography,Lauren Lee Photography,(614) 332-2165,contact@laurenleephoto.com,http://laurenleephoto.com/,Polley Road,Columbus,OH,43221
https://www.instagram.com/kismetvisuals,Kismet Visuals &amp; Co,(614) 578-3705,info@kismetvisuals.com,http://www.kismetvisuals.com/,300 S Gould Rd,Columbus,OH,43209
https://www.instagram.com/forgetmeknotphotography,Forget Me Knot Photography,(614) 332-6900,carmen@forgetmeknotphoto.com,https://forgetmeknotphoto.com/,1280 Greenleaf Rd,Columbus,OH,43223
https://www.instagram.com/hunterphotographic,Hunter Photographic,(216) 526-1675,hunter@hunterphotographic.com,http://www.hunterphotographic.com/,960 Bluff Ridge Dr,Columbus,OH,43235
https://www.instagram.com/flixphotography,Flix Photography,(614) 664-3549,flixphotography614@gmail.com,http://www.flixphotographyusa.com/,55 E Spring St,Columbus,OH,43215
https://www.instagram.com/seedling_photography,Seedling Photography,(513) 403-0316,jess@seedling-photography.com,https://www.seedling-photography.com/,6845 Downs St,Columbus,OH,43085
https://www.instagram.com/folchicreative,Folchi Creative,(513) 265-3148,hello@folchicreative.com,https://www.folchicreative.com/,48 W Russell St,Columbus,OH,43215
https://www.instagram.com/storytelleradams,Storyteller Adams,(614) 425-5010,hello@storytelleradams.com,http://www.storytelleradams.com/,1747 Olentangy River Rd #1144,Columbus,OH,43212
https://www.instagram.com/outlandweddings,Outland Weddings,(817) 709-8993,contact@outlandweddings.com,http://www.outlandweddings.com/,3045 Shadow Wood Dr,Dallas,TX,75224
https://www.instagram.com/zluna.weddingphotographer,ZLuna Wedding Photography,(214) 609-2990,zlunaphotography@gmail.com,http://zlunaphotography.com/,3232 McKinney Ave,Dallas,TX,75204
https://www.instagram.com/convey_studios,Convey Studios,(214) 934-7305,contact@conveystudios.com,https://www.conveystudios.com/,2919 Commerce St #355,Dallas,TX,75226
https://www.instagram.com/amykarp,Amy Karp Photography,(214) 519-9687,photographer@amykarp.com,http://www.amykarp.com/,2626 Cole Ave Suite 300,Dallas,TX,75204
https://www.instagram.com/monicasalazarphotography,Monica Salazar Photography,(972) 746-3557,monicasalazarphoto@gmail.com,https://www.monicasalazarphotography.com/,620 N Bishop Ave,Dallas,TX,75208
https://www.instagram.com/themenarys,The Menarys | Photography,(214) 945-3970,studio@menaryweddings.com,http://themenarys.com/,606 N Edgefield Ave,Dallas,TX,75208
https://www.instagram.com/perezweddings,Perez Photography,(214) 707-7729,info@perezweddings.com,http://www.perezweddings.com/,3525 Cedar Springs Rd #104,Dallas,TX,75219
https://www.instagram.com/igor_wedding_photography,IGOR Photography & Films,(817) 381-4400,contact@igorweddingphoto.com,https://www.igorweddingphoto.com/,3839 McKinney Ave STE 155,Dallas,TX,75204
https://www.instagram.com/dlacyphoto,D Lacy Photography,(972) 849-1040,dlacyphoto@gmail.com,http://www.dlacyphoto.com/%20or%20www.dlacyweddings.com,1409 Botham Jean Blvd Studio 206,Dallas,TX,75215
https://www.instagram.com/lynnetperez,Lynnet Perez Photography LLC,(214) 518-5288,lynnet@lynnetperez.com,http://www.lynnetperez.com/,3011 Gulden Ln,Dallas,TX,75212
https://www.instagram.com/coburnphoto,Coburn Photography,(214) 390-4633,weddings@coburnphotography.com,http://www.coburnphotography.com/,2318 Rusk Ct,Dallas,TX,75204
https://www.instagram.com/kandsphoto,K & S Photography,(972) 672-8949,info@kandsphotography.net,http://www.kandsphotography.net/,11520 N Central Expy #112,Dallas,TX,75243
https://www.instagram.com/colaphotography,COLA PHOTOGRAPHY,(214) 500-4145,info@colaphotography.com,http://colaphotography.com/,3520 McKinney Ave,Dallas,TX,75204
https://www.instagram.com/johncainphotography,John Cain Photography,(214) 520-6771,studio@johncainphotography.com,http://www.johncainphotography.com/,4623 W Lovers Ln,Dallas,TX,75209
https://www.instagram.com/rafaelbadillophoto,Rafael Badillo Photo & Film,(469) 569-4003,info@rafaelbadillo.com,http://www.rafaelbadillo.com/,351 W Jefferson Blvd,Dallas,TX,75208
https://www.instagram.com/smilebishbooth,Smile Bish.,(469) 530-0616,booth@smile-bish.com,https://www.smile-bish.com/,2524 Converse St,Dallas,TX,75207
https://www.instagram.com/nlgphotography,NLG Photography - Niesha Lanaé Graves,(469) 231-2930,niesha@nlgphotography.net,http://www.nlgphotography.net/,204 S Tyler St,Dallas,TX,75208
https://www.instagram.com/hamptonmorrowphotography,Hampton Morrow Photography,(972) 591-1775,info@hamptonmorrowphotography.com,http://hamptonmorrowphotography.com/,17618 Davenport Rd #1,Dallas,TX,75252
https://www.instagram.com/rserranophoto,Rafael Serrano Photography,(214) 517-5102,info@rafaelserranophotography.com,https://www.rafaelserranophotography.com/,17480 Dallas Pkwy # 119,Dallas,TX,75287
https://www.instagram.com/josephmarkphoto,Joseph Mark Photography,(214) 497-7159,joe@josephmark.com,http://www.josephmark.com/,1409 Botham Jean Blvd #235,Dallas,TX,75215
https://www.instagram.com/photolisaanne/,Photographer Lisa Anne,(508) 525-1849,info@photographerlisaanne.com,http://www.photographerlisaanne.com/,386 Old Westport Rd,Dartmouth,MA,2747
https://www.instagram.com/sarahroshanphoto,Sarah Roshan Wedding Photographer Denver,(303) 905-9740,sarah@sarahroshan.com,https://www.sarahroshan.com/,2501 15th St,Denver,CO,80211
https://www.instagram.com/dgass_photography,Dgass Photography &amp; Wedding Videography,(402) 708-8812,contact@dgassphotography.com,https://dgassphotography.com/,1270 N Marion St #204,Denver,CO,80218
https://www.instagram.com/tom_bennett_images,Tom Bennett Weddings,(703) 628-4046,tom@tombennettimages.com,http://tombennettphoto.com/,963 Lafayette St,Denver,CO,80218
https://www.instagram.com/rachel_schrepel,Rachel Schrepel Wedding Photographer,(303) 345-3063,rachel@rachelschrepel.com,http://www.rachelschrepel.com/,2501 15th St #1b,Denver,CO,80211
https://www.instagram.com/david_alderman_arts,David Alderman Weddings,(303) 809-7307,photomdness@gmail.com,http://www.davidaldermanweddings.com/,2301 W 30th Ave,Denver,CO,80211
https://www.instagram.com/tonygallagherphotography,Tony Gallagher Photography,(303) 520-9111,contact@tonygallagherphotography.com,http://www.tonygallagherphotography.com/,715 Galapago St,Denver,CO,80204
https://www.instagram.com/matirvingphotography,Irving Photography,(303) 513-8429,mathewandariel@gmail.com,http://irvingphotographydenver.com/,636 N Washington St,Denver,CO,80203
https://www.instagram.com/run.wild.with.me,Run Wild With Me Colorado Elopement Photographer,(303) 955-7542,runwildwithmephoto@gmail.com,https://runwildwithmephotography.com/,2725 W 43rd Ave,Denver,CO,80202
https://www.instagram.com/karigeha,Kari Geha Photography,(303) 910-8315,hello@karigehaphotography.com,http://karigehaweddings.com/,1899 N Gaylord St,Denver,CO,80206
https://www.instagram.com/katemerrillphoto,Kate Merrill Photography,(720) 432-8698,kate@katemerrillphoto.com,https://www.katemerrillphoto.com/,403 16th St Mall STE 356,Denver,CO,80204
https://www.instagram.com/twoonephotography,Two One Photography,(303) 579-5315,vanessa@twoonephotography.com,http://www.twoonephotography.com/,W th Ave,Denver,CO,80204
https://www.instagram.com/mariannebrownphotography,Marianne Brown Photography,(229) 457-0975,mariannebrownphotography@gmail.com,http://www.mariannebrownphotography.com/,1457 N Downing St,Denver,CO,80218
https://www.instagram.com/roguefilmco,ROGUE Photography,(970) 373-7224,roguefilmco@gmail.com,http://www.roguefilmco.com/,990 W 41st Ave #612,Denver,CO,80211
https://www.instagram.com/jessicachristiephoto,Jessica Christie Photography,(304) 482-2702,info@jessicanchristie.com,http://www.jessicanchristie.com/,2590 Walnut St,Denver,CO,80205
https://www.instagram.com/adonyejaja,Adonye Jaja Photography,(720) 490-9069,abensonj@gmail.com,http://www.adonyejaja.com/,3351 Vine St,Denver,CO,80205
https://www.instagram.com/anyadanphoto,A&D Photography,(303) 736-9775,hello@anya-dan.com,https://www.anya-dan.com/,255 S Gilpin St,Denver,CO,80209
https://www.instagram.com/vows_and_peaks,Vows and Peaks,(916) 844-9967,beardedpeaks@gmail.com,https://vowsandpeaks.com/,1264 Perry St,Denver,CO,80204
https://www.instagram.com/rebeccamariefineart_photo,RebeccaMarie Photography,(720) 281-6953,rebecca@rebeccamariephotography.net,http://www.rebeccamariephotography.net/,4950 Washington St Suite 200,Denver,CO,80216
https://www.instagram.com/kateivyphotography,Kate Ivy Photography,(303) 903-7219,hi@kateivyphotography.com,https://kateivyphotography.com/,4040 Tejon St,Denver,CO,80211
https://www.instagram.com/jasonbatchphotographyco,Jason Batch Photography,(720) 507-5157,jason@jasonbatchphotography.com,http://jasonbatchphotography.com/,1230 S Bellaire St,Denver,CO,80246
https://www.instagram.com/radianphotography,Radian Photography,(919) 907-0713,hello@radianphotography.com,https://radianphotography.com/,115 Market St # 203,Durham,NC,27701
https://www.instagram.com/truephotographync,Sean True Photography,(919) 824-9036,studio@seantruephotography.com,http://www.seantruephotography.com/,102 Education Ave,Durham,NC,27713
https://www.instagram.com/carolinezphoto,caroline z photography,(919) 451-9850,caroline@carolinezphotography.com,http://www.carolinezphotography.com/,215 S Lochridge Dr,Durham,NC,27713
https://www.instagram.com/lauramemoryphotography,DTownPerspective,(646) 207-8642,lauramemoryphotography@gmail.com,http://www.lauramemory.com/,706 Yancey St,Durham,NC,27701
https://www.instagram.com/alliemullin,Abigail Blosser Photography,(919) 423-3815,photo@alliemullin.com,http://www.alliemullin.com/,415 W Maynard Ave,Durham,NC,27704
https://www.instagram.com/p/cuvax8rpupy/,L'amour Foto,(860) 324-2977,tammy@lamourfoto.com,http://lamourfoto.com/,910 Onslow St,Durham,NC,27705
https://www.instagram.com/danielturbert/,Daniel Turbert Photography,(919) 251-6128,daniel@danielturbertphotography.com,https://danielturbertphotography.com/,353 W Main St,Durham,NC,27701
https://www.instagram.com/yoursdurham/,Yours Durham,(919) 695-3910,hello@yoursdurham.com,https://www.yoursdurham.com/,209 N Gregson St,Durham,NC,27701
https://instagram.com/merrittchesson/,Merritt Chesson Photography,(252) 337-5905,merrittchesson@gmail.com,https://www.merrittchesson.com/,329 Clark St Unit B,Durham,Nc,27701
https://www.instagram.com/strawbridgestudiosinc/,Strawbridge Studios Inc,(800) 326-9080,cservice@strawbridge.net,https://www.strawbridge.net/,3616 Hillsborough Rd,Durham,NC,27705
https://www.instagram.com/pinkowlphotography/,Pinkowl Photography,(678) 427-8608,jilli@pinkowlphotography.com,https://www.pinkowlphotography.com/,6011 Fayetteville Rd Ste 101,Durham,Nc,27713
https://www.instagram.com/_xsphoto/,Xander Shields Photography LLC,(919) 321-5305,troy@xandershieldsphoto.com,https://www.xandershieldsphoto.com/,2530 Meridian Pkwy Ste 300,Durham,NC,27713
https://www.instagram.com/carolinezphoto,caroline z photography,(919) 451-9850,catherinecolelyfx@gmail.com,https://www.carolinezphotography.com/,215 S Lochridge Dr,Durham,NC,27713
https://www.instagram.com/rosaashdownphotography/,Rosa Ashdown Photography,(919) 490-2000,info@rosaashdown.com,https://rosaashdown.com/new-hope-animal-hospital/,5016 Durham Chapel Hill Blvd,Durham,NC,27707
https://www.instagram.com/braveheartsphotography/,Brave Hearts Photography,(401) 680-0818,katie@braveheartsphotography.com,https://braveheartsphotography.com/,20 Knollwood Ave,East Greenwich,RI,2818
https://www.instagram.com/kgarciaprod/,K. Garcia Productions,(508) 789-5761,info@kgarciaproductions.com,https://www.kgarciaproductions.com/,1611 Bay St,Fall River,MA,02724-1103
https://www.instagram.com/elainekessler/,"Elaine Kessler Photography, LLC",(480) 220-6426,elaine@elainekesslerphotography.com,https://www.elainekesslerphotography.com/,3651 E Baseline Rd E223,Gilbert,AZ,85234
https://www.instagram.com/julius.photography,Julius Photography,(480) 650-3239,tony@juliusphotography.com,https://www.juliusphotography.com/,973 S Wallrade Ln,Gilbert,AZ,85296
https://www.instagram.com/jacquelynphillipsphotography/,Jacquelyn Phillips Photography,(602) 550-2574,jacquelyn.l.phillips@gmail.com,http://www.yourazphotog.com/,310 S Granite Ct,Gilbert,AZ,85296
https://www.instagram.com/kcphotostudio,KC Photography Studio,(480) 621-6993,info@kcphotostudio.com,https://www.kcphotostudio.com/,323 S Gilbert Rd Ste 215,Gilbert,AZ,85296
https://www.instagram.com/midjulymedia,Mid-July Media Wedding Videographers,(616) 773-0599,hello@midjulymedia.com,https://midjulymedia.com/,17 Vandine Pl NE,Grand Rapids,MI,49503
https://www.instagram.com/arraephoto,Arrae Photography,(616) 291-7901,amanda@arraephotography.com,http://www.arraephotography.com/,240 Front Ave SW #204,Grand Rapids,MI,49504
https://www.instagram.com/kellysweetphoto,Kelly Sweet Photography,(616) 822-1754,kelly@kellysweet.com,http://www.kellysweet.com/,1462 Milton St SE,Grand Rapids,MI,49506
https://www.instagram.com/amandavanvels,Amanda VanVels Photography,(616) 819-8875,amandavanvelsphoto@gmail.com,http://amandavanvels.com/,1311 Lafayette Ave NE,Grand Rapids,MI,49505
https://www.instagram.com/abbyfoxphoto,Abby Fox Photography,(517) 927-6860,abbyfoxphotography@gmail.com,http://www.abbyfoxphotography.com/,2541 Knapp St NE,Grand Rapids,MI,49505
https://www.instagram.com/jenqphotography,jenQphotography,(616) 450-5967,jenqphotography@gmail.com,http://www.jenqphotography.com/,Cascade Rd SE,Grand Rapids,MI,49546
https://www.instagram.com/truvision_studios,TruVision Studios,(616) 328-5957,info@truvisionstudios.com,https://truvisionstudios.com/,401 Hall St SW Ste 185L,Grand Rapids,MI,49503
https://www.instagram.com/arielleteftphotography,Arielle Teft Photography,(616) 901-8568,info@arielleteft.com,http://arielleteft.com/,302 James Ave SE,Grand Rapids,MI,49503
https://www.instagram.com/spencerpenfield,Spencer Penfield,(517) 881-2315,hello@spencerpenfield.com,https://www.spencerpenfield.com/,1805 Mayfair Dr NE,Grand Rapids,MI,49503
https://www.instagram.com/terzesphotography/,Terzes Photography,(616) 454-3153,aterzes@terzesphoto.com,https://terzesphoto.com/,25 Division Ave S,Grand Rapids,MI,49503
https://instagram.com/sarahgracepyper,Sarah Pyper Photography,(616) 516-3924,sarah@sarahpyperphotography.com,https://sarahpyperphotography.com/,1736 Martin Ave SE,Grand Rapids,MI,49507
https://instagram.com/paigegabertphoto,Paige Gabert Photography,(231) 670-7689,contactme@paigegabert.com,http://www.paigegabert.com/,350 Ionia Ave SW,Grand Rapids,MI,49503-6409
https://www.instagram.com/megbradley/,Meghan Bradley Photography,(908) 358-5936,meghanmbradley@gmail.com,https://www.megbradley.co/,343 Houseman Ave NE,Grand Rapids,Mi,49503
https://www.instagram.com/isabelmediastudios/,Isabel Media Studios,(616) 334-9388,info@isabelmediastudios.com,https://isabelmediastudios.com/contact,818 Butterworth St SW,Grand Rapids,MI,49504
https://www.instagram.com/bigeventstudios/,Big Event Studios,(616) 454-1001,jline@bigeventstudios.com,https://www.bigeventstudios.com/,312 Ellsworth Ave SW,Grand Rapids,MI,49503
https://www.instagram.com/khuv/,Kevin Huver Photography,(616) 581-5701,khuvphoto@gmail.com,https://www.kevinhuver.com/,127 Lafayette Ave NE #1,Grand Rapids,MI,49503
https://www.instagram.com/kellyjophotography,Kelly Jo Photography,(616) 706-8376,photographybykellyjo@gmail.com,https://www.photographybykellyjo.com/,1187 Luce St,Grand Rapids,MI,49534
https://instagram.com/paulduanephoto,Paul Duane Photography,(801) 994-6960,john@paulduanephoto.com,https://www.paulduanephoto.com/contact-booking/,38 S Rio,Grande Slc,UT,84101
https://www.instagram.com/wix,Behind the Lens Photography,(434) 549-3291,cookshack@embarqmail.com,https://www.behindthelensnc.com/,1535 Riverside Dr,Hillsborough,NC,27278
https://www.instagram.com/anthonycallejaphotography,Soul Hawaii Wedding Photography,(808) 354-2448,callejaphoto@gmail.com,https://www.anthonycalleja.com/,3523 Maluhia St,Honolulu,HI,96816
https://www.instagram.com/kaiphotohawaii,Kai-Photo Hawaii,(808) 591-1882,info@kai-photo.com,https://www.kai-photo.com/,7040 Hawaii Kai Dr #25411,Honolulu,HI,96825
https://www.instagram.com/visionari_photography,Visionari,(808) 220-8108,contact@visionari.com,http://visionari.com/,16 Merchant St,Honolulu,HI,96813
https://www.instagram.com/hnlstudios,HNL Studios,(808) 454-3113,hello@hnlstudios.com,http://www.hnlstudios.com/,643 Ilalo St Suite 102,Honolulu,HI,96813
https://www.instagram.com/imfvisions,IMF Visions,(808) 392-4012,ianf@imfvisions.com,https://imfvisions.com/,88 Piikoi St APT 501,Honolulu,HI,96814
https://www.instagram.com/seekingfilms,Capturing I Do,(808) 798-7304,inquiries@seekingfilms.com,http://www.seekingfilms.com/,1158 20th Ave,Honolulu,HI,96816
https://www.instagram.com/tanegaphoto,Jayson Tanega Photography,(808) 781-7800,j@tanegawedding.com,http://tanegawedding.com/,1210 Laukahi St,Honolulu,HI,96821
https://www.instagram.com/megan_moura,Megan Moura Photography,(808) 285-8770,info@meganmoura.com,http://www.meganmoura.com/,928 Nuuanu Avenue Suite 403(a,Honolulu,HI,96817
https://www.instagram.com/kristencampbellphoto,Kristen Campbell Photography,(707) 478-2388,ckbrides@gmail.com,https://kristencampbellphoto.com/,661 Hase Dr,Honolulu,HI,96819
https://www.instagram.com/baerimages,Baer Images Hawaii,(808) 856-1322,baerimagesmaui@gmail.com,http://baerimageshawaii.com/,1565 Pensacola St,Honolulu,HI,96822
https://www.instagram.com/jennaleepics,Jenna Lee Pictures,(808) 339-6659,info@jennaleepictures.com,https://www.jennaleepictures.com/,225 Liliuokalani Ave,Honolulu,HI,96815
https://www.instagram.com/lovestoryweddingsphotography,Love Story Weddings Photography,(808) 384-7654,info@lovestoryweddings.com,http://lovestoryweddings.com/,1515 Ward Ave. #804,Honolulu,HI,
https://www.instagram.com/visionaryviewsllc/,Visionary Views LLC,(808) 342-7508,info@visionaryviewsllc.com,https://www.visionaryviewsllc.com/,711 Kapiolani Blvd 1420,Honolulu,Hi,96813
https://www.instagram.com/lovestoryweddingsphotography,Love Story Weddings,(808) 384-7654,info@lovestoryweddings.com,https://www.lovestoryweddings.com/,1535 Pensacola St,Honolulu,HI,96822
https://www.instagram.com/p/con_bk6p7fk/,One Moment Hawaii,(808) 348-4230,info@onemomenthawaii.com,https://www.onemomenthawaii.com/,2450 Date St Apt 14,Honolulu,Hi,96826
https://www.instagram.com/p/c46dtkxvgw8/,Keoni Michael Wedding Photography,(808) 628-8277,info@keonimichael.com,https://keonimichael.com/,1425 Kaumualii St,Honolulu,HI,96817-4831
https://www.instagram.com/masakobridal/,Kimono Hawaii Photo Studio,(808) 593-7930,mf@masakoformals.com,https://masakoformalshawaii.com/kimono-studio/,1038 Queen St,Honolulu,Hi,96814
https://www.instagram.com/visionari_photography/,Visionari Photo,(808) 597-1076,contact@visionari.com,https://www.visionari.com/,510 Piikoi St,Honolulu,HI,96814
https://www.instagram.com/uilaniphotography/,Uilani Photography,(808) 283-4736,uilanifriedman@hotmail.com,https://www.uilaniphotography.com/,2838 E Manoa Rd,Honolulu,HI,
https://www.instagram.com/perfectportraitshawaii/,PERFECT PORTRAITS HAWAII,(808) 222-3467,perfectportraitshawaii@gmail.com,https://www.perfectportraitshawaii.com/,1110 University Ave,Honolulu,HI,96826-1508
https://www.instagram.com/ulisesreyes,Ulises Reyes Wedding Photographer,(832) 673-1172,hello@ulises-reyes.com,https://www.ulises-reyes.com/,16511 Hedgecroft Dr #200,Houston,TX,77060
https://www.instagram.com/tinagracephotography,Agape House Studio | Houston Wedding Photographer,(832) 890-8061,tina@agapehousestudio.com,http://www.agapehousestudio.com/,Weslayan St,Houston,TX,77027
https://www.instagram.com/pixelstudioweddings,Pixel Studio Weddings,(832) 438-5225,info@pixelstudioproductions.com,http://pixelstudioweddings.com/,2414 Sunset Blvd,Houston,TX,77005
https://www.instagram.com/marinfotografiayvideo,Marin Photography Fotografia Wedding Photographer Quinceañeras,(713) 378-1730,marinphotography41@gmail.com,http://www.marinfotografia.com/,8315 Long Point Rd,Houston,TX,77055
https://www.instagram.com/thisisolaphotos,olaphotos Wedding videographer,(832) 250-6796,ola@olaphotos.com,http://www.olaphotos.com/,2620 Tanglewilde St Suite 200,Houston,TX,77063
https://www.instagram.com/amor.texas,Amor Wedding Films | Houston Wedding Photographer,(713) 331-5155,info@amortexas.com,http://amortexas.com/,9000 Southwest Fwy,Houston,TX,77074
https://www.instagram.com/givernywedding,Giverny Wedding Photo &amp; Film,(310) 890-1386,givernywedding@gmail.com,https://www.givernywedding.com/,1725 Main St,Houston,TX,77002
https://www.instagram.com/74stmedia,74stmedia Houston wedding videography,(832) 250-6796,74stmedia@gmail.com,http://74stmedia.com/,2620 Tanglewilde Street suite 400 3131 Hayes Rd,Houston,TX,77063
https://www.instagram.com/luvangelamariestudio,Luv Angela Marie Studios,(832) 496-8441,info@luvangelamarie.com,http://www.luvangelamariestudios.com/,900 Louisiana St,Houston,TX,77002
https://www.instagram.com/scottkelleyphotography,Scott Kelley Photography,(507) 407-2050,scottkelleymail@gmail.com,http://www.scottkelleyphoto.com/,160 Birdsall St,Houston,TX,77007
https://www.instagram.com/cbaronphoto,C Baron Photography,(281) 774-8794,info@cbaronphotography.com,https://www.cbaronphotography.com/,2204 Summer St #112,Houston,TX,77007
https://www.instagram.com/jvincephoto,j.vince photography,(832) 598-4623,weddings@jvincephotography.com,http://www.jvincephotography.com/,1306 Nance St,Houston,TX,77002
https://www.instagram.com/pureplush,Pure Plush Photography,(281) 513-5298,contact@pureplushphotography.com,http://www.pureplushphotography.com/,2500 Summer St #3211,Houston,TX,77007
https://www.instagram.com/joshplusdana,Josh & Dana Fernandez Photography,(832) 628-2680,dana@joshplusdana.com,http://www.danafernandezphotography.com/,302 W 11th St,Houston,TX,77008
https://www.instagram.com/wethedrakes,The Drakes,(832) 326-7306,hello@wearethedrakes.com,http://www.wearethedrakes.com/,2502 La Branch St,Houston,TX,77004
https://www.instagram.com/boulevard.photography,Boulevard Photography,(832) 808-8019,info@boulevardphotography.com,http://www.boulevardphotography.com/,401 Franklin St Suite 2400 - 134,Houston,TX,77201
https://www.instagram.com/diermaphoto,Dierma Photo & Video,(832) 352-3441,info@dierma.net,http://www.dierma.net,1900 W Gray St #130802,Houston,TX,77019
https://www.instagram.com/plumtreestudios,Plum Tree Studios,(713) 874-4096,trish@plumtreestudios.com,http://www.plumtreestudios.com/,9615 Pagewood Ln,Houston,TX,77063
https://www.instagram.com/steveleephoto,Steve Lee Photography | Avalee Films,(713) 443-7058,steve@steveleephoto.com,http://steveleephoto.com/,1330 Yale St,Houston,TX,77008
https://www.instagram.com/natemessphoto,Nate Messarra Photography,(832) 425-1795,nate@natemessarra.com,https://www.natemessarra.com/,8042 Glenforest Ct,Houston,TX,77061
https://www.instagram.com/kelleyjordanphotography,Kelley Jordan Photography,(616) 558-5096,kelley@kelleyjordanphotography.com,http://kelleyjordanphotography.com/,1060 N Capitol Ave Ste A-435,Indianapolis,IN,46204
https://www.instagram.com/stacyablephotography,Stacy Able Photography,(812) 552-1007,stacyablephotography@gmail.com,http://www.stacyable.com/,1077 Fox Hill Dr,Indianapolis,IN,46228
https://www.instagram.com/heathersherrillphotography,Heather Sherrill Photography,(317) 864-0632,heathersherrillphotography@gmail.com,http://heathersherrill.com/,6457 Falling Tree Way,Indianapolis,IN,46236
https://www.instagram.com/cbergin,Megelaine Images,(317) 308-9269,chris@chrisberginphoto.com,http://www.chrisberginphoto.com/,4055 Broadway St,Indianapolis,IN,46205
https://www.instagram.com/elliottfilmco,Blissful Kiss Photography,(317) 660-2222,rhyolitestudios@gmail.com,http://rhyolitestudios.com/,9405 Charter Dr #1,Indianapolis,IN,46250
https://www.instagram.com/monicaannebrown,Monica Brown Photography,(513) 461-0286,monicabrownphoto@gmail.com,http://monicabrownphoto.com/,5304 Daniel Dr,Indianapolis,IN,46226
https://www.instagram.com/ewingstudio,The Ewing Studio,(317) 997-1600,nick@ewingstudio.com,https://www.ewingstudio.com/,5770 Brockton Ct Apt 4,Indianapolis,IN,46220
https://www.instagram.com/anvikclicks,Premier Photobooth,(317) 445-3613,anvikclicks@gmail.com,https://www.anvikclicks.com/,2330 Canvasback Dr,Indianapolis,IN,46234
https://www.instagram.com/amandadebusk,Amanda DeBusk Photography,(317) 759-0685,amanda@amandadebusk.com,http://amandadebusk.com/,6556 Ferguson St,Indianapolis,IN,46220
https://www.instagram.com/clayhousephoto,Clay House Photography,(317) 366-9875,clayhouse.contact@gmail.com,http://www.clayhousephoto.com/,5620 Norwaldo Ave,Indianapolis,IN,46220
https://www.instagram.com/ajtakesyourphotos,Extraordinaire Photography,(317) 756-7640,myphotos@ajshoots.net,https://epindy.smugmug.com/,123 Main Street,Indianapolis,IN,46204
https://www.instagram.com/jess.gingrich,Dimensions Photography,(317) 222-1282,info@dimensions-photography.com,https://dimensions-photography.com/,1055 N Senate Ave,Indianapolis,IN,46202
https://www.instagram.com/p/c5d38r0lh1v/,Cindy Johnson Boudoir Photography,(317) 560-4546,cindy@cindyjohnsonboudoirphotography.com,https://www.cindyjohnsonboudoirphotography.com/,1055 N Senate Ave,Indianapolis,IN,46202
https://www.instagram.com/danielle_harris_photography/,Danielle Harris Photography,(317) 762-4589,danielle@danielleharrisphotography.com,https://www.danielleharrisphotography.com/,6711 Earlswood Dr,Indianapolis,In,46217
https://www.instagram.com/jasminetafoyaphoto,Jasmine Tafoya Photography,(317) 201-0408,hello@jasminetafoyaphoto.com,https://www.jasminetafoyaphoto.com/,1105 Prospect St,Indianapolis,IN,46203-1936
https://www.instagram.com/midwestphotoboothco/,MidWest Photo Booth Company,(317) 759-8784,info@midwestpbc.com,https://www.midwestphotoboothco.com/,410 N Meridian St,Indianapolis,IN,46204
https://www.instagram.com/okayest_cook/,Chris Whonsetler Photography,(317) 721-3577,hello@chriswhonsetler.com,https://chriswhonsetler.com/,212 W 10th St Ste A290,Indianapolis,IN,46202
https://www.instagram.com/monettewagner/,Monette Wagner Photography,(317) 662-0718,monette.wagner@gmail.com,https://www.monettewagner.com/,1910 Ruckle St,Indianapolis,IN,46202
https://www.instagram.com/p/cezi69ylf3m/,Victoria Rayburn Photography,(317) 548-2513,victoria@victoriarayburnphotography.com,https://victoriarayburnphotography.com/contact-victoria-rayburn-photography/,327 Eastern Ave,Indianapolis,IN,46201
https://www.instagram.com/taylorglenn.studio,Taylor Glenn Photography,(307) 413-7540,tg@taylorglennstudio.com,http://www.trgphoto.com/,160 E Broadway Ave,Jackson,WY,83001
https://www.instagram.com/jcmphotographyjacksonhole,JCM Photography - Jackson Hole,(307) 231-0091,info@jacksonholephotographers.com,https://www.jacksonholephotographers.com/,680 S Cache St Suite 100-8640,Jackson,WY,83001
https://www.instagram.com/apresevents,Après Events,(307) 699-9887,rory@apresvisuals.com,http://apresevents.com/,1258 Lewis Way,Jackson,WY,83001
https://www.instagram.com/aubreyerinphoto,Aubrey Erin Photography,(816) 510-8832,aubrey@aubreyerinphoto.com,http://aubreyerinphoto.com/,5500 Woodend Ave,Kansas City,KS,66106
https://www.instagram.com/capturedbylyndsey,Captured by Lyndsey Photography,(816) 646-6098,info@capturedbylyndsey.com,http://www.capturedbylyndsey.com/,425 Washington St,Kansas City,MO,64105
https://www.instagram.com/rivasbrewing/,Rivas Photography,(816) 635-0417,hello@rivas.media,https://rivas.media/,1125 Grand Blvd Unit 1105,Kansas City,MO,64106
https://instagram.com/emilylynn_photography,Emily Lynn Photography,(816) 261-5446,info@emily-lynn.com,https://www.emily-lynn.com/,1107 Hickory St,Kansas City,MO,64101
https://www.instagram.com/thegraysphotos/,The Grays Photography,(816) 288-0346,briana@thegraysphotos.com,http://thegraysphotos.com/about/,1625 Oak St,Kansas City,MO,64108
https://www.instagram.com/kchomephoto/,KC Home Photography,(913) 735-5748,bryan@kchomephotography.com,https://www.kchomephotography.com/,1301 Oak St Ste 614,Kansas City,Mo,64106
https://www.instagram.com/p/c5l2kp6pwm-/,Claire Ryser Photography,(816) 726-6705,claire@claireryser.com,https://www.claireryser.com/about,106 W 14th St Unit 1807,Kansas City,Mo,64105
https://www.instagram.com/p/c-bnumophaz/,Husband + Wife Photography,(913) 687-2690,contact@husbandandwifephoto.com,http://www.husbandandwifephoto.com/,1107 Hickory St,Kansas City,MO,64101-1316
https://www.instagram.com/elementsbrandhaus/,Elements Studio Photography,(816) 739-3491,elementsphotostudio@gmail.com,https://www.elementsphotostudio.com/,1323 W 13th St,Kansas City,MO,64102
https://www.instagram.com/krzyzphoto/,Bill Krzyzanowski Photography,(816) 472-4999,info@krzyzstudio.com,https://krzyzstudio.com/,1800 Locust St,Kansas City,Mo,64108
https://instagram.com/andreadelongphotography,Andrea DeLong Photography,(816) 516-2022,andrea@delongstudios.com,https://www.andreadelongphotography.com/,405 Olive St,Kansas City,Mo,64124
https://www.instagram.com/whitehouse.fitness/,Layne Haley Photography,(913) 461-1254,layne@laynehaley.com,http://www.laynehaley.com/,612 N 5th St,Kansas City,KS,66101
https://www.instagram.com/chriscproductions/,Chris C Productions,(816) 877-7514,crisrmugc@gmail.com,https://www.chriscproductions.com/,107 W 9th St Ste 217,Kansas City,Mo,64105
https://www.instagram.com/omegaweddings/?hl=en,Omega Weddings,(417) 986-4114,bekka@omegaweddings.com,https://www.omegaweddings.com/contact,3600 Broadway Blvd,Kansas City,Mo,64111
https://instagram.com/theguildkc,The Guild,(816) 471-8550,info@theguildkc.com,https://www.theguildkc.com/,1621 Locust St,Kansas City,MO,64108
https://www.instagram.com/happychickphoto/,Happy Chick Photography,(816) 560-0335,christy@happychickphoto.com,https://www.happychickphoto.com/,905 Broadway Blvd,Kansas City,MO,64105
https://www.instagram.com/glenwoodweddings,Glenwood Weddings,(816) 945-9985,hello@glenwoodwed.com,https://www.glenwoodwed.com/,300 E 39th St,Kansas City,MO,64111-1531
https://www.instagram.com/thebrideandthebauer/?hl=en,The Bride&the Bauer,(816) 984-8533,info@thebrideandthebauer.com,https://www.thebrideandthebauer.com/,115 W 18th St,Kansas City,MO,64108
https://www.instagram.com/lukystar86_mua/,Lucrezia Mapelli,(816) 896-3778,lucrezia@lucreziamapellimakeupartist.com,https://www.lucreziamapellimakeupartist.com/,2001 Grand Blvd,Kansas City,MO,64108
https://www.instagram.com/p/dhygthvxx7h/,Halcyon Studio,(816) 728-4748,halcyonkc@gmail.com,https://www.halcyonkc.com/,2021 Washington St,Kansas City,MO,64108
https://www.instagram.com/walterwilsonstudios,Walter Wilson Studios Inc.,(619) 846-1149,info@walterwilsonstudios.com,http://www.walterwilsonstudios.com/,5785 La Jolla Blvd,La Jolla,CA,92037
https://instagram.com/lindsey_beckwith_photography/,Lindsey Beckwith Photography,(216) 990-1994,lindsey.beckwith@gmail.com,https://www.lindseybeckwith.com/,1406 Westwood Ave,Lakewood,OH,44107
https://www.instagram.com/lsfineartweddingphoto,Lorenzo Sandoval Las Vegas Wedding Photographer,(702) 721-5870,info@lorenzosandoval.com,https://www.lorenzosandoval.com/,2301 Sunset Rd #18,Las Vegas,NV,89119
https://www.instagram.com/memorylanevideo,Memory Lane Videography &amp; Cinematography - Las Vegas Wedding Videographers,(702) 501-5622,ricky@mlvnv.com,http://www.mlvnv.com/,8509 Copper Mountain Ave,Las Vegas,NV,89129
https://www.instagram.com/treeoflifefilmsandphotos,Tree of Life Films & Photos,(725) 222-9432,treelifefilms@gmail.com,https://www.treelifefilms.com/,5124 Ivy Creek Ct,Las Vegas,NV,89141
https://www.instagram.com/laurenraephoto,Lauren Rae Photography,(770) 374-5876,lauren@laurenraephoto.com,http://laurenraephoto.com/,10425 Mount Washington Ave,Las Vegas,NV,89166
https://www.instagram.com/mindybeanphoto,Mindy Bean Photography,(702) 340-5415,mindy@mindybeanphotography.com,http://www.mindybeanphotography.com/,9965 W Tropical Pkwy,Las Vegas,NV,89149
https://www.instagram.com/adamfrazierphotographer,Adam Frazier Photographer,(702) 379-3435,adam@adam-frazier.com,http://www.adam-frazier.com/,1200 S 4th St #104,Las Vegas,NV,89104
https://www.instagram.com/ivandianaphoto,Ivan &amp; Diana Photography,(702) 728-9581,ivan.vidic@gmail.com,http://ivandianaphotography.com/,6548 Sterling Springs Pkwy,Las Vegas,NV,89108
https://www.instagram.com/cashmanbrothers,Cashman Brothers,(702) 220-9506,inquiry@cashmanbrothers.com,http://www.cashmanbrothers.com/,6295 S Pioneer Way,Las Vegas,NV,89113
https://www.instagram.com/studio_n_photography,Studio N Photography,(702) 750-1060,natalie@thestudion.com,https://www.thestudion.com/,1930 Village Center Cir #3-103,Las Vegas,NV,89134
https://www.instagram.com/victoriabremnerphotography,Victoria Bremner Photography,(702) 683-4998,v@victoriabremner.com,http://www.victoriabremner.com/,7810 W La Madre Way,Las Vegas,NV,89149
https://www.instagram.com/taylormade_photolv,Taylor Made Photography,(949) 943-4734,heather@taylormadephotolv.com,https://www.taylormadephotolv.com/,10588 Valdosta Ave,Las Vegas,NV,89129
https://www.instagram.com/amberlight_collective_photo,The Amberlight Collective,(702) 483-7878,info@amberlightcollective.com,https://amberlightcollective.com/,7181 N Hualapai Way Ste 130 #93,Las Vegas,NV,89166
https://www.instagram.com/702_lens,QT Photography and Film,(702) 758-4190,tiffiny.qtphotography@gmail.com,http://www.qtphotographyandfilm.com/,2200 S Fort Apache Rd,Las Vegas,NV,89117
https://www.instagram.com/imagesbyedi,Images by EDI,(702) 286-8759,edi@imagesbyedi.com,https://www.imagesbyedi.com/,7380 S Eastern Ave Suite 124,Las Vegas,NV,89123
https://www.instagram.com/courtneypecorino,Courtney Pecorino Photography,(702) 290-3219,courtney@courtneypecorino.com,http://www.courtneypecorino.com/,Enterprise,Las Vegas,NV,89178
https://www.instagram.com/chelseanicolephoto,Chelsea Nicole Photography,(702) 321-3107,chels@chelseanicole.com,http://www.chelseanicole.com/,S Buffalo Dr,Las Vegas,NV,89178
https://www.instagram.com/daryamorrealephotography,Darya Morreale Photography,(702) 556-8218,daryamorrealephoto@gmail.com,http://www.daryamorrealephotography.com/,8017 Twain Harte St,Las Vegas,NV,89139
https://www.instagram.com/eugenekimphotography,Eugene Kim Photography,(702) 857-4265,eugenekimphotography@gmail.com,http://eugenekim.photography/,3616 Moonlit Rain Dr,Las Vegas,NV,89135
https://www.instagram.com/brazenhoneyfilms,Brazen Honey Films | Las Vegas Elopements,(702) 326-7955,howdy@brazenhoneyfilms.com,http://www.brazenhoneyfilms.com/,301 Arnold St,Las Vegas,NV,89106
https://www.instagram.com/irisdeephotography,Iris Dee Photography,(702) 526-6619,iris@irisdee.com,https://irisdee.com/,2450 Chandler Ave # 2,Las Vegas,NV,89120
https://www.instagram.com/mayiosotaluno,May Iosotaluno Photography,(323) 596-0456,may@mayiosotaluno.com,https://www.mayiosotaluno.com/,,Los Angeles, CA,90013
https://www.instagram.com/anniebangphoto,Annie Bang Photography,(310) 741-2634,annie@anniebang.com,http://www.anniebang.com/,,Los Angeles, CA,90010
https://www.instagram.com/alexwphotography,Alex W Photography,(310) 701-8979,alex@alexwphotography.com,https://www.alexwphotography.com/,,Los Angeles, CA,90064
https://www.instagram.com/lulanphoto,Lulan Wedding Photography and Videography,(626) 662-1844,lulanwangphoto@gmail.com,https://lulanstudio.com/,620 Main St,Los Angeles,CA,90014
https://www.instagram.com/evertwo.films,EverTwo Films | Wedding Videography &amp; Photography,(347) 553-2782,evertwofilms@gmail.com,https://evertwofilms.com/,1297 Cochran Ave,Los Angeles,CA,90019
https://www.instagram.com/colorblastweddings,ColorBlast Weddings,(323) 791-3332,contact@colorblast.in,https://colorblastweddings.com/,432 S Curson Ave,Los Angeles,CA,90036
https://www.instagram.com/westfilmsca,West Films - Los Angeles Wedding Videographer,(424) 744-6549,westfilmsca@gmail.com,https://weddingvideocalifornia.com/,4550 W Pico Blvd STE C2320,Los Angeles,CA,90019
https://www.instagram.com/aprilstoryfilms,April Story Films I Cinematic Wedding Film I Los Angeles I United States l World wide,(570) 262-5100,mannyaguirre55@gmail.com,https://www.aprilstoryfilms.com/,510 Burnside Ave,Los Angeles,CA,90036
https://www.instagram.com/thedrunkweddingphotographer,The Drunk Wedding Photographer,(213) 249-1648,hola@lafabricapatio.com,https://thedrunkweddingphotographer.com/,5805 Harold Way #1,Los Angeles,CA,90028
https://www.instagram.com/bw.weddings,BW Weddings,(323) 826-7230,sales@beigecorporation.io,http://bwweddings.us/,900 S Figueroa St,Los Angeles,CA,90015
https://www.instagram.com/nzweddingstudio,NZ WEDDING STUDIO Los Angeles Wedding Photographer,(312) 522-9708,hi@nzweddingstudio.com,https://nzweddingstudio.com/,11150 W Olympic Blvd,Los Angeles,CA,90064
https://www.instagram.com/lovesaverweddings,Lovesaver Weddings,(845) 705-4271,lovesaverweddings@gmail.com,https://lovesaverweddings.com/,2510 W Temple St,Los Angeles,CA,90026
https://www.instagram.com/weddingsidekicks,Megan & Allen: Wedding Photographers,(321) 652-8627,abbott.meganm@gmail.com,http://www.weddingsidekicks.com/,5315 Harmony Ave,Los Angeles,Ca,91601
https://www.instagram.com/jayhsiang,Jay Studio Wedding Photography,(626) 589-3955,jay@jay-studio.com,http://www.jay-studio.com/,1330 Factory Pl,Los Angeles,CA,90013
https://www.instagram.com/ceanonestudioinc,Cean One Studio,(310) 739-0777,cean@ceanone.com,http://www.ceanone.com/,617 S Olive St,Los Angeles,CA,90014
https://www.instagram.com/milycooperphotography,AMELLIEE PHOTOGRAPHY,(310) 916-7145,milycooper.photography@yahoo.com,http://www.milycooperphotography.com/,338 S Western Ave Unit K,Los Angeles,CA,90020
https://www.instagram.com/blue22photography,Blue 22 Photography,(213) 384-0058,blue22photo@gmail.com,http://www.blue22photography.com/,3871 W 6th St,Los Angeles,CA,90020
https://www.instagram.com/callawaygable,Callaway Gable,(323) 394-9997,allison@callawaygable.com,https://callawaygable.com/,3439 Atwater Ave,Los Angeles,CA,90039
https://www.instagram.com/aureliadamorephotography,Aurelia DAmore Photography,(323) 514-5504,aureliadamore@gmail.com,http://www.damore.biz/,1130 Flower St #315,Los Angeles,CA,90015
https://www.instagram.com/tiffanyjphotography,Tiffany J Photography,(424) 272-7053,tiffany@tiffanyjphoto.com,http://www.tiffanyjphoto.com/contact,430 S Fuller Ave,Los Angeles,CA,90036
https://www.instagram.com/fioroniphotography,Remo Fioroni Photography,(510) 332-7579,remo@fioroniphotography.com,http://www.fioroniphotography.com/,400 S Main St Unit 401,Los Angeles,CA,90021
https://www.instagram.com/thegoldcollective,THE GOLD COLLECTIVE,(310) 721-1451,studio@thisisthegoldcollective.com,http://thisisthegoldcollective.com/,1161 W Kensington Rd,Los Angeles,CA,90026
https://www.instagram.com/samkimphoto,Sam Kim Photography,(213) 249-8856,contact@samkimphoto.com,http://www.samkimphoto.com/,635 S Norton Ave,Los Angeles,CA,90005
https://www.instagram.com/carolinecolvin_weddings,Caroline Colvin Photography,(720) 937-1881,caroline@colvinphotos.com,https://www.carolinecolvinphotography.com/,748 W Hemlock Cir,Louisville,CO,80027
https://www.instagram.com/andreaengerphoto,Andrea Enger Photography,(720) 739-0784,andrea@andreaengerphotography.com,https://andreaengerphotography.com/,596 Juniper Ct,Louisville,CO,80027
https://www.instagram.com/miss_amberb,ChocolateBox Photography,(502) 608-7113,hello@amberbowling.com,https://amberbowling.com/,806 1/2 E Market St,Louisville,KY,40206
https://www.instagram.com/antoniopantojaweddings,Antonio Pantoja Film and Photo,(502) 235-1237,antonio@antoniopantoja.com,http://www.antoniopantoja.com/,1201 Story Ave,Louisville,KY,40206
https://www.instagram.com/tarayoungphotography,Tara Young Photography,(502) 727-3043,tarayoungphotography@gmail.com,http://www.tarayoungphotography.com/,2720 Frankfort Ave #2,Louisville,KY,40206
https://www.instagram.com/rickzimmerman,Zimmerman Photography,(502) 239-2288,rick@zimmermanphotography.com,http://www.zimmermanphotography.com/,7405 Deep Hollow Rd,Louisville,KY,40228
https://www.instagram.com/love_hunters,Love Hunters,(502) 930-1317,info@love-hunters.com,http://love-hunters.com/,1056 Eastern Pkwy,Louisville,KY,40217
https://www.instagram.com/emmaliechristine,GEK Photography,(502) 415-4409,emmaliechristinephotography@gmail.com,http://emmaliechristine.com/,6817 Spring Lawn Ct,Louisville,KY,40291
https://www.instagram.com/bobbiphoto,Bobbi Sheridan Photography,(502) 509-6843,bobbi@bobbiphoto.com,http://www.bobbiphoto.com/,14507 Ashmont Ct,Louisville,KY,40245
https://www.instagram.com/billyagrubbs,Billy Grubbs Photography,(502) 819-2933,billy@billygrubbs.com,http://www.billygrubbs.com/,445 Baxter Ave Suite 125,Louisville,KY,40204
https://www.instagram.com/madisonmariefilms,Madison Marie Film & Photo,(502) 552-0884,madisonmariefilms@gmail.com,https://madisonmariefilms.com/,Breckenridge Ln,Louisville,KY,40220
https://www.instagram.com/wintersphotographyco,Winters Photography Co. Mickie Winters,(502) 494-7983,wintersphotographyco@gmail.com,http://www.mickiewinters.com/,1237 E Burnett Ave,Louisville,KY,40217
https://www.instagram.com/nataliekathrynphoto,Natalie Kathryn Photo,(502) 794-0862,nataliekathrynphoto@gmail.com,http://www.nataliekathrynphoto.com/,105 Highland Ave,Louisville,KY,40245
https://www.instagram.com/michellebordenkircherphoto,Michelle Bordenkircher Photography,(502) 403-0936,michelle@bordenkircherphoto.com,https://michellebordenkircherphoto.com/,,Louisville,KY,40291
https://www.instagram.com/annakahern,Anna K Photography,(859) 801-8149,annakahern@icloud.com,http://www.annakphoto.com/,1201 Story Ave Ste 299,Louisville,KY,40207
https://www.instagram.com/karabarrattphotography/?hl=en,Kara Barratt Photography,(480) 784-7413,karabarrattphotography@gmail.com,http://karabarrattphotography.com/,1479 N Rose Cir,Mesa,AZ,85213
https://www.instagram.com/rena_photodance,Rena Photography,(480) 357-9935,rena@renaphoto.com,https://renaphotography.com/,631 N 100th Pl,Mesa,AZ,85207
https://www.instagram.com/imartinezphoto/,Ivan Martinez Photography,(602) 708-0136,ivan@ivanmartinezphotography.com,https://www.ivanmartinezphotography.com/,165 N Centennial Way Ste 104,Mesa,AZ,85201
https://www.instagram.com/wedding_photo_and_video,Wedding Photo & Video by Liam,(305) 333-6388,liam@weddingphotographybyliam.com,http://www.weddingphotographybyliam.com/,501 SW 24th Ave,Miami,FL,33135
https://www.instagram.com/zoomwedding.studio,Zoom Wedding Studio,(305) 809-8552,zoomweddingstudio@gmail.com,https://zoomweddingstudio.com/,1000 Brickell Ave Ste 715,Miami,FL,33131
https://www.instagram.com/amourlamourproduction,Amour Lamour Production Wedding Photography & Videography,(786) 393-2291,sugarfreestudiomiami@gmail.com,https://www.amourlamour.com/,251 174th St #2214,Miami,FL,33160
https://www.instagram.com/leophotographers,Leo Photographer,(305) 255-1125,leo@leophotographer.com,https://www.leophotographer.com/,900 Biscayne Blvd,Miami,FL,33132
https://www.instagram.com/raysantana,Ray Santana Photography,(305) 431-0219,info@raysantanaphotography.com,http://www.raysantanaphotography.com/,1027 SW 22nd St,Miami,FL,33129
https://www.instagram.com/evanrphotography,Evan Rich Photography,(917) 374-2077,teya@evanrphotography.com,https://evanrphotography.com/,2140 S Dixie Hwy,Miami,FL,33133
https://www.instagram.com/santymartinezphotography,Photography by Santy Martinez,(305) 871-9669,info@santymartinez.com,http://www.santymartinezphotographers.com/,3250 NE 1st Ave Unit 305,Miami,FL,33137
https://www.instagram.com/vanilla_brides,Vanilla Brides,(833) 866-2586,welcome@vanillabrides.com,https://www.vanillabrides.com/,86 SW 8th St,Miami,FL,33130
https://www.instagram.com/jenhadleyphotos,Jennifer Hadley Photography,(305) 854-7375,jenniferhadleyphotography@gmail.com,http://www.jenniferhadleyphotography.com/,2223 SW 13th Ave #91,Miami,FL,33145
https://www.instagram.com/kraftedmemories,Krafted Memories,(786) 451-2710,info@kraftedmemories.com,https://kraftedmemories.com/,3401 N Miami Ave,Miami,FL,33127
https://www.instagram.com/photobyjgarcia,Photo By J. Garcia,(305) 753-4045,contact@photobyjgarcia.com,http://photobyjgarcia.com/,2855 Coral Wy,Miami,FL,33145
https://www.instagram.com/jspstudios,JSPStudio,(561) 750-7006,jonathan@jspstudio.com,http://www.jspstudio.com/,6815 Biscayne Blvd #173,Miami,FL,33138
https://www.instagram.com/bellswhistlesphoto,Bells & Whistles Photography + Videography,(305) 965-4559,info@bellswhistlesphoto.com,https://bellswhistlesphoto.com/,1750 N Bayshore Dr Unit 3006,Miami,FL,33132
https://www.instagram.com/giomorales,Gio Morales Photography,(786) 782-5576,info@giomoralesphotography.com,http://www.giomorales.com/,2851 Leonard Dr,Miami,FL,33160
https://www.instagram.com/andreostudio,Andreo Studio Photo + Cinema,(855) 926-3736,info@andreostudio.com,http://www.andreostudio.com/,Midtown Blvd,Miami,FL,33127
https://www.instagram.com/miamideanphotography,Miami Dean Photography & Design,(305) 527-4949,info@miamidean.com,https://www.miamidean.com/,8607 SW 68th Ct,Miami,FL,33143
https://www.instagram.com/uviedophotography,Uviedo Photography,(786) 450-0562,info@uviedophotography.com,http://www.uviedophotography.com/,2500 NW 79th Ave Suite 294,Miami,FL,33172
https://www.instagram.com/peonylux,Peony Luxe,(833) 338-0368,hello@peonyluxe.com,https://peonyluxe.com/,45 SW 9th St Apt 2509,Miami,FL,33130
https://www.instagram.com/fortunamiami,Fortuna Event Miami Wedding planner,(305) 321-6022,bobbiec@fortunaeventsmiami.com,https://www.fortunaeventsmiami.com/,19610 SW 115th Ave,Miami,FL,33157
https://www.instagram.com/michellegonzalezphoto,Michelle Gonzalez Photography,(239) 898-8717,michellegonzalezphotos@gmail.com,http://www.michellegonzalezphotos.com/,4674 NW 97th Ct #98,Miami,FL,33178
https://www.instagram.com/limaphoto,Brian Lima Photography,(619) 944-5742,brianlimaphoto@gmail.com,https://www.brianlima.co/,23 View Ave,Middletown,Ri,2842
https://www.instagram.com/hylermedia,Milwaukee Wedding Photo,(414) 731-0701,chris@hylermedia.com,http://www.hylermedia.com/,3720 N Fratney St,Milwaukee,WI,53212
https://www.instagram.com/eventstoat,Heather Cook Elliott Photography,(414) 944-1475,heathercookelliott@me.com,http://www.heathercookelliott.com/,207 E Buffalo St #302,Milwaukee,WI,53202
https://www.instagram.com/5thfineart,Steph Kadlicko,(262) 505-2121,steph@5thphotography.com,http://www.stephkad.com/,1726 N 1st St UNIT 704,Milwaukee,WI,53212
https://www.instagram.com/mattandsarahhaas,Matt Haas Photography,(414) 534-5855,matthaasphotography@gmail.com,http://www.matthaasphotography.com/,2961 N Hackett Ave #2,Milwaukee,WI,53211
https://www.instagram.com/theuttkes,Uttke Photography & Design,(414) 982-5068,tj@tjuttke.com,http://www.tjuttke.com/,4209 S Howell Ave,Milwaukee,WI,53207
https://www.instagram.com/bokeheffectphotography,Bokeh Effect LLC,(414) 982-5553,info@bokeheffect.com,https://bokeheffect.com/,1314 S 1st St # 237,Milwaukee,WI,53204
https://www.instagram.com/thepaperelephant,The Paper Elephant,(262) 923-8343,info@thepaperelephant.com,http://www.thepaperelephant.com/,131 W Seeboth St Suite 320,Milwaukee,WI,53204
https://www.instagram.com/lomccarville,Aperture Visual Arts Group,(262) 339-7592,hello@lomccarville.com,http://www.lomccarville.com/,4027 N Newhall St,Milwaukee,WI,53212
https://www.instagram.com/mattbigskyphoto,Big Sky Photo,(414) 617-3834,matt@bigskyphoto.com,http://bigskyphoto.com/,230 E Norwich St,Milwaukee,WI,53207
https://www.instagram.com/betcher_photo,Betcher Photo,(414) 522-1552,patrick@betcherphoto.com,http://betcherphoto.com/,824 E Kensington Blvd,Milwaukee,WI,53211
https://www.instagram.com/front_room_studios,Front Room Photography,(414) 294-0080,"creative@frphoto.com,info@frphoto.com,anne@frphoto.com",https://frphoto.com/,2637 S Kinnickinnic Ave,Milwaukee,WI,53207
https://www.instagram.com/gloss_by_jaci_ruben,Gloss Photography Studios,(312) 226-9890,info@glossphotographystudios.com,https://www.glossphotographystudios.com/Web-Pages/Gloss-Locations,207 E Buffalo St,Milwaukee,WI,53202-3625
www.instagram.com/irisboudoir,Iris Boudoir,(773) 263-0782,hello@irisboudoir.com,https://irisboudoir.com/,225 E St Paul Ave Ste 200,Milwaukee,WI,
https://www.instagram.com/simplyfinnphoto/,Simply Finn,(262) 346-1138,contact@simplyfinn.com,https://simplyfinn.com/,1433 N Water St Ste 400,Milwaukee,WI,53202
https://www.instagram.com/jamierobargephotography/,Jamie Robarge Photography,(414) 708-1999,jamie@jamierobarge.com,https://www.jamierobarge.com/,2018 S 1st St Ste 318,Milwaukee,WI,53207
https://www.instagram.com/refinerymke,The Refinery Photo Studio,(414) 350-8943,jessica@refinerymke.com,http://www.refinerymke.com/,229 E Wisconsin Ave,Milwaukee,WI,53202-4204
https://www.instagram.com/katiengardner/,"love, katie photography, llc",(262) 527-2280,katie@lovekatiephotography.com,https://lovekatiephotography.com/,225 E St Paul Ave Ste 405,Milwaukee,Wi,53202
https://www.instagram.com/amandaevans.photography/,Amanda Evans Photography,(414) 336-0581,hello@theamandaevans.com,http://theamandaevans.com/,2625 S Greeley St,Milwaukee,WI,53207
https://www.instagram.com/brovadoweddings,Brovado Wedding Photography,(612) 242-8655,info@brovadoweddings.com,http://www.brovadoweddings.com/,2409 Lyndale Ave S,Minneapolis,MN,55405
https://www.instagram.com/erinjohnsonphoto,Erin Johnson Photography,(612) 529-9792,erinjohnsonphotography@gmail.com,http://www.erinjohnsonphoto.com/,1330 Quincy St NE,Minneapolis,MN,55413
https://www.instagram.com/jmphotographymn,JM Photography LLC,(612) 730-7368,j@jmphotomn.com,http://www.jmphotomn.com/,1618 Central Ave NE #135,Minneapolis,MN,55413
https://www.instagram.com/rivetsandroses,Rivets and Roses Photography,(651) 494-2257,ben@rivetsandroses.com,http://www.rivetsandroses.com/,1618 Central Ave NE STE 214,Minneapolis,MN,55413
https://www.instagram.com/poiemampls,POIEMA,(763) 913-1079,izzi@poiemampls.com,http://poiemampls.com/,515 15th Ave S #227,Minneapolis,MN,55454
https://www.instagram.com/emilytheisenphoto,Emily Theisen Photography,(763) 442-5340,emily@theisenphotography.com,http://emilytheisenphotography.com/,1330 Quincy St NE,Minneapolis,MN,55413
https://www.instagram.com/eileenkphoto,Eileen K. Photography,(763) 234-9218,eileen@eileenkphoto.com,http://www.eileenkphoto.com/,3857 3rd Ave S,Minneapolis,MN,55409
https://www.instagram.com/thejenocollective,The Jeno Collective,(515) 310-0422,thejenocollective@gmail.com,http://www.thejenocollective.com/,113 E 26th St,Minneapolis,MN,55404
https://www.instagram.com/weregoodcompany,Lafhaj Studios,(763) 439-9683,info@weregoodcompany.com,http://weregoodcompany.com/,77 13th Ave NE,Minneapolis,MN,55413
https://www.instagram.com/pennyphotographics,Penny Photographics,(612) 710-9415,penny@pennyphotographics.com,http://www.pennyphotographics.com/,4234 Tyler St NE,Minneapolis,MN,55421
https://www.instagram.com/alyssalundphoto,Alyssa Lund Photography,(763) 843-2541,info@alyssalundphotography.com,http://www.alyssalundphotography.com/,2751 Hennepin Ave,Minneapolis,MN,55408
https://www.instagram.com/sarascanio,Sarah Ascanio Photography,(425) 949-9618,sarahascaniophoto@gmail.com,http://www.sarahascanio.com/,2833 42nd Ave S,Minneapolis,MN,55406
https://www.instagram.com/lenalakomaphoto,Lena Lakoma Photography,(646) 823-5412,info@lenalakoma.com,http://www.lenalakoma.com/,2224 Central Ave NE,Minneapolis,MN,55418
https://www.instagram.com/lizbanfieldwed,Liz Banfield Photography,(612) 991-4606,lizbanfield@hotmail.com,http://lizbanfield.com/,4801 Grand Ave S,Minneapolis,MN,55419
https://www.instagram.com/noemiphotograph,Noemi Photography LLC,(952) 201-2943,noemi@noemiphotography.com,http://www.noemiphotography.com/,3109 W 50th St,Minneapolis,MN,55410
https://www.instagram.com/emilysphotographymn,Emily’s Photography,(347) 751-3455,em.brave96@gmail.com,https://www.emilysphotography.blog/,816 Portland Ave #1601,Minneapolis,MN,55404
https://www.instagram.com/nashvilleweddingcollection,Nashville Wedding Collection,(615) 800-7757,info@nashvilleweddingcollection.com,http://www.nashvilleweddingcollection.com/,1418 Church St,Nashville,TN,37203
https://www.instagram.com/wtrfilms,With This Ring Wedding Films + Photo,(615) 828-3669,brian@withthisringvideo.com,http://www.withthisringvideo.com/,434 Houston St #250,Nashville,TN,37203
https://www.instagram.com/laurakallenphoto,Laura K. Allen Photography & Design,(440) 590-0808,laura@laurakallenphoto.com,http://www.laurakallenphoto.com/,826 Porter Rd,Nashville,TN,37206
https://www.instagram.com/justinwrightphoto,Justin Wright Photography,(615) 414-5137,justinwrightphoto@gmail.com,http://www.justinwrightphoto.com/,338 46th Ave N,Nashville,TN,37209
https://www.instagram.com/jayfarrellphotography,Jay Farrell Photography,(615) 812-9737,jay@jayfarrellphotography.com,http://www.jayfarrellphotography.com/,4307 Burrus St,Nashville,TN,37216
https://www.instagram.com/graykammera,Gray Kammera Photography,(615) 618-7967,leah@graykammera.com,http://www.graykammera.com/,1302 Stratton Ave,Nashville,TN,37206
https://www.instagram.com/whitneywoodall_photography,Whitney Woodall Photography,(615) 669-4402,whitney@whitneywoodall.com,http://www.whitneywoodall.com/,3103 Laurel Forest Dr,Nashville,TN,37214
https://www.instagram.com/sarabill.photography,Sara Bill Photography,(414) 939-3566,sarabillphoto@gmail.com,http://www.sarabillphotography.com/,1210 7th Ave N,Nashville,TN,37208
https://www.instagram.com/jianataylor,Jiana Taylor Photography,(917) 673-6004,leelou@studioleelou.com,http://www.jianataylor.com/,2934 Sidco Dr,Nashville,TN,37204
https://www.instagram.com/brinicolephotoco,Bri Nicole Photo Co.,(615) 689-8695,hello@brinicolephotoco.com,http://www.brinicolephotoco.com/,500 Raymond St,Nashville,TN,37211
https://www.instagram.com/swwsphotography?igsh=ztr3mhe5a3vpetr1,Pretty Nerdy Photography,(617) 817-0308,swwsphotography@gmail.com,https://www.swwsphotography.com/,127 W Rodney French Blvd,New Bedford,MA,2744
https://www.instagram.com/danilasphotography,Danila and Lanas Wedding Photo & Video,(646) 541-7938,danilamednikov@gmail.com,http://danilamednikov.com/,186 Prince St,New York,NY,10012
https://www.instagram.com/modernweddingphotography,Modern Wedding Photography,(212) 332-9695,denise@modwedphoto.com,http://www.modernweddingphotography.tv/,175 Varick St,New York,NY,10014
https://www.instagram.com/kravetsphotography,Kravets Wedding Photography,(347) 875-2064,kravetsphotography@gmail.com,https://www.kravetsphotography.com/,123 Washington St #50F,New York,NY,10006
https://www.instagram.com/kissmeinnewyork,Kiss Me in New York Wedding Photography,(917) 513-4350,contact@kissinnyc.com,https://kissinnyc.com/,244 5th Ave c296,New York,NY,10001
https://www.instagram.com/seangallery,Sean Gallery Wedding Photography,(646) 275-0415,seangallery@gmail.com,http://www.seangallery.com/,1123 Broadway,New York,NY,10010
https://www.instagram.com/fortheloversphoto,For the Lovers — Wedding Photography,(347) 623-2253,hello@fortheloversphoto.com,http://fortheloversphoto.com/,433 Amsterdam Ave,New York,NY,10024
https://www.instagram.com/symboll,Symboll® Wedding Photography and Videography New York,(323) 348-0042,hello@symboll.com,http://symboll.com/,101 Ave of the Americas FL 9,New York,NY,10013
https://www.instagram.com/alexeykuznetsov_com,APV wedding,(347) 425-5851,ak@alexphotovideo.com,http://www.alexphotovideo.com/,175 E 96th St apt 18p,New York,NY,10128
https://www.instagram.com/iconicweddings,The Iconic Wedding Photo & Video,(929) 595-2047,theiconicweddings@gmail.com,https://theiconicweddings.com/,626 1st Ave,New York,NY,10016
https://www.instagram.com/everlystudios,Everly Studios - NYC Elopement Packages,(201) 565-2212,jocelyn@everlystudios.com,https://www.everlystudios.com/nyc-elopement-packages-photography/,141 Worth St,New York,NY,10013
https://www.instagram.com/joelinny,Joseph Lin Photography,(347) 724-6259,joe@jlinphotography.com,https://jlinphotography.com/,6 St Johns Ln 5th floor,New York,NY,10013
https://www.instagram.com/matthew_sowa_photography,Matthew Sowa Photography,(917) 488-1989,info@matthewsowaphoto.com,https://www.matthewsowaphotography.com/,265 Canal St Suite 206,New York,NY,10013
https://www.instagram.com/cathyselegantevents,Beth Keiser Photography,(646) 275-6524,cathyselegantevents@gmail.com,http://www.cathyselegantevents.com/,373 Broadway,New York,NY,10013
https://www.instagram.com/sashachouphotography,Sasha Chou Photography,(347) 788-2392,sashachouphotography@gmail.com,https://www.sashachouphotography.com/,477 FDR Dr m902,New York,NY,10002
https://www.instagram.com/jennyfustudio,Jenny Fu Studio,(914) 315-9777,jenny@jennyfu.com,https://www.jennyfu.com/,379 Madison St,New York,NY,10002
https://www.instagram.com/tati_and_roman,Tati and Roman Photography,(646) 321-5264,tatiandroman@gmail.com,http://tati-and-roman.com/,15 White St,New York,NY,10013
https://www.instagram.com/iralippkestudios,Ira Lippke Studios,(212) 620-3900,hello@iralippkestudios.com,http://www.iralippkestudios.com/,6 St Johns Ln,New York,NY,10013
https://www.instagram.com/artlook_us,Art Looks,(929) 260-0045,email@artlook.us,http://www.artlook.us/,49 W 11th St #10,New York,NY,10011
https://www.instagram.com/einphotography,ein photography and design,(646) 838-0033,info@einphoto.com,http://www.einphoto.com/,127 W 30th St 9th floor,New York,NY,10001
https://www.instagram.com/susanshekphotography,Susan Shek Photography,(347) 635-5577,susan@susanshek.com,https://susanshek.com/,401 Park Ave S #10/FL,New York,NY,10016
https://www.instagram.com/emmaclearyphotography,Emma Cleary Photo and Video,(646) 662-7241,emma@emmacleary.com,https://emmacleary.com/,235 East 35th street,New York,NY,10016
https://www.instagram.com/lapkovsky,Sergey Lapkovsky Photography,(917) 442-9447,sergey.lapkovsky@gmail.com,https://lapkovsky.com/,240 Central Park S,New York,NY,10019
https://www.instagram.com/dweissstudio,Danny Weiss Studio,(646) 957-7306,danny@dannyweissphoto.com,http://www.dannyweissphoto.com/,265 Canal St,New York,NY,10013
https://www.instagram.com/nycpartybooth,Chris Chen Studios,(917) 214-7000,info@nycpartybooth.com,http://www.nycpartybooth.com/,12 Monroe St,New York,NY,10002
https://www.instagram.com/adayofblissphotography,A Day of Bliss Photography Inc.,(212) 724-1790,adayofbliss@me.com,http://adayofbliss.com/,307 W 38th St Studio 1418,New York,NY,10018
https://www.instagram.com/kimberlycoccagniaweddings,Kimberly Coccagnia Photography,(845) 243-0299,bookings@kimberlycoccagnia.com,http://www.kimberlycoccagnia.com/,447 Broadway 2nd Floor #117,New York,NY,10013
https://www.instagram.com/priyancaraophotography,Priyanca Rao Photography LLC,(862) 252-5665,priyancaphotography@gmail.com,http://www.priyanca.com/,560 3rd Ave,New York,NY,10016
https://www.instagram.com/shanphotographyinc,Shan Photography,(917) 285-9645,info@shanphotography.com,https://www.shanphotography.com/,10 Times Square 3rd Floor,New York,NY,10018
https://www.instagram.com/jamielevinephotography,Jamie Levine Photography,(212) 875-0472,jamie@jamielevinephotography.com,http://www.jamielevinephotography.com/,110 W 20th St,New York,NY,10011
https://www.instagram.com/4eyesphotography,4 Eyes Photography,(917) 817-9741,kelliewalshphoto@gmail.com,http://www.4eyesphotography.com/,48 W 21st St,New York,NY,10010
https://www.instagram.com/caseyfphoto,Casey Fatchett Photography,(973) 913-5879,photo@fatchett.com,https://www.fatchett.com/,1123 Broadway,New York,NY,10013
https://www.instagram.com/getstak,STAK Studios,(718) 908-6753,steven@getstak.com,http://www.getstak.com/,32 Union Square E,New York,NY,10003
https://www.instagram.com/weddingsbyjustin,Photo De Ning,(732) 675-9442,justin@justinhophotography.com,http://weddingsbyjustin.com/,125 W 31st St,New York,NY,10001
https://www.instagram.com/candlelightstudio,CandleLight Studio,(917) 304-9878,surinder@candlelightstudio.com,https://candlelightstudio.com/,909 3rd Ave # 6323,New York,NY,10150
https://www.instagram.com/karenhillweddings,Karen Hill Photography LLC,(174) 837-1011,hill@karenhill.com,http://www.karenhill.com/,510 5th Ave fl 3,New York,NY,10036
https://www.instagram.com/llstylephoto,L&L Style Photo,(917) 719-6402,info@llstylephoto.com,https://llstylephoto.com/,225 E 47th St,New York,NY,10017
https://www.instagram.com/readyluck,READYLUCK,(347) 384-7313,us@readyluck.com,https://readyluck.com/,119 Washington Pl C,New York,NY,10014
https://www.instagram.com/sarawightweddings,Sara Wight Photography,(646) 591-8039,studio@sarawightphotography.com,http://sarawightphotography.com/,481 8th Ave Suite 1143,New York,NY,10001
https://www.instagram.com/amilsteinphoto,Amy Milstein Photography Ltd,(646) 339-3336,amy@amymilstein.com,https://www.amymilstein.com/,142 W End Ave,New York,NY,10023
https://www.instagram.com/anecdote.photography,Anecdote Photography,(646) 395-0033,edu@anecdotephoto.com,http://anecdote.photography/,477 Madison Ave 6th floor,New York,NY,10022
https://www.instagram.com/cdugganphoto,Christopher Duggan Photography,(347) 762-3849,studio@christopherduggan.com,http://www.christopherduggan.com/,245 W 55th St,New York,NY,10019
https://www.instagram.com/ashergardner_,Asher Gardner Photography,(760) 985-2421,asher@ashergardner.com,http://ashergardner.com/,440 E 81st St,New York,NY,10028
https://www.instagram.com/angelicaradwayphotography,Angelica Radway Photography - NYC Elopement Photographer,(347) 762-0343,angelicaradway88@gmail.com,http://www.angelicaradway.com/,321 E 60th St,New York,NY,10022
https://www.instagram.com/mariann_nyc,Mariann Szucs Photography,(917) 439-0348,bluedaisyweddings@gmail.com,http://www.bluedaisyweddings.com/,370 E 76th St,New York,NY,10021
https://www.instagram.com/rhamlinphoto,Raymond Hamlin Photography,(917) 853-9946,raymond@raymondhamlinphotography.com,https://www.raymondhamlinphotography.com/,80 Riverside Blvd,New York,NY,10069
https://www.instagram.com/laurierhodesphotographer,Laurie Rhodes Photographer,(646) 734-2591,laurie@laurierhodes.com,https://www.laurierhodes.com/,70 La Salle St,New York,NY,10027
https://www.instagram.com/lh_photography.film,LH Photography &amp; Film,(917) 497-6865,lilian@lhweddingphotography.com,http://lhweddingphotography.com/,160 Varick St,New York,NY,10013
https://www.instagram.com/jclemonphoto,JC Lemon Photography,(917) 336-9672,sayhi@jclemon.com,https://jclemon.com/,325 W 38th St Suite 1101X,New York,NY,10018
https://www.instagram.com/cinderandco,Cinder and Co,(650) 862-1140,cinderandcoinfo@gmail.com,http://www.cinderandco.com/,609 E 11th St,New York,NY,10009
https://www.instagram.com/alexknightstudio,Alex Knight Studio,(212) 381-0834,info@alexknightstudio.com,https://alexknightstudio.com/,1250 Broadway #3601,New York,NY,10001
https://www.instagram.com/naturalexpressionsny,Natural Expressions NY,(212) 616-5008,info@naturalexpressionsny.com,http://www.naturalexpressionsny.com/,475 Park Ave S,New York,NY,10016
https://www.instagram.com/wanderingwoo,Wandering Woo Photography,(112) 630-6112,paul@wanderingwoo.com,http://www.wanderingwoo.com/,306 W 112th St #6B,New York,NY,10026
https://www.instagram.com/mansistudios,Mansi Studios,(918) 219-7447,chadi@mansistudios.com,http://www.mansistudios.com/,222 E 93rd St,New York,NY,10128
https://www.instagram.com/claudiaoliverphoto,Claudia Oliver Photography Studio,(917) 813-7173,clau@claudiaoliver.com,http://www.claudiaoliver.com/,57 W 57th St Fl 4 Ste 101,New York,NY,10019
https://www.instagram.com/ivash_photography,IVASH Studio,(347) 241-4259,ivashv@gmail.com,http://ivashstudio.com/,32 W 33rd St,New York,NY,10001
https://www.instagram.com/windauphotography,Jörg Windau Photography,(212) 781-8178,jorg@windauphotography.com,https://www.windauphotography.com/,307 W 38th St,New York,NY,10018
https://www.instagram.com/laurenspinelliphoto,Lauren Spinelli | NJ & NYC Photographer,(914) 629-3217,hello@laurenspinelli.com,http://www.laurenspinelli.com/,300 E 91st St,New York,NY,10128
https://www.instagram.com/anthonyvazquezphotography,Anthony Vazquez Photography,(212) 920-6082,info@anthonyvazquez.com,http://www.anthonyvazquez.com/,330 W 38th St Suite 508,New York,NY,10018
https://www.instagram.com/pairwedco,PairWed Co.,(718) 569-8552,janelle@pairwed.com,http://www.pairwed.com/,99 Wall St #1662,New York,NY,10005
https://www.instagram.com/salwaphotography,Salwa Photography,(347) 744-8683,contact@salwaphotography.com,http://www.salwaphotography.com/,54 W 40th St,New York,NY,10018
https://www.instagram.com/clanegessel,Clane Gessel Photography,(212) 991-8573,clane@clanegessel.com,http://www.clanegessel.com/,610 W 42nd St,New York,NY,10036
https://www.instagram.com/georgiasheridanphoto,Georgia Sheridan Photography,(334) 531-0265,georgiasheridanphoto@gmail.com,http://georgiasheridanphotography.com/,307 E 89th St,New York,NY,10128
https://www.instagram.com/thegreensphoto,The Greens Photo,(850) 503-0384,epic@thegreensphoto.com,https://thegreensphoto.com/,274 W 115th St,New York,NY,10026
https://www.instagram.com/kellyprizelphoto,Kelly Prizel Photography,(203) 513-9377,kelly@kellyprizel.com,https://www.kellyprizel.com/,160 Riverside Dr Apt 7a,New York,NY,10024
https://www.instagram.com/lindsayblairphotography,Lindsay Blair Photography,(503) 869-2064,lindsay.naff@gmail.com,http://www.lindsayblairphotography.com/,69 Mercer St,New York,NY,10012
https://www.instagram.com/bentsophoto,Ben Tso Photography,(917) 312-3368,bentsophoto@gmail.com,http://www.bentsophoto.com/,80 Prince St,New York,NY,10012
https://www.instagram.com/alinadelfino,Alina Delfino Photography,(929) 575-1000,alinadelfino.photo@gmail.com,https://alinadelfinowedding.com/,1216 Broadway,New York,NY,10001
https://www.instagram.com/alexplusjess,Alex + Jess Photography,(203) 513-0242,alexjtrump@gmail.com,http://www.alexplusjess.com/,140 W 71st St,New York,NY,10023
https://instagram.com/hilarybphotography,Hilary B. Photography,(401) 667-7897,info@hilarybphotography.com,https://www.hilarybphotography.com/about,62 Thames St,Newport,RI,2840
https://www.instagram.com/carrierodmanphoto/,Carrie Rodman Photography,(917) 449-7639,info@carrierodmanphoto.com,https://carrierodmanphoto.com/,39 Farewell St,Newport,RI,2840
https://www.instagram.com/p/dhvxiwapugx/,Penny Souza Photography,(401) 808-0422,penny@pennysouzaphotography.com,https://pennysouzaphotography.com/,80 Rhode Island Ave,Newport,RI,2840
https://www.instagram.com/zenobiastudios,Zenobia Photography Studios,(401) 855-4856,hello@zenobiastudios.com,https://www.zenobiastudios.com/,123 Ocean Dr,Newport,Ri,2840
https://www.instagram.com/allanmilloraphotography/,Allan Millora Photography&Associates,(401) 692-8313,info@allanmilloraphotography.com,https://www.allanmilloraphotography.net/,31 Old Beach Rd,Newport,RI,02840-3350
https://www.instagram.com/maddievan_/,Maddie Van LLC,(507) 581-4340,madison@maddievan.com,https://www.maddievan.com/,1 Kyle Ter,Newport,RI,2840
https://www.instagram.com/weddingswithaheart/,Weddings With a Heart,(401) 742-3660,elopetonewport@gmail.com,https://www.weddingswithaheart.com/,58 Washington St Ste 5,Newport,RI,2840
https://www.instagram.com/todortsvetkovphotography/,Todor Tsvetkov photography,(631) 377-0780,todor@todorpho.com,https://www.todorpho.com/,40 Web Ave Unit 21,North Kingstown,RI,2852
https://www.instagram.com/chrisandamanda_photography/,Chris&Amanda Photography&Films,(401) 932-6700,chris@memoriesri.com,https://chrisandamanda.com/,121 Ewing Rd,North Kingstown,RI,02852-2021
https://www.instagram.com/weddingsbyray,Weddings By Ray,(347) 678-2949,info@weddingsbyray.com,http://weddingsbyray.com/,643 Lexington Ave Suite B,Orlando,FL,32801
https://www.instagram.com/annasophotography,Anna So Photography,(407) 719-2159,info@annaso.com,http://www.annaso.com/,1710 Larkin Ave,Orlando,FL,32812
https://www.instagram.com/mistymiottophotography,Misty Miotto Photography,(407) 234-1033,misty@mistymiotto.com,http://www.mistymiotto.com/,636 22nd St,Orlando,FL,32805
https://www.instagram.com/stevenmillerpix,Steven Miller Photography Inc,(407) 504-7314,smiller@stevenmillerpix.com,https://www.stevenmillerpix.com/,3201 Corrine Dr #202,Orlando,FL,32803
https://www.instagram.com/orlandoweddingphotographer,A. Harris Photography,(407) 766-1655,aharrisphotographie@gmail.com,http://aharrisphotography.com/,595 W Church St,Orlando,FL,32805
https://www.instagram.com/casiemariephotography,Casie Marie Photography,(352) 304-2197,hello@casiemariephotography.com,http://www.casiemariephotography.com/,37 N Orange Ave Suite 605,Orlando,FL,32801
https://www.instagram.com/photo_video_events,Photo Video Events,(407) 883-8175,sales@photo-video-events.com,https://photo-video-events.com/,5321 E Colonial Dr suite A,Orlando,FL,32807
https://www.instagram.com/dbatistaphotography,DBatista Photography,(407) 925-8594,info@dbatistaphotos.com,http://www.dbatistaphotos.com/,9460 Delegates Dr #108,Orlando,FL,32837
https://www.instagram.com/dnorwoodphotography,D. Norwood Photography,(407) 801-9355,dnorwoodphotography@gmail.com,http://www.dnorwoodphotography.com/,4290 Conroy Rd #4228,Orlando,FL,32839
https://www.instagram.com/live_happy_studio,Live Happy Studio,(386) 717-9178,kellie@livehappystudio.com,https://livehappystudio.com/,8621 Contoura Dr,Orlando,FL,32810
https://www.instagram.com/fyerflyproductions,Tab McCausland Photography,(407) 810-5273,info@fyerflyproductions.com,https://www.fyerflyproductions.com/,11222 Satellite Blvd,Orlando,FL,32837
https://www.instagram.com/lazzat_photography,Lazzat Photography LLC,(407) 308-5815,lazzat@lazzatphotography.com,https://lazzatphotography.com/,200 E Robinson St Suite 295,Orlando,FL,32503
https://www.instagram.com/digitaldream.studio,Digital Dream Studio,(407) 791-6064,aspana2@gmail.com,https://www.digitaldreamstudio.com/,7802 Kingspointe Pkwy STE 209,Orlando,FL,32819
https://www.instagram.com/jessicajonesphotographs,Kelly Clavijo photography,(407) 580-7351,jessicajonesphotographs@gmail.com,http://www.jessicajonesphotographs.com/,9845 Hidden Dunes Ln,Orlando,FL,32832
https://www.instagram.com/greenery_productions,Greenery Productions Inc,(732) 000-2000,ashleyh@greeneryproductions.com,https://www.greeneryproductions.com/,1751 Directors Row,Orlando,FL,32809
https://www.instagram.com/cptphoto,Concept Photography,(321) 323-4649,cptphotography@gmail.com,http://www.cptphotography.com/,9030 Tavistock Lakes Blvd,Orlando,FL,32827
https://www.instagram.com/artbylightphotography,Art by Light Photography,(407) 205-7287,admin@artbylightphotography.com,http://www.artbylightphotography.com/,1615 N Westmoreland Dr,Orlando,FL,32804
https://www.instagram.com/joannamoorephoto,Joanna Moore Photography,(407) 341-5992,info@joannamoorephotography.com,https://joannamoorephotography.com/,5452 Pitch Pine Dr,Orlando,FL,32819
https://www.instagram.com/danasiles/,Dana Siles Photographer,(401) 726-5479,dana@danasiles.com,https://www.danasiles.com/,163 Exchange Street Studio 302,Pawtucket,RI,2860
https://instagram.com/thismodernromance,M.Studios,(401) 954-0577,info@mstudiosri.com,https://mstudiosri.com/,1005 Main St,Pawtucket,RI,02860-7801
https://www.instagram.com/tiffanyatlasphotography,Atlas Wedding Photography,(917) 204-7021,info@atlasweddingphotography.com,http://atlasweddingphotography.com/,2320 E Norris St,Philadelphia,PA,19125
https://www.instagram.com/solidityfilms,Solidity Films - Wedding Videographer,(302) 256-4920,info@solidityfilms.com,http://www.solidityfilms.com/,4500 Worth St,Philadelphia,PA,19124
https://www.instagram.com/vivalovephoto,Viva Love Photography,(301) 651-5829,info@vivalovephoto.com,http://www.vivalovephoto.com/,1642 S Broad St,Philadelphia,PA,19145
https://www.instagram.com/gingerfoxphotos,Ginger Fox Photography,(215) 828-7149,gingerfoxphoto@gmail.com,http://www.gingerfoxphotography.com/,1220 Buttonwood St,Philadelphia,PA,19123
https://www.instagram.com/angelagasparphotography,Angela Gaspar Photography,(917) 434-8119,angelagasparphotography@gmail.com,https://www.gasparphotography.com/,1909 E Westmoreland St #2G,Philadelphia,PA,19125
https://www.instagram.com/danielfugaciuphoto,Daniel Fugaciu Photography,(267) 603-1611,info@danielweddings.com,http://danielweddings.com/,2823 Agate St,Philadelphia,PA,19134
https://www.instagram.com/anastasia_romanova_photo,Anastasia Romanova Photography,(856) 340-3770,romanovaphotographer@gmail.com,https://www.anastasiaromanova.com/,222B Race St,Philadelphia,PA,19106
https://www.instagram.com/patfureyphoto,Pat Furey Photography,(732) 551-6020,info@patfureyphoto.com,https://www.patfureyphoto.com/,225 Church St,Philadelphia,PA,19106
https://www.instagram.com/studioninephoto,Studio Nine Photography,(434) 758-1616,jonchicot@studionine.com,http://www.studionine.com/,16 N 3rd St,Philadelphia,PA,19106
https://www.instagram.com/daringromantics,Daring Romantics,(301) 275-4881,kristen@daringromantics.com,https://daringromantics.com/,503 Greenwich St,Philadelphia,PA,19147
https://www.instagram.com/sweetwaterportraits,Sweetwater Portraits,(267) 626-9778,julie@sweetwaterportraits.com,http://sweetwaterportraits.com/,1901 S 9th St Rm #523,Philadelphia,PA,19148
https://www.instagram.com/beaumondeoriginals,BeauMonde Originals,(215) 435-1418,martelle@beaumondeoriginals.com,http://www.beaumondeoriginals.com/,3128 N 35th St,Philadelphia,PA,19132
https://www.instagram.com/ryanedaphoto,Ryan Eda Photography,(267) 603-1016,ryan@re-photography.com,http://www.re-photography.com/,2424 E York St #237,Philadelphia,PA,19125
https://www.instagram.com/jflynnphoto,J.Flynn Photo,(570) 216-8228,jflynnphoto@gmail.com,https://jflynnphoto.com/,2424 E York St #206,Philadelphia,PA,19125
https://www.instagram.com/foxulee_photography,Foxulee Photography,(215) 806-1945,foxulee@gmail.com,http://www.foxuleephotography.com/,S th St,Philadelphia,PA,19104
https://www.instagram.com/daysawaycreative,Days Away Creative,(609) 203-1587,jared@daysawaycreative.com,http://www.daysawaycreative.com/,1901 S 9th St Studio 314,Philadelphia,PA,19148
https://www.instagram.com/heatherfowlerphoto,Heather Fowler Photography,(267) 259-8970,heatherfowler@verizon.net,http://www.heatherfowlerphoto.com/,537 Green Ln,Philadelphia,PA,19128
https://www.instagram.com/lovestruckpictures,Lovestruck Pictures,(215) 990-1624,hello@lovestruckpictures.com,http://www.lovestruckpictures.com/,3502 Scotts Ln,Philadelphia,PA,19129
https://www.instagram.com/elmandvinephoto,Elm and Vine Photo,(215) 859-6794,elm.vinephoto@gmail.com,http://www.elmandvinephoto.com/,2411 Kensington Ave,Philadelphia,PA,19125
https://www.instagram.com/baronephoto,John Barone Photography,(215) 620-4214,info@baronephoto.com,http://www.baronephoto.com/,427 E Mt Airy Ave,Philadelphia,PA,19119
https://www.instagram.com/tjshull,Thomas Shull Photography,(760) 803-9444,hello@thomasshull.com,http://www.thomasshull.com/,349 E Thomas Rd,Phoenix,AZ,85012
https://www.instagram.com/robertgodridgephotofilms,Robert Godridge Photography,(602) 334-5170,robert@robertgodridgephotography.com,http://www.robertgodridgephotography.com/,500 N 9th St,Phoenix,AZ,85006
https://www.instagram.com/fablephotovideo,Fable Photo and Video,(480) 262-9894,info@fablephotoandvideo.com,https://fablephotoandvideo.com/,2942 N 24th St suite 114-548,Phoenix,AZ,85016
https://www.instagram.com/benandkellyphotography,Ben & Kelly Photography,(602) 908-2159,ben@benandkellyphotography.com,http://www.benandkellyphotography.com/,734 W Polk St,Phoenix,AZ,85007
https://www.instagram.com/aaronkes,Aaron Kes Photography,(602) 828-2639,me@aaronkes.com,https://www.aaronkes.com/,E Indianola Ave,Phoenix,AZ,85012
https://www.instagram.com/lovemodwed,ModWed | photo + video,(602) 738-2222,email@modernweddingscenes.com,http://www.modwed.com/,1301 Grand Ave,Phoenix,AZ,85007
https://www.instagram.com/photographyisunique,Photography is unique,(602) 732-0680,photographyisunique@gmail.com,http://www.photographyisunique.com/,2941 W Indian School Rd,Phoenix,AZ,85017
https://www.instagram.com/royalescapeproductions,Royal Escape Productions LLP,(480) 442-3654,repweddings@gmail.com,http://repweddings.com/,1006 W Adams St #102,Phoenix,AZ,85007
https://www.instagram.com/brookklynphoto,Brookklyn Photo,(218) 213-3399,yogabybentley@gmail.com,https://www.brookklyn.com/,515 W Willetta St,Phoenix,AZ,85003
https://www.instagram.com/liasphotography2011,Lias Photography,(602) 503-8019,liasphotography2011@gmail.com,http://www.liasphotography.com/,3314 E Rosemonte Dr,Phoenix,AZ,85050
https://www.instagram.com/bbphotographyaz,BB photography AZ,(602) 626-4790,bbphotographyaz@gmail.com,https://bbphotographyaz.com/,3622 W Malapai Dr,Phoenix,AZ,85051
https://www.instagram.com/photo_art_events,Photo Art & LOLA Quince Dresses,(623) 439-2205,photoartevents@outlook.com,http://www.photoartevents.com/,7611 W Thomas Rd,Phoenix,AZ,85033
https://www.instagram.com/goodeye.photography,Good Eye Photography,(602) 743-4976,goodeyephotographyaz@gmail.com,http://www.goodeyephotographyaz.com/,3201 W Voltaire Ave,Phoenix,AZ,85029
https://www.instagram.com/mayapapayapictures,Maya Papaya Pictures,(623) 208-6512,maya@mayapapayapictures.com,http://www.mayapapayapictures.com/,20250 N 6th Dr,Phoenix,AZ,85027
https://www.instagram.com/inaivanovaphotography,Ina Ivanova Photography,(602) 903-8683,inaphotoz@gmail.com,http://www.inaivanovaphotography.com/,15201 N 25th Dr,Phoenix,AZ,85023
https://www.instagram.com/alioffendum,ali offendum photography,(623) 223-6922,alioffendum@gmail.com,https://www.alioffendum.com/,4134 W Camino Acequia,Phoenix,AZ,85051
https://www.instagram.com/coppercorralphotography,Copper Corral Photography,(602) 363-5517,coppercorralphotos@gmail.com,https://www.coppercorralphotography.com/,7045 N 7th St,Phoenix,AZ,85020
https://www.instagram.com/andrewtatzel,Andrew Tatzel Photo,(928) 897-3775,andrewtatzelphoto@hotmail.com,http://andrewtatzel.com/,4333 N 6th Dr,Phoenix,AZ,85013
https://www.instagram.com/mikeolbinski,Mike Olbinski Photography,(480) 220-1604,mike@mikeolbinski.com,http://www.mikeolbinski.com/,Missouri and N 7th Ave,Phoenix,AZ,85013
https://www.instagram.com/evrimicozphoto,Evrim Icoz Wedding Photography,(503) 341-4762,info@evrimgallery.com,http://www.evrimgallery.com/,723 SE 33rd Ave,Portland,OR,97214
https://www.instagram.com/bryanaulickweddings,Bryan Aulick Wedding Photography,(509) 301-7179,hello@bryanaulick.com,http://www.bryanaulick.com/,2051 NW 29th Ave #2,Portland,OR,97210
https://www.instagram.com/josandtree,Jos & Tree Wedding Photography,(503) 781-1306,bellefetedc@gmail.com,http://www.josandtree.com/,630 NE Killingsworth St #11433,Portland,OR,97227
https://www.instagram.com/kylecarnesphoto,Kyle Carnes Photography Portland Wedding Photographer,(503) 887-1147,photos@kylecarnes.com,http://kylecarnesphotography.com/,1927 NE Saratoga St,Portland,OR,97211
https://www.instagram.com/catherinemarietaylor.co,Catherine Marie Taylor - Wedding and Elopement Photographer Southern California,(360) 271-3252,deusamorinfo@gmail.com,https://catherinemarietaylor.co/,5955 SE Milwaukie Ave Apt 301,Portland,OR,97202
https://www.instagram.com/auburnphotography.us,Auburn Photography/ Destination Wedding Photographer,(530) 570-5739,auburnphotography.us@gmail.com,http://www.auburnphotography.us/,8431 SE 139th Ct,Portland,OR,97236
https://www.instagram.com/seancarrphotography,Sean Carr Photography,(716) 307-9114,sean@seancarrphotography.com,https://www.seancarrphotography.com/,750 SW 9th Ave. #414,Portland,OR,97205
https://www.instagram.com/bethanybloemphoto,Bethany Bloem Photography,(503) 481-2532,austryder@gmail.com,http://www.bethanybloem.com/,3035 SE Hickory St-Division St Alley,Portland,OR,97202
https://www.instagram.com/dylanmhowell,Dylan M Howell Photography,(503) 720-3525,dylan@dylanmhowell.com,https://dylanmhowell.com/,1314 NW Irving St #606,Portland,OR,97209
https://www.instagram.com/christycassano,Christy Cassano Photography,(503) 929-2901,christycassano@gmail.com,https://www.christycassano.com/,950 SW 9th Ave.,Portland,OR,97205
https://www.instagram.com/aralani,Aralani Photography,(503) 539-7299,ara@aralani.com,http://www.aralani.com/,2574 NW Thurman St,Portland,OR,97210
https://www.instagram.com/sightglass_photography,Sightglass Photography,(360) 521-9486,amber@sightglassphoto.com,http://www.sightglassphoto.com/,909 SE 12th Ave #417,Portland,OR,97214
https://www.instagram.com/remembrancephotopdx,Remembrance Photography,(503) 957-7758,remembrancephotography@gmail.com,http://www.remembrancephoto.com/,1535 SE Pine St,Portland,OR,97214
https://www.instagram.com/jessicahillphoto,Jessica Hill Photography,(503) 415-1411,hello@jessicahillphotography.com,https://jessicahillphotography.com/,3103 N Mississippi Ave,Portland,OR,97227
https://www.instagram.com/thesaramay,Sara May Photography,(503) 592-0022,info@saramayphotography.com,https://saramayphotography.com/,818 SW 3rd Ave #380,Portland,OR,97204
https://www.instagram.com/laurenmilesphoto,Lauren Miles Photo,(818) 590-9581,laurenmilesphoto@gmail.com,http://www.laurenmilesphoto.com/,NE 12th Ave,Portland,OR,97212
https://www.instagram.com/photographybycambrae,Photography by Cambrae,(503) 706-0130,thepdxdjs@gmail.com,http://photographybycambrae.com/,3357 SE 8th Ave,Portland,OR,97202
https://www.instagram.com/kateamesphoto,Kate Ames Photography,(860) 617-4422,hello@kateamesphotography.com,http://www.kateamesphotography.com/,SE 38th Ave,Portland,OR,97214
https://www.instagram.com/borrowednblue,Kim Smith-Miller,(503) 208-5546,whatsup@kimsmithmiller.com,https://www.kimsmithmiller.com/,9 NE 31st Ave,Portland,OR,97232
https://www.instagram.com/awakephotoco,Awake Photo Co,(541) 971-6292,hello@awakephotoco.com,https://www.awakephotoco.com/,31 NW 22nd Pl,Portland,OR,97210
https://www.instagram.com/nicolegesmondiphotollc/,"Nicole Gesmondi Photographer, LLC",(401) 889-3686,nicole@nicolegesmondi.com,https://www.nicolegesmondi.com/,35 Baker St,Providence,RI,2905
https://www.instagram.com/smithbrad,Brad Smith Photography,(401) 484-0010,brad@smithbrad.com,http://www.smithbrad.com/,405 Wickenden St,Providence,RI,2903
https://www.instagram.com/jamiecorbmanphotography,Jamie Corbman Photography,(215) 528-0090,jamiecphoto@gmail.com,https://www.jamiecphoto.com/,161 Taber Ave,Providence,RI,2906
https://www.instagram.com/ephemeradesigns,Ephemera Designs - Photography and Floral Design,(401) 648-2854,hello.ephemera@gmail.com,http://ephemeradesigns.com/,305 Dudley St,Providence,RI,2907
https://www.instagram.com/mattferraraphotography,Matt Ferrara Photography,(401) 330-6405,matt@mattferraraphotography.com,http://www.mattferraraphotography.com/,150 Union St #605,Providence,RI,2903
https://www.instagram.com/melissastimpson,Melissa Stimpson Photography,(413) 883-2464,melissa@melissastimpson.com,http://www.melissastimpson.com/,18 Braman St,Providence,RI,2906
https://www.instagram.com/neilanmedia,Neilan Media,(508) 431-7199,mike@mikeneilan.com,http://neilanmedia.com/,19 Bassett St Suite 210,Providence,RI,2903
https://www.instagram.com/frank.boucher,Francis Boucher Photography,(508) 847-5879,frankbphoto@gmail.com,http://www.francisboucher.com/,1 Broadway,Providence,RI,2909
https://www.instagram.com/portraitsbydia,Photography by Dia,(401) 339-0095,diane@photographybydia.com,http://www.photographybydia.com/,Blaine St,Providence,RI,2904
https://www.instagram.com/piperbrownphoto,Piper Brown Photography,(401) 287-4120,info@piperbrownphotography.com,http://www.piperbrownphotography.com/,2 Charles St Unit #23,Providence,RI,2904
https://www.instagram.com/wildatheartfilms,The Wild at Heart,(401) 616-4500,hello@thewildatheart.co,http://thewildatheart.co/,225 Dyer St,Providence,RI,2903
https://www.instagram.com/marilialimaphotography,Marilia Lima Photography,(508) 840-5151,hello@itsmarilialima.com,http://www.marilialima.photography/,10 Dorrance St Suite 700,Providence,RI,2903
https://www.instagram.com/nicolegesmondiphotollc/,"Nicole Gesmondi Photographer, LLC",(401) 889-3686,nicole@nicolegesmondi.com,https://www.nicolegesmondi.com/,35 Baker St,Providence,RI,2905
https://instagram.com/meaganemilia,Meagan Emilia Photography,(802) 578-4240,meagan@meaganemilia.com,https://www.meaganemilia.com/,Broadway St,Providence,Ri,2909
https://www.instagram.com/trevorholdenphotography/,Trevor Holden Photography,(401) 290-7041,trevholden@gmail.com,https://trevorholden.com/,145 Ivy St,Providence,Ri,2906
https://www.instagram.com/davidmooreweddings,David Moore Weddings,(252) 526-8132,david@davidmooreweddings.com,http://www.davidmooreweddings.com/,4324 Glen Erin Way,Raleigh,NC,27613
https://www.instagram.com/joepaynephoto,Joe Payne Photography,(919) 397-4889,joe@joesphoto.com,https://www.joepayneweddingphotography.com/,509 W North St,Raleigh,NC,27603
https://www.instagram.com/azul_photography,Azul Photography,(919) 270-4310,info@azulphotography.com,http://www.azulphotography.com/,851 Washington St,Raleigh,NC,27605
https://www.instagram.com/ginnycorbett,Ginny Corbett Photography,(919) 792-8625,ginny@ginnycorbettphotography.com,http://ginnycorbettphotography.com/,5352 Silver Moon Ln,Raleigh,NC,27606
https://www.instagram.com/aharrisonphoto,Autumn Harrison Photography,(919) 824-4848,autumn@autumnharrison.com,http://www.autumnharrison.com/,6911 Staghorn Ln,Raleigh,NC,27615
https://www.instagram.com/kstarsphotography,K Stars Photography,(337) 550-4445,kstarsphoto@gmail.com,https://www.kstarsphotography.com/,3708 Benson Dr STE 200,Raleigh,NC,27609
https://www.instagram.com/s2sphotography,S2S Photography,(919) 413-5220,filmbuffs08@aol.com,http://www.s2sphotography.com/,5820 Waterford Valley Crescent,Raleigh,NC,27612
https://www.instagram.com/alinebotti_photography,Aline Botti Photography,(919) 302-7628,alinelind1992@hotmail.com,https://www.alinebottiphotography.com/,9906 Wasser Ct,Raleigh,NC,27617
https://www.instagram.com/lindseycashphotography,Lindsey Cash Photography,(713) 503-7031,lindseycashphoto@gmail.com,http://www.lindsey-cash.com/,5000 Stockton Dr,Raleigh,NC,27606
https://www.instagram.com/michelleelysephoto,Michelle Elyse Photography,(630) 373-3001,photosbyhartman@gmail.com,https://michelleelysephotography.com/,1304 Hoke Landing Ln,Raleigh,NC,27603
https://www.instagram.com/kivusandcamera,Kivus & Camera | Photographers,(919) 937-2742,info@kivusandcamera.com,https://kivusandcamera.com/,618 N Boylan Ave STE 930,Raleigh,NC,27603
https://www.instagram.com/mollinerphotography,MOLLINER PHOTOGRAPHY,(561) 320-7582,info@mollinerphotography.com,http://www.mollinerphotography.com/,2100 Lake Dam Rd,Raleigh,NC,27606
https://www.instagram.com/101_studio_llc,101 Studio llc,(919) 264-0803,info@101studiollc.com,http://www.101studiollc.com/,9017 Erinsbrook Dr,Raleigh,NC,27617
https://www.instagram.com/bb__photographyy,BB Photography,(301) 956-4721,olubarnabas@gmail.com,https://mybbphotography.com/,Glenwood Ave,Raleigh,NC,27612
https://www.instagram.com/davidhowellphotos,David Howell Photography,(252) 903-6897,david@davidhowellphotos.com,https://www.davidhowellphotos.com/,3601 Brinkley Dr,Raleigh,NC,27604
https://www.instagram.com/hannahrosserphotography,Hannah Rosser Photography,(336) 430-7720,hello@hannahrosser.com,https://www.hannahrosser.com/,4109 Grand Manor Ct,Raleigh,NC,27612
https://www.instagram.com/lomaxkodax,Lomax Photo,(919) 434-5120,tom@lomaxphoto.com,https://www.lomaxphoto.com/,927 W Morgan St,Raleigh,NC,27603
https://www.instagram.com/sethandbethphoto/,Seth and Beth Wedding Photography,(330) 322-8338,info@sethandbeth.com,https://sethandbeth.com/,4816 Brecksville Rd,Richfield,OH,44286
https://www.instagram.com/fusionmomentsme,Fusion Moments Media,(510) 214-3415,biz@fusionmoments.com,http://www.fusionmoments.com/,911 Marina Way S,Richmond,CA,94804
https://www.instagram.com/kellyurbanphotography,Kelly Urban Photography,(713) 857-7062,kelly@kellyurbanphotography.com,http://www.kellyurbanphotography.com/,6726 Nicecrest Dr,Richmond,TX,77407
https://www.instagram.com/nataliejaynephotography,Natalie Jayne Photography,(540) 709-1084,claire@claireduran.com,http://nataliejaynephotography.com/,611 Bainbridge St,Richmond,VA,23224
https://www.instagram.com/palindromecreativeco,Kate Thompson Photography,(540) 293-1484,kate@katethompsonphoto.com,https://katethompsonphoto.com/home,321 Brook Rd,Richmond,VA,23220
https://www.instagram.com/nicolevancephoto,Nicole Vance Photography,(804) 690-0017,nicole@nicolevancephoto.com,http://www.nicolevancephoto.com/,2415 Williamsburg Rd,Richmond,VA,23231
https://www.instagram.com/ariannabellephotography,Arianna Belle Photography,(804) 262-5013,ariannabellephotography@gmail.com,http://ariannabellephotography.com/,1418 Wallace St,Richmond,VA,23220
https://www.instagram.com/capture_weddings,Capture Photography,(804) 677-7477,jenny@jennymcqueenweddings.com,http://www.capture-weddings.com/,8019 Cherokee Rd,Richmond,VA,23225
https://www.instagram.com/melissa.desjardins,Melissa Desjardins Photography,(603) 305-1605,booking@makeupbykimnicole.com,http://www.melissadesjardins.com/,2211 Fenton St,Richmond,VA,23231
https://www.instagram.com/marshallarts.photography,Marshall Arts Photography,(804) 339-3256,stacie@marshallarts.photography,https://marshallarts.photography/,5218 Sylvan Rd,Richmond,VA,23225
https://www.instagram.com/emilybartellphoto,Emily Bartell Photography,(804) 874-0848,emily@emilybphoto.net,http://www.emilybphoto.net/,8219 Galway Ln,Richmond,VA,23228
https://www.instagram.com/heatherfrablephoto,Heather Frable Photography,(434) 851-1244,hello@heatherfrablephotography.com,http://www.heatherfrablephotography.com/,1000 Photographers Way,Richmond,VA,23228
https://www.instagram.com/cschmidtphoto,Chelsea Schmidt Photography,(757) 309-5640,brandgloss@cschmidtphoto.com,http://cschmidtphoto.com/,1200 McDonough St Suite 101,Richmond,VA,23224
https://www.instagram.com/lalovelyphotography,LaLovely Photography,(434) 262-2249,infinitelalovely@gmail.com,https://www.lalovelyphotography.com/,2010 Chamberlayne Ave Suite C,Richmond,VA,23222
https://www.instagram.com/danielminphoto,Daniel Min Photography,(804) 363-5671,danielminphotography@gmail.com,http://danielmin.com/,1001 E Main St,Richmond,VA,23219
https://www.instagram.com/hays_sverige/,Hayes&Fisk Photography,(804) 740-9307,mary@hayesandfisk.com,http://hayesandfisk.com/,1003 N Parham Rd,Richmond,VA,23229
https://www.instagram.com/richmondphotobooth/,Richmond PhotoBooth,(804) 396-8119,andrea@804photobooth.com,https://www.804photobooth.com/,508 E Franklin St,Richmond,VA,
https://www.instagram.com/orriegainesphotography/,"Orrie Gaines Photography, LLC.",(804) 308-2778,info@orriegainesphotography.com,https://www.orriegainesphotography.com/,19 East 4th Street Studio 40,Richmond,Va,23224
https://instagram.com/ewisemanphoto,ELIZABETH WISEMAN PHOTOGRAPHY,(865) 335-1070,elizabeth@wisemanphoto.com,http://wisemanphoto.com/,710 N Tucker Blvd Ste 310,Saint Louis,MO,63101
https://www.instagram.com/cbauerphoto,C Bauer Photography,(618) 973-7800,cbauerphotos@gmail.com,http://cbauerphotography.com/,2101 Locust St,Saint Louis,MO,63103
https://www.instagram.com/jenniferkormanphotography/,Jennifer Korman Photography,(973) 945-8314,inquiries@jenniferomanphoto.com,https://www.jenniferkormanphoto.com/,20 S Sarah St,Saint Louis,MO,63108
https://www.instagram.com/stlphotoparty,St. Louis Photo Party,(314) 356-8940,info@stlphotoparty.com,https://stlphotoparty.com/,1523 S 10th St,Saint Louis,MO,63104
https://www.instagram.com/lphotographie/,L Photographie,(314) 265-3786,inquiries@lphotographie.com,https://lphotographie.com/,449 N Euclid Ave Ste 200,Saint Louis,MO,63108
https://www.instagram.com/moosestudio,Moose Studio | California &amp; Utah Wedding Photographers,(909) 568-4379,hello@moosestudio.com,https://moosestudio.com/,,Salt Lake City,UT,84104
https://www.instagram.com/josephorlo,Joseph Orlo Photography,(385) 243-0818,josephamundsen@gmail.com,http://www.josephorlo.com/,225 Reed Ave N,Salt Lake City,UT,84103
https://www.instagram.com/releasethebassethounds,Haley Nord Photography,(435) 840-0468,haleynordphotography@gmail.com,http://www.haleynordphotography.com/,2316 S 600 E,Salt Lake City,UT,84106
https://www.instagram.com/caseyhyer,Casey Hyer Photography,(801) 245-9031,caseyhyer@gmail.com,https://www.caseyhyer.com/,7861 Oakledge Rd,Salt Lake City,UT,84121
https://www.instagram.com/davissmithphoto,Davis Smith Photography,(220) 544-6109,davis@davissmithphoto.com,http://davissmithphoto.com/,249 E S Temple St,Salt Lake City,UT,84111
https://www.instagram.com/photosbygayle,Photos By Gayle,(248) 894-5628,photosbygaylellc@gmail.com,http://photosbygayle.net/,1240 E Stringham Ave,Salt Lake City,UT,84106
https://instagram.com/linandjirsa/,Lin and Jirsa Wedding Photography,(310) 993-5619,contact@linandjirsa.com,https://www.linandjirsa.com/,299 S Main St Floor 1,Salt Lake City,UT,84111
https://instagram.com/dezemberphoto,Dezember Photography,(801) 580-9564,contact@dezemberphoto.com,https://dezemberphoto.com/,423 W 800 S Ste A107,Salt Lake City,UT,84101
https://www.instagram.com/threefifteendesign/,Caili Chung Photography,(801) 913-6162,cailisphotos428@gmail.com,https://cailichung.com/,44 W Broadway,Salt Lake City,UT,84101
https://www.instagram.com/labuervenichphotography,LaBuervenich Photography,(801) 574-7595,labuervenichphotography@gmail.com,https://labuervenichphotography.com/,435 W 400 S Ste 100,Salt Lake City,UT,84101
https://www.instagram.com/barrphoto,Barr Photography,(801) 829-8197,studio@barrphoto.com,https://www.barrphoto.com/,222 S. Main Street  5th Floor,Salt Lake City,UT,84101
https://www.instagram.com/rocky_mountain_photobooth/,Rocky Mountain Photo Booth,(385) 222-7894,hello@rockymountainphotobooth.com,https://www.rockymountainphotobooth.com/,505 W 100 S,Salt Lake City,UT,84101
https://www.instagram.com/schiavonephotography/,Amber Schiavone Photography,(269) 377-2455,amber@schiavonephotography.com,https://www.schiavonephotography.com/,783 Browning Ave,Salt Lake City,UT,84105
https://www.instagram.com/p/cf4q_kuljuq/,Social Light,(801) 671-8622,lucasz@me.com,https://www.sociallightphoto.com/,1841 S 1500 E,Salt Lake City,Ut,84105
https://www.instagram.com/saltlakebride/,Salt Lake Bride,(801) 792-6479,info@saltlakebride.com,https://saltlakebride.com/contact-us/,3149 S State St,Salt Lake City,UT,84115
https://www.instagram.com/leafweddingphotography,Leaf Wedding Photography,(858) 531-9560,info@leafweddingphotography.com,http://www.leafweddingphotography.com/,710 13th St #207,San Diego,CA,92101
https://www.instagram.com/abmphotographysd,ABM Wedding Photography,(949) 463-3038,info@abmfoto.com,https://www.abmweddingphotos.com/,3421 Tripp Ct STE 2,San Diego,CA,92121
https://www.instagram.com/astrayphoto,Astray Photography: San Diego wedding Photographer & San Diego engagement photographer,(951) 282-5732,brittney@astrayphotography.com,https://www.astrayphotography.com/,950 Chalcedony St #1,San Diego,CA,92109
https://www.instagram.com/ness.aral,Ness Aral Wedding Photography,(619) 363-3356,contact@nessaral.com,https://www.nessaral.com/,6542 Reflection Dr,San Diego,CA,92124
https://www.instagram.com/gabrielconover,Marissa Rodriguez Photography,(619) 335-8471,gabrielpconover@me.com,http://www.gabrielconover.com/,Broadway,San Diego,CA,92101
https://www.instagram.com/khoa.photography,Khoa Photography,(858) 519-4588,khoa.virgo@gmail.com,http://www.khoakhoa.com/,2881 Brosnan St,San Diego,CA,92111
https://www.instagram.com/janisfoleyphotography,Janis Foley Photography,(619) 723-7677,janisfoley@gmail.com,https://www.janisfoley.com/,1041 Market St UNIT 323,San Diego,CA,92101
https://www.instagram.com/justicephoto,Justice Photography,(760) 936-7854,sage@justicephoto.com,https://www.justicephoto.com/,4183 Mississippi St,San Diego,CA,92104
https://www.instagram.com/thesinglers,Singler Photography,(619) 917-7754,tiffany@singlerphotography.com,http://www.singlerphotography.com/,22nd and J,San Diego,CA,92102
https://www.instagram.com/jenniferderyphoto,Jennifer Dery Photography,(619) 354-9572,studio@jenniferdery.com,https://jenniferdery.com/,by appointment,San Diego,CA,92102
https://www.instagram.com/paulbarnettphotography,Paul Barnett Photography,(619) 285-1207,paul1@barnettphoto.com,http://barnettphoto.com/,3919 Fourth Ave,San Diego,CA,92103
https://www.instagram.com/kami__lalonde,Kami Olavarria Photography,(425) 829-7129,hello@kamiolavarria.com,http://www.kamiolavarria.com/,2869 Historic Decatur Rd,San Diego,CA,92106
https://www.instagram.com/copper.collective_,The Copper Collective,(619) 795-7700,rachel@copper-collective.com,https://www.copper-collective.com/,4210 Ohio St,San Diego,CA,92104
https://www.instagram.com/bryanmillerphoto,Bryan N Miller Photography,(619) 300-8373,bryan@bmillerweddings.com,http://www.bmillerweddings.com/,302 Washington St #344,San Diego,CA,92103
https://www.instagram.com/harmonyhaftphotography,Harmony Haft Photography,(619) 259-0609,contact@harmonyhaft.com,http://www.harmonyhaft.com/,325 W Washington St Suite 2 #616,San Diego,CA,92103
https://www.instagram.com/adrian.wood,Adrian Wood Photography,(858) 348-4491,hello@adrianwoodphotography.com,http://www.adrianwoodphotography.com/,860 Chalcedony St,San Diego,CA,92109
https://www.instagram.com/fritzharmonphotography,Fritz Harmon Photography,(858) 224-2718,info@fritzharmon.com,https://fritzharmon.com/,8050 Ronson Rd,San Diego,CA,92111
https://www.instagram.com/pauldoudaphotography,Paul Douda Photography,(619) 456-1417,info@pauldoudaphotography.com,http://www.pauldoudaphotography.com/,7423 Rowena St,San Diego,CA,92119
https://www.instagram.com/ianandrewphotography,Ian Andrew Photography,(858) 204-3853,ian@ianandrewphotography.com,https://www.ianandrewphotography.com/,2165 Second Ave,San Diego,CA,92101
https://www.instagram.com/sfcityhall.photographer,San Francisco City Hall Wedding Photographer,(415) 570-4085,cityhallphotographer@gmail.com,https://www.sanfranciscocityhallweddingphotographer.com/,3365 Sacramento St #435,San Francisco,CA,94118
https://www.instagram.com/junshienweddings,Junshien Weddings,(408) 840-3680,hiring@junshien.com,http://www.junshien.com/,548 5th Street (By Appt Only),San Francisco,CA,94107
https://www.instagram.com/iqvideography,IQvideography - San Francisco Wedding Videographer,(415) 606-9791,alex@iqvideography.com,https://www.iqvideography.com/,1941 Noriega St,San Francisco,CA,94122
https://www.instagram.com/tianahunterweddings,Tiana Hunter Weddings,(415) 603-8705,tiana@tianahunterweddings.com,http://tianahunterweddings.com/,111 Park Presidio Blvd,San Francisco,CA,94118
https://www.instagram.com/sfcityhallpics,San Francisco City Hall Wedding Photography,(415) 735-6385,kenmendoza@me.com,https://www.sanfranciscocityhallweddingphotography.com/,100 Pine St Ste. 1250-450,San Francisco,CA,94111
https://www.instagram.com/rachelclarkphotographs,Rachel Clark Photography | Bay Area Wedding Photographer,(669) 256-0641,rachelclarkphotography@gmail.com,https://www.rachelclarkphotography.com/,107 Sagamore St,San Francisco,CA,94112
https://www.instagram.com/liliaphoto,Lilia Photography,(415) 489-0098,cityhall.events@sfgov.org,https://www.liliaphoto.com/,239 8th St,San Francisco,CA,94103
https://www.instagram.com/rachellevinephoto,Rachel Levine Photography,(415) 672-6023,rachellevinephoto@gmail.com,http://www.rachellevinephoto.com/,683 Brannan St #508,San Francisco,CA,94017
https://www.instagram.com/tanarak,Tanarak Photography,(415) 789-6068,me@tanarakphotography.com,https://tanarakphotography.com/,600 S Van Ness Ave,San Francisco,CA,94110
https://www.instagram.com/stillnation_photography,StillNation Photography,(415) 632-7699,info@stillnation.com,http://www.stillnation.com/,4224 California St,San Francisco,CA,94118
https://www.instagram.com/luonglivephotography,luong live photography,(510) 434-8203,luonglivephotography@gmail.com,https://luonglivephotography.com/,55 New Montgomery St,San Francisco,CA,94115
https://www.instagram.com/kolos_ok_production,Kolosok production photography & videography,(754) 801-3193,petrokolosok@gmail.com,https://www.kolosokproduction.com/,300 Folsom St,San Francisco,CA,94105
https://www.instagram.com/mistilayne,Images By Misti Layne,(415) 225-1128,mistilayne@gmail.com,http://www.mistilayne.com/,San Francisco CA 94118,San Francisco,CA,94118
https://www.instagram.com/kindlewoodfilms,Kindlewood Films,(415) 209-5817,info@kindlewoodfilms.com,https://kindlewoodfilms.com/,3202 Buchanan St,San Francisco,CA,94123
https://www.instagram.com/jbjpictures,JBJ Pictures,(415) 860-1489,jb@jbjpictures.com,http://www.jbjpictures.com/,1233 47th Ave,San Francisco,CA,94122
https://www.instagram.com/sfcityhallphotographer,SF City Hall Photographer,(415) 672-6023,1sfcityhallphotographer@gmail.com,http://www.sfcityhallphotographer.com/,564 Clipper St,San Francisco,CA,94114
https://www.instagram.com/janinelicarephotography,Janine Licare Photography,(650) 796-1570,janine@janinelicarephotography.com,http://www.janinelicarephotography.com/,1155 Jones St #309,San Francisco,CA,94109
https://www.instagram.com/quinceyera,Quince Y Era Films & Photography (Quinceañeras & Bodas),(650) 440-0516,quince.era@gmail.com,http://www.quinceyera.com/,75 Broadway #202,San Francisco,CA,94111
https://www.instagram.com/knocktwicephotography,Sarka-Trager Photography,(415) 819-2791,knocktwicephotography@gmail.com,https://knocktwicephotography.com/,68 McCoppin St,San Francisco,CA,94103
https://www.instagram.com/dccl,Lienemann Weddings,(505) 440 5388,david@davidlienemann.com,http://www.lienemannweddings.com/,Cerro Gordo Rd,Santa Fe,NM,87111
https://www.instagram.com/robinparrott2birds,New Mexico Wedding Videos,(505) 552 2506,healing@robinparrott.com,http://www.robinparrott.com/,110 Paseo Nopal,Santa Fe,NM,87507
https://www.instagram.com/danielquatphoto/,Daniel Quat Photography LLC,(505) 982-7474,daniel@danielquatphoto.com,https://danielquatphoto.com/,2882 Trades West Rd,Santa Fe,NM,87507
https://www.instagram.com/santa_fe_photo_studio/,Underexposed Studios,(505) 216-7646,info@underexposedphoto.com,https://underexposedstudios.com/,436 Cerrillos Rd,Santa Fe,NM,87501
https://www.instagram.com/janebernardphoto/,Jane Bernard Photography,(505) 501-3839,j@janebernard.com,http://janebernard.com/,208 Camino Rio,Santa Fe,NM,87501
https://instagram.com/photocreativeworkshops,Photocreative Workshops,(505) 328-5061,photocreativeworkshops@gmail.com,http://www.photocreativeworkshops.com/,513 Del Norte Lane,Santa Fe,NM,87501
https://www.instagram.com/p/dkndyz4optk/,Maura Jane Photography,(505) 310-5385,info@maurajanephotography.com,https://maurajanephotography.com/,4217 Hidden Cricket n/a,Santa Fe,NM,87507
https://www.instagram.com/ashlymccoyphoto,Ashly McCoy-Wedding Photographer,(912) 429-4465,hello@ashlymccoy.com,https://www.ashlymccoy.com/,114 Barnard St Suit 1A,Savannah,GA,31401
https://www.instagram.com/dreamweaverphotos,Dream Weaver Photos,(912) 484-7990,jamie@dreamweaverphotos.com,https://www.dreamweaverphotos.com/,601 Cohen St,Savannah,GA,31401
https://www.instagram.com/vitorlindophotovideo,Vitor Lindo Creative Works,(912) 216-0798,vitorlindophotography@gmail.com,https://vitor-lindo.com/,1918 Howard St,Savannah,GA,31401
https://www.instagram.com/joshmorehouse,Josh Morehouse Photography,(912) 704-7623,hello@joshmorehouse.com,http://www.joshmorehouse.com/,2010 E President St #2320,Savannah,GA,31404
https://www.instagram.com/clairebarrettphoto,Claire Barrett Photography,(310) 560-9252,photoclaire@earthlink.net,http://www.clairebarrett.com/,4642 Cumberland Dr,Savannah,GA,31405
https://www.instagram.com/brittsteppphotography,Britt Stepp Photography,(952) 334-8181,brittanybstepp@gmail.com,https://www.brittstepp.com/,1522 Trafford Ln,Savannah,GA,31410
https://www.instagram.com/artistcharlesmaring,Maring Fine Art,(203) 537-1509,charles@maringvisuals.com,https://www.charlesmaring.com/,701 Montgomery St Suite 405,Savannah,GA,31401
https://www.instagram.com/wenmcnally,Lotus Bee & Co.,(912) 657-5218,wen@wenmcnally.com,http://wenmcnally.com/,135 Hunter Ln,Savannah,GA,31405
https://www.instagram.com/erikrevillsphotography,ERIK REVILLS PHOTOGRAPHY,(404) 281-4883,erikrevillsphotographybookings@gmail.com,https://www.erikrevillsphotography.com/,2 W Gaston St,Savannah,GA,31419
https://www.instagram.com/loveanneliesephoto,Love Anneliese Photography,(912) 777-8694,photography@loveanneliese.com,http://www.loveanneliese.com/,2344 Ranchland Dr,Savannah,GA,31404
https://www.instagram.com/coastalchicstudios,Coastal Chic Studios,(912) 321-1031,coastalchicstudios@gmail.com,https://www.coastalchicstudios.com/,Drayton St. & Whitaker St,Savannah,GA,31402
https://www.instagram.com/sarawaterman_stagram,Sara Waterman Photography,(480) 326-2755,watermansara@gmail.com,https://sarawatermanphotography.com/,17775 N 92nd Way,Scottsale,AZ,85255
https://www.instagram.com/p/c-xp0ebje3j/,Lovelee Photography,(480) 612-3812,hello@loveleephotos.com,https://www.loveleephotos.com/,18525 N Scottsdale Rd,Scottsdale,AZ,85255
https://www.instagram.com/crossroads_photography_az/,"Crossroads Del Sol Photography, Llc",(928) 458-5147,corey@azcrossroads.com,https://www.azcrossroads.com/,4225 N Craftsman Ct,Scottsdale,Az,85251
https://www.instagram.com/signatureweddingphotos/,Signature Wedding Photography,(480) 299-8664,info@signatureweddingphotography.com,https://signatureweddingphotography.com/,14555 N Scottsdale Rd #320,Scottsdale,AZ,85254
https://www.instagram.com/picamandae,Amanda E Photography,(517) 877-2282,amanda@picamanda.com,https://picamanda.com/,3114 N 66th St,Scottsdale,AZ,85251-6723
https://www.instagram.com/duane.furlong.studios/,Duane Furlong Studios,(480) 201-7204,duane@duanefurlongstudios.com,https://duanefurlongstudios.com/what-to-wear-for-headshots/,8601 E Palo Verde Dr,Scottsdale,AZ,85250
https://www.instagram.com/scottsdale_event_photography,Scottsdale Event Photography,(561) 385-5372,booking@scottsdaleeventphotography.com,https://scottsdaleeventphotography.com/,1211 N Miller Rd,Scottsdale,AZ,85257
https://www.instagram.com/timkingaz/,Timothy King Photography-Commercial Corporate Photographer,(602) 768-8413,tim@tlkingphotography.com,https://www.tlkingphotography.com/,8521 E McDowell Rd,Scottsdale,AZ,85257
https://www.instagram.com/explore/tags/nomorelazyheadshots/?hl=en,Tony Taafe Photography | Headshot & Portrait Studio,(323) 287-6399,tony@tonytaafe.com,https://www.tonytaafe.com/,7340 E Main St Ste 123,Scottsdale,AZ,85251
https://www.instagram.com/toddphotographic/,Todd Photographic Services,(602) 254-5080,services@toddphoto.com,https://toddphoto.com/,7430 E Butherus Dr Ste D,Scottsdale,AZ,85260
https://www.instagram.com/pixsterphotobooth,Pixster Photo Booth Rental Phoenix,(888) 668-5524,dave@pixsterphotobooth.com,https://www.pixsteraz.com/,8514 E Mackenzie Dr,Scottsdale,AZ,85251
https://www.instagram.com/jasonmillsteinphoto/,Jason Millstein Photography,(602) 622-0443,info@jasonmillstein.com,https://jasonmillstein.com/,6501 E Greenway Pkwy Ste. 103-115,Scottsdale,AZ,85254
https://www.instagram.com/truenorthwestweddings,True Northwest Weddings,(509) 990-4032,info@truenorthwestproductions.com,http://truenorthwestweddings.com/,9025 Dayton Ave N,Seattle,WA,98103
https://www.instagram.com/alishatrahmsphoto,Alisha Trahms Photography - Wedding Photographer in Milwaukee,(763) 238-0133,hello@alishatrahmsphotography.com,https://alishatrahmsphotography.com/,5209 Brooklyn Ave NE,Seattle,WA,98105
https://www.instagram.com/blue.rosepictures,Blue Rose Photography,(425) 231-9574,brittany@bluerosepictures.com,http://www.bluerosepictures.com/,900 Nob Hill Ave N,Seattle,WA,98109
https://www.instagram.com/sunnybrookphoto,Sunnybrook Photo,(970) 691-2345,rebecca@sunnybrookphoto.com,http://www.sunnybrookphoto.com/,Downtown,Seattle,WA,98101
https://www.instagram.com/bjonesphotos,B. Jones Photography,(360) 770-9190,becca@bjonesphotos.com,https://www.bjonesphotos.com/,105 Ward St,Seattle,WA,98109
https://www.instagram.com/urbanlightstudios,Urban Light Studios Photography,(206) 681-9316,erinlodi@urbanlightstudios.com,http://www.urbanlightstudios.com/,308 1st Ave,Seattle,WA,98104
https://www.instagram.com/ciccarelliphotography,Ciccarelli Photography,(206) 388-7664,info@ciccarelliphotography.com,http://ciccarelliphotography.com/,3816 Burke Ave N,Seattle,WA,98103
https://www.instagram.com/ronespina,Seattle Wedding Photographer Ron Espina,(206) 349-9428,ronespina@gmail.com,https://www.ronespina.com/,3607 Gilman Ave W,Seattle,WA,98199
https://www.instagram.com/stephaniecristalliphotography,Stephanie Cristalli Photography,(206) 783-8985,scristalli@mac.com,http://www.stephaniecristalli.com/,6536 44th Ave SW,Seattle,WA,98136
https://www.instagram.com/zerga,Victor Zerga,(206) 619-3742,viczerga@gmail.com,http://www.victorzerga.com/,3433 Airport Wy S,Seattle,WA,98134
https://www.instagram.com/microjupiter,Hinterland Stills,(815) 608-4433,discover@hinterlandstills.com,https://hinterlandstills.com/,3421 33rd Ave W apt a,Seattle,WA,98199
https://www.instagram.com/seattledjpro,DJ & Photo Booth Services,(425) 628-3336,seattledjpro@gmail.com,http://seattledjpro.com/,Whitman Apartments,Seattle,WA,98103
https://www.instagram.com/thehart_creative,The Hart Creative,(928) 525-4306,thehartcreative@gmail.com,http://www.thehartcreative.com/,3304 Fuhrman Ave E #7,Seattle,WA,98102
https://www.instagram.com/alex.james.hmua,Emma Studley Photography,(425) 367-3719,emmastudleyphoto@gmail.com,http://emmastudley.com/,6810 Roosevelt Way NE,Seattle,WA,98115
https://www.instagram.com/achongweddings,Achong Photography,(206) 268-0198,amanda@achong.org,http://achongphotography.com/,1631 15th Ave W #303,Seattle,WA,98119
https://www.instagram.com/kellyrobbinsphoto,Kelly Robbins Photo & Film,(206) 290-7227,kelly@kellyrobbinsphoto.com,http://kellyrobbinsphoto.com/,7717 37th Ave SW,Seattle,WA,98146
https://www.instagram.com/weddingsbyjenn,Jenn Tai & Co,(971) 220-6866,jenn@weddingsbyjenn.com,https://www.weddingsbyjenn.com/,14027 Roslyn Pl N,Seattle,WA,98133
https://www.instagram.com/yourfriendtographer,Amy Soper Photography,(206) 954-9449,amelia@soperphotography.com,http://www.soperphotography.com/,14300 Greenwood Ave N Suite D,Seattle,WA,98133
https://www.instagram.com/tom_ellis_photography,Tom Ellis Photography,(425) 646-2790,tom@tomellisphoto.com,https://www.tomellisphoto.com/,nd Ave,Seattle,WA,98104
https://www.instagram.com/miguelcorneliophotography,Miguel Cornelio Photography,(206) 999-4105,miguel@miguelcornelio.com,https://miguelcornelio.com/,4742 42nd Ave SW #559,Seattle,WA,98116
https://www.instagram.com/portraitgalleryvt/,Portrait Gallery,(802) 864-4411,jerry-stone@portraitgallery-vt.com,https://portraitgallery-vt.com/contact/,1500 Hinesburg Rd,South Burlington,VT,5403
https://instagram.com/ianmolla,Ian Molla Photography,(802) 526-9230,ianmolla@gmail.com,https://ianmolla.com/photography/,200 Main St,South Burlington,VT,
https://www.instagram.com/nataliestultzphotography/,Natalie Stultz Photography,(802) 238-0966,natalie@nataliestultz.com,https://www.nataliestultz.com/,4 Woodland Pl,South Burlington,Vt,5403
https://instagram.com/amvphotography/,AMV Photography Inc,(802) 877-6999,cs@amvphotography.com,http://www.amvphotography.com/,1233 Shelburne Rd,South Burlington,VT,5403
https://www.instagram.com/sarahharveyphoto,Sarah Harvey Wedding Photographer,(314) 750-4833,sarahharveyphoto@gmail.com,http://www.sarahharveyphotography.com/,5723 Arthur Ave,St. Louis,MO,63139
https://www.instagram.com/beautifulmessmo,Beautiful Mess Photography,(314) 496-1883,bailey@beautifulmessphoto.com,http://www.beautifulmessphoto.com/,7227 Moller Ave,St. Louis,MO,63143
https://www.instagram.com/loveandlifephotographystl,Love and Life Photography,(314) 435-8981,info@loveandlifephotography.com,http://www.loveandlifephotography.com/,3015 Salena St,St. Louis,MO,63118
https://www.instagram.com/ravettaphotography,Ravetta Photography Inc,(314) 781-4758,ravettainc@gmail.com,http://www.ravettaphotography.com/,3131 Hampton Ave,St. Louis,MO,63139
https://www.instagram.com/pinxitphoto,Pinxit Photo & Cinema,(314) 825-7469,raquita@pinxitphoto.com,http://pinxitphoto.com/,4067 Shenandoah Ave,St. Louis,MO,63110
https://www.instagram.com/coreyallenphotography,Corey Allen Photography,(309) 648-0871,coreyallenphotography@outlook.com,http://www.coreyallenphotography.com/,1007 Allen Ave,St. Louis,MO,63104
https://www.instagram.com/lam_photo,Laura Ann Miller,(618) 792-0952,laura@lauraannmiller.com,http://www.lauraannmiller.com/,3015 Salena St #103,St. Louis,MO,63118
https://www.instagram.com/leboudoirstl,Aloha Kelly Photography LLC,(314) 761-7250,aloha@boudoirstlouis.com,http://www.alohakellyphotography.com/,2024 S Jefferson Ave,St. Louis,MO,63104
https://www.instagram.com/phoebelandphoto,Phoebe Landrum Photography LLC,(212) 729-9544,phoebelandrum@gmail.com,https://www.phoebelandrumphotography.com/,4818 Washington Ave Lounge,St. Louis,MO,63108
https://www.instagram.com/rkc_photo_llc,Kris Heard Photography,(832) 438-4293,darkhorseartworks@gmail.com,http://www.rebeccakclark.com/,12814 Vista Ridge Ln,St. Louis,MO,63138
https://www.instagram.com/emilybroadbentphotography,Emily Broadbent Photography,(314) 368-3027,clubforwardtogether@gmail.com,https://emilybroadbent.com/,503 N 20th St,St. Louis,MO,63103
https://www.instagram.com/pinxitphoto/,Pinxit Photo&Cinema,(314) 825-7469,info@pinxitphoto.com,https://pinxitphoto.com/,4067 Shenandoah Ave,St. Louis,MO,63110
https://instagram.com/julianmylesphoto,"Julian Myles, Photographer",(513) 498-8842,julian@julianmyles.com,https://www.julianmylesphoto.com/,2701 Spring Grove,Ste 3200  Cincinnati,OH,45202
https://www.instagram.com/michaelangelosphotography/,Michaelangelo's Photography,(440) 260-7660,cheryl@michaelangelosphotography.com,http://www.michaelangelosphotography.com/,1400 East 30th Street,Suite 206  Cleveland,OH,44114
https://www.instagram.com/reginathephotographer,Regina as The Photographer - Tampa Wedding Photographer - St. Pete Wedding Photographer,(813) 610-5240,regina@asthephotographer.com,http://reginaasthephotographer.com/,1906 N Armenia Ave Suite 207,Tampa,FL,33607
https://www.instagram.com/stillsbyhernan,Stills by Hernan | Tampa Florida Wedding Photographer,(239) 269-2090,hello@stillsbyhernan.com,http://www.stillsbyhernan.com/,1502 N Florida Ave,Tampa,FL,33602
https://www.instagram.com/awey_photography,Awey Photography-Tampa Wedding Photographer,(813) 770-8725,kristen.wey58@gmail.com,http://aweyphotography.com/,1515 E Sligh Ave,Tampa,FL,33610
https://www.instagram.com/carographystudios,Carography Studios Wedding Photographer,(813) 399-0847,carolina@carographystudios.com,http://www.carographystudios.com/,19046 Bruce B Downs Blvd Suite 424,Tampa,FL,33647
https://www.instagram.com/ra.weddings,Ra Weddings Photography,(813) 298-4359,info@ra-weddings.com,http://www.ra-weddings.com/,5401 W Kennedy Blvd,Tampa,FL,33609
https://www.instagram.com/eddyalmaguerphotography,Eddy Almaguer Photography - Tampa Wedding Photographer,(813) 658-8731,hello@eddyalmaguer.com,https://eddyalmaguer.com/,7504 Hollowell Dr,Tampa,FL,33615
https://www.instagram.com/aliciapescophoto,Alicia Pesco Photography,(845) 235-0241,aliciapesco@gmail.com,http://www.aliciapesco.com/,N Marion St,Tampa,FL,33602
https://www.instagram.com/ashlee_hamon_photography,Ashlee Hamon Photography,(813) 758-9407,ashlee@ashleehamon.com,http://www.ashleehamon.com/,1646 W Snow Ave,Tampa,FL,33606
https://www.instagram.com/jasonmizephoto,StehlikFoto,(813) 695-2441,jason@jasonmizephotography.com,http://www.jasonmizephotography.com/,777 N Ashley Dr,Tampa,FL,33602
https://www.instagram.com/coastalfilmlab,Marissa Moss Photography,(813) 317-6467,marissa@marissa-moss.com,http://www.marissa-moss.com/,205 S MacDill Ave,Tampa,FL,33609
https://www.instagram.com/headoverheelsphoto,Head Over Heels Photography,(813) 675-7140,smile@headoverheelsphoto.com,http://headoverheelsphoto.com/,19246 Early Violet Dr,Tampa,FL,33647
https://www.instagram.com/radredcreative,Rad Red Creative - Tampa Photographer,(813) 545-7074,radredcreative@gmail.com,http://www.radredcreative.com/,7408 N Highland Ave,Tampa,FL,33604
https://www.instagram.com/christinamaldonadophoto,Christina Maldonado Photography,(727) 688-1348,info@christinamaldonado.com,http://www.christinamaldonado.com/,2700 N Mac Dill Ave Suite #210 Mailbox #16,Tampa,FL,33607
https://www.instagram.com/josecheitophotos,JoseCheito Photography,(813) 215-5347,photosbyjose@mac.com,http://www.photosbyjose.com/,4332 W North B St,Tampa,FL,33609
https://www.instagram.com/ashley_izquierdo,Ashley Izquierdo,(813) 362-6071,ashleyizphoto@gmail.com,http://www.ashleyizquierdo.com/,103 W Alva St,Tampa,FL,33615
https://www.instagram.com/loveashaphoto,Love Asha Photography,(727) 677-1344,loveashaphoto@gmail.com,http://www.loveasha.com/,8212 Stockton Way,Tampa,FL,33647
https://www.instagram.com/leshaynemaddexphotographer,LeShayne Maddex Photographer,(727) 515-2650,info@leshayne.com,https://www.leshayne.com/,14806 Coral Berry Dr,Tampa,FL,33626
https://www.instagram.com/patelcreative,Patel Creative,(202) 302-5797,nil@patelcreative.com,http://www.patelcreative.com/,16382 Compton Palms Dr,Tampa,FL,33647
https://www.instagram.com/madimagesinc,M.A.D. Images,(813) 956-4077,melissa@madimagesinc.com,http://www.madimagesinc.com/,1906 N Armenia Ave #200,Tampa,FL,33607
https://www.instagram.com/gemas_photographyllc,Gemas Photography,(813) 952-0680,gemasphotography0219@gmail.com,https://gemasphotographyllc.com/,2017 N 60th St,Tampa,FL,33619
https://www.instagram.com/davebentleyphotos/,Dave Bentley Photography,(480) 253-9695,info@davebentleyphotography.com,https://davebentleyphotography.com/,2325 E Rio Salado Pkwy,Tempe,AZ,85281
https://www.instagram.com/solaris_tucson,Solaris Photography,(520) 591-9313,lupita@solarisphoto.com,http://www.solarisphoto.com/,22nd and Kolb,Tucson,AZ,85710
https://www.instagram.com/mhollandphoto,Melissa Holland Photography,(773) 520-3938,mhollandphotography@gmail.com,http://www.mhollandphotography.com/,Tucson AZ 85701,Tucson,AZ,85701
https://www.instagram.com/candidsol,Merdeka Studios Inc.,(520) 343-4046,hellolove@candidsol.net,http://www.candidsol.net/,2125 N Tucson Blvd,Tucson,AZ,85716
https://www.instagram.com/dominic_ortiz_photography,Dominic Ortiz Photography,(520) 270-7577,mail@dominicortiz.com,http://dominicortiz.com/,5017 N Desert Tortoise Pl,Tucson,AZ,85745
https://www.instagram.com/timothyeyrich,Timothy Eyrich Photography,(240) 393-9269,timothy@timothyeyrichphotography.com,http://www.timothyeyrichphotography.com/,10156 E Sonoran Heights Pl,Tucson,AZ,85748
https://www.instagram.com/heather_allenphoto,Allen Photography,(520) 222-8864,allenheatherh@gmail.com,https://allen-photo.com/,975 N Silverbell Rd,Tucson,AZ,85745
https://www.instagram.com/sunglowphotofilm,Sunglow Photo + Film,(520) 222-8744,hello@sunglowphotofilm.com,https://www.sunglowphotofilm.com/,825 E Mitchell Dr,Tucson,AZ,85719
https://www.instagram.com/jwphotographytucson,JW Photography LLC,(520) 730-8697,info@jwphotographytucson.com,http://www.jwphotographytucson.com/,6342 E Calle Bellatrix,Tucson,AZ,85710
https://www.instagram.com/somethingbluetucson/?hl=en,Something Blue Photography,(520) 808-9812,info@somethingbluephotography.net,https://www.somethingbluephotography.net/,314 S Convent,Tucson,AZ,85701
https://www.instagram.com/audriaabney,Audria Abney Photography,(520) 979-0537,audriaabney@gmail.com,https://audriaabney.com/,657 W St Marys Rd,Tucson,Az,85701
https://www.instagram.com/silhouettephototucson/,Silhouette Photography,(520) 886-1710,silhouettephototucson@gmail.com,https://www.silhouettephoto.com/,6541 E Tanque Verde Rd,Tucson,AZ,85715
https://www.instagram.com/asa_photographic/,Asa Moore: Photographic Services,(520) 477-8921,asa.photographic@gmail.com,http://asa-photographic.com/,5843 E 1st St,Tucson,AZ,85711
https://www.instagram.com/dual_edge_photography,Dual Edge Photography,(401) 479-9261,info@dualedgephotography.com,https://dualedgephotography.com/,73 Boylston St,Warwick,Ri,2889
https://www.instagram.com/tracyjenkinsphotography/,Tracy Jenkins Photography,(401) 284-7697,contact@tracyjenkinsphotography.com,https://tracyjenkinsphotography.com/,67 Manchester St,West Warwick,RI,2893
https://www.instagram.com/scott.raymond.photography/,Scott Raymond Photography,(508) 873-0816,scottraymondphotography@gmail.com,https://www.scottraymondphotography.com/,Location Photographer,Worcester,MA,1602
https://www.instagram.com/aaronaldhizerphoto,Aaron Aldhizer Wedding Photography,(216) 973-8632,photo@aaronaldhizerphotography.com,https://aaronaldhizerphotography.com/,10744 Valley View Road,,OH,44067